ID,Pid,Name,Level,Pinyin,First,Province,City,County
110000,100000,北京,1,BEI_JING,B,北京,,
110100,110000,北京市,2,BEI_JING_SHI,B,北京,北京市,
110101,110100,东城区,3,DONG_CHENG_QU,D,北京,北京市,东城区
110102,110100,西城区,3,XI_CHENG_QU,X,北京,北京市,西城区
110105,110100,朝阳区,3,CHAO_YANG_QU,C,北京,北京市,朝阳区
110106,110100,丰台区,3,FENG_TAI_QU,F,北京,北京市,丰台区
110107,110100,石景山区,3,SHI_JING_SHAN_QU,S,北京,北京市,石景山区
110108,110100,海淀区,3,HAI_DIAN_QU,H,北京,北京市,海淀区
110109,110100,门头沟区,3,MEN_TOU_GOU_QU,M,北京,北京市,门头沟区
110111,110100,房山区,3,FANG_SHAN_QU,F,北京,北京市,房山区
110112,110100,通州区,3,TONG_ZHOU_QU,T,北京,北京市,通州区
110113,110100,顺义区,3,SHUN_YI_QU,S,北京,北京市,顺义区
110114,110100,昌平区,3,CHANG_PING_QU,C,北京,北京市,昌平区
110115,110100,大兴区,3,DA_XING_QU,D,北京,北京市,大兴区
110116,110100,怀柔区,3,HUAI_ROU_QU,H,北京,北京市,怀柔区
110117,110100,平谷区,3,PING_GU_QU,P,北京,北京市,平谷区
110118,110100,密云区,3,MI_YUN_QU,M,北京,北京市,密云区
110119,110100,延庆区,3,YAN_QING_QU,Y,北京,北京市,延庆区
120000,100000,天津,1,TIAN_JIN,T,天津,,
120100,120000,天津市,2,TIAN_JIN_SHI,T,天津,天津市,
120103,120100,河西区,3,HE_XI_QU,H,天津,天津市,河西区
120101,120100,和平区,3,HE_PING_QU,H,天津,天津市,和平区
120102,120100,河东区,3,HE_DONG_QU,H,天津,天津市,河东区
120104,120100,南开区,3,NAN_KAI_QU,N,天津,天津市,南开区
120105,120100,河北区,3,HE_BEI_QU,H,天津,天津市,河北区
120106,120100,红桥区,3,HONG_QIAO_QU,H,天津,天津市,红桥区
120110,120100,东丽区,3,DONG_LI_QU,D,天津,天津市,东丽区
120111,120100,西青区,3,XI_QING_QU,X,天津,天津市,西青区
120112,120100,津南区,3,JIN_NAN_QU,J,天津,天津市,津南区
120113,120100,北辰区,3,BEI_CHEN_QU,B,天津,天津市,北辰区
120114,120100,武清区,3,WU_QING_QU,W,天津,天津市,武清区
120115,120100,宝坻区,3,BAO_CHI_QU,B,天津,天津市,宝坻区
120116,120100,滨海新区,3,BIN_HAI_XIN_QU,B,天津,天津市,滨海新区
120117,120100,宁河区,3,NING_HE_QU,N,天津,天津市,宁河区
120118,120100,静海区,3,JING_HAI_QU,J,天津,天津市,静海区
120119,120100,蓟州区,3,JI_ZHOU_QU,J,天津,天津市,蓟州区
130000,100000,河北省,1,HE_BEI_SHENG,H,河北省,,
130100,130000,石家庄市,2,SHI_JIA_ZHUANG_SHI,S,河北省,石家庄市,
130102,130100,长安区,3,ZHANG_AN_QU,Z,河北省,石家庄市,长安区
130104,130100,桥西区,3,QIAO_XI_QU,Q,河北省,石家庄市,桥西区
130105,130100,新华区,3,XIN_HUA_QU,X,河北省,石家庄市,新华区
130107,130100,井陉矿区,3,JING_XING_KUANG_QU,J,河北省,石家庄市,井陉矿区
130108,130100,裕华区,3,YU_HUA_QU,Y,河北省,石家庄市,裕华区
130109,130100,藁城区,3,GAO_CHENG_QU,G,河北省,石家庄市,藁城区
130110,130100,鹿泉区,3,LU_QUAN_QU,L,河北省,石家庄市,鹿泉区
130111,130100,栾城区,3,LUAN_CHENG_QU,L,河北省,石家庄市,栾城区
130181,130100,辛集市,3,XIN_JI_SHI,X,河北省,石家庄市,辛集市
130183,130100,晋州市,3,JIN_ZHOU_SHI,J,河北省,石家庄市,晋州市
130184,130100,新乐市,3,XIN_LE_SHI,X,河北省,石家庄市,新乐市
130121,130100,井陉县,3,JING_XING_XIAN,J,河北省,石家庄市,井陉县
130123,130100,正定县,3,ZHENG_DING_XIAN,Z,河北省,石家庄市,正定县
130125,130100,行唐县,3,XING_TANG_XIAN,X,河北省,石家庄市,行唐县
130126,130100,灵寿县,3,LING_SHOU_XIAN,L,河北省,石家庄市,灵寿县
130127,130100,高邑县,3,GAO_YI_XIAN,G,河北省,石家庄市,高邑县
130128,130100,深泽县,3,SHEN_ZE_XIAN,S,河北省,石家庄市,深泽县
130129,130100,赞皇县,3,ZAN_HUANG_XIAN,Z,河北省,石家庄市,赞皇县
130130,130100,无极县,3,WU_JI_XIAN,W,河北省,石家庄市,无极县
130131,130100,平山县,3,PING_SHAN_XIAN,P,河北省,石家庄市,平山县
130132,130100,元氏县,3,YUAN_SHI_XIAN,Y,河北省,石家庄市,元氏县
130133,130100,赵县,3,ZHAO_XIAN,Z,河北省,石家庄市,赵县
130200,130000,唐山市,2,TANG_SHAN_SHI,T,河北省,唐山市,
130203,130200,路北区,3,LU_BEI_QU,L,河北省,唐山市,路北区
130202,130200,路南区,3,LU_NAN_QU,L,河北省,唐山市,路南区
130204,130200,古冶区,3,GU_YE_QU,G,河北省,唐山市,古冶区
130205,130200,开平区,3,KAI_PING_QU,K,河北省,唐山市,开平区
130207,130200,丰南区,3,FENG_NAN_QU,F,河北省,唐山市,丰南区
130208,130200,丰润区,3,FENG_RUN_QU,F,河北省,唐山市,丰润区
130209,130200,曹妃甸区,3,CAO_FEI_DIAN_QU,C,河北省,唐山市,曹妃甸区
130281,130200,遵化市,3,ZUN_HUA_SHI,Z,河北省,唐山市,遵化市
130283,130200,迁安市,3,QIAN_AN_SHI,Q,河北省,唐山市,迁安市
130223,130200,滦县,3,LUAN_XIAN,L,河北省,唐山市,滦县
130224,130200,滦南县,3,LUAN_NAN_XIAN,L,河北省,唐山市,滦南县
130225,130200,乐亭县,3,LE_TING_XIAN,L,河北省,唐山市,乐亭县
130227,130200,迁西县,3,QIAN_XI_XIAN,Q,河北省,唐山市,迁西县
130229,130200,玉田县,3,YU_TIAN_XIAN,Y,河北省,唐山市,玉田县
130300,130000,秦皇岛市,2,QIN_HUANG_DAO_SHI,Q,河北省,秦皇岛市,
130302,130300,海港区,3,HAI_GANG_QU,H,河北省,秦皇岛市,海港区
130303,130300,山海关区,3,SHAN_HAI_GUAN_QU,S,河北省,秦皇岛市,山海关区
130304,130300,北戴河区,3,BEI_DAI_HE_QU,B,河北省,秦皇岛市,北戴河区
130306,130300,抚宁区,3,FU_NING_QU,F,河北省,秦皇岛市,抚宁区
130322,130300,昌黎县,3,CHANG_LI_XIAN,C,河北省,秦皇岛市,昌黎县
130324,130300,卢龙县,3,LU_LONG_XIAN,L,河北省,秦皇岛市,卢龙县
130321,130300,青龙满族自治县,3,QING_LONG_MAN_ZU_ZI_ZHI_XIAN,Q,河北省,秦皇岛市,青龙满族自治县
130400,130000,邯郸市,2,HAN_DAN_SHI,H,河北省,邯郸市,
130403,130400,丛台区,3,CONG_TAI_QU,C,河北省,邯郸市,丛台区
130402,130400,邯山区,3,HAN_SHAN_QU,H,河北省,邯郸市,邯山区
130404,130400,复兴区,3,FU_XING_QU,F,河北省,邯郸市,复兴区
130406,130400,峰峰矿区,3,FENG_FENG_KUANG_QU,F,河北省,邯郸市,峰峰矿区
130407,130400,肥乡区,3,FEI_XIANG_QU,F,河北省,邯郸市,肥乡区
130408,130400,永年区,3,YONG_NIAN_QU,Y,河北省,邯郸市,永年区
130481,130400,武安市,3,WU_AN_SHI,W,河北省,邯郸市,武安市
130423,130400,临漳县,3,LIN_ZHANG_XIAN,L,河北省,邯郸市,临漳县
130424,130400,成安县,3,CHENG_AN_XIAN,C,河北省,邯郸市,成安县
130425,130400,大名县,3,DA_MING_XIAN,D,河北省,邯郸市,大名县
130426,130400,涉县,3,SHE_XIAN,S,河北省,邯郸市,涉县
130427,130400,磁县,3,CI_XIAN,C,河北省,邯郸市,磁县
130430,130400,邱县,3,QIU_XIAN,Q,河北省,邯郸市,邱县
130431,130400,鸡泽县,3,JI_ZE_XIAN,J,河北省,邯郸市,鸡泽县
130432,130400,广平县,3,GUANG_PING_XIAN,G,河北省,邯郸市,广平县
130433,130400,馆陶县,3,GUAN_TAO_XIAN,G,河北省,邯郸市,馆陶县
130434,130400,魏县,3,WEI_XIAN,W,河北省,邯郸市,魏县
130435,130400,曲周县,3,QU_ZHOU_XIAN,Q,河北省,邯郸市,曲周县
130500,130000,邢台市,2,XING_TAI_SHI,X,河北省,邢台市,
130502,130500,桥东区,3,QIAO_DONG_QU,Q,河北省,邢台市,桥东区
130503,130500,桥西区,3,QIAO_XI_QU,Q,河北省,邢台市,桥西区
130581,130500,南宫市,3,NAN_GONG_SHI,N,河北省,邢台市,南宫市
130582,130500,沙河市,3,SHA_HE_SHI,S,河北省,邢台市,沙河市
130521,130500,邢台县,3,XING_TAI_XIAN,X,河北省,邢台市,邢台县
130522,130500,临城县,3,LIN_CHENG_XIAN,L,河北省,邢台市,临城县
130523,130500,内丘县,3,NEI_QIU_XIAN,N,河北省,邢台市,内丘县
130524,130500,柏乡县,3,BO_XIANG_XIAN,B,河北省,邢台市,柏乡县
130525,130500,隆尧县,3,LONG_YAO_XIAN,L,河北省,邢台市,隆尧县
130526,130500,任县,3,REN_XIAN,R,河北省,邢台市,任县
130527,130500,南和县,3,NAN_HE_XIAN,N,河北省,邢台市,南和县
130528,130500,宁晋县,3,NING_JIN_XIAN,N,河北省,邢台市,宁晋县
130529,130500,巨鹿县,3,JU_LU_XIAN,J,河北省,邢台市,巨鹿县
130530,130500,新河县,3,XIN_HE_XIAN,X,河北省,邢台市,新河县
130531,130500,广宗县,3,GUANG_ZONG_XIAN,G,河北省,邢台市,广宗县
130532,130500,平乡县,3,PING_XIANG_XIAN,P,河北省,邢台市,平乡县
130533,130500,威县,3,WEI_XIAN,W,河北省,邢台市,威县
130534,130500,清河县,3,QING_HE_XIAN,Q,河北省,邢台市,清河县
130535,130500,临西县,3,LIN_XI_XIAN,L,河北省,邢台市,临西县
130600,130000,保定市,2,BAO_DING_SHI,B,河北省,保定市,
130602,130600,竞秀区,3,JING_XIU_QU,J,河北省,保定市,竞秀区
130606,130600,莲池区,3,LIAN_CHI_QU,L,河北省,保定市,莲池区
130607,130600,满城区,3,MAN_CHENG_QU,M,河北省,保定市,满城区
130608,130600,清苑区,3,QING_YUAN_QU,Q,河北省,保定市,清苑区
130609,130600,徐水区,3,XU_SHUI_QU,X,河北省,保定市,徐水区
130681,130600,涿州市,3,ZHUO_ZHOU_SHI,Z,河北省,保定市,涿州市
130682,130600,定州市,3,DING_ZHOU_SHI,D,河北省,保定市,定州市
130683,130600,安国市,3,AN_GUO_SHI,A,河北省,保定市,安国市
130684,130600,高碑店市,3,GAO_BEI_DIAN_SHI,G,河北省,保定市,高碑店市
130623,130600,涞水县,3,LAI_SHUI_XIAN,L,河北省,保定市,涞水县
130624,130600,阜平县,3,FU_PING_XIAN,F,河北省,保定市,阜平县
130626,130600,定兴县,3,DING_XING_XIAN,D,河北省,保定市,定兴县
130627,130600,唐县,3,TANG_XIAN,T,河北省,保定市,唐县
130628,130600,高阳县,3,GAO_YANG_XIAN,G,河北省,保定市,高阳县
130629,130600,容城县,3,RONG_CHENG_XIAN,R,河北省,保定市,容城县
130630,130600,涞源县,3,LAI_YUAN_XIAN,L,河北省,保定市,涞源县
130631,130600,望都县,3,WANG_DOU_XIAN,W,河北省,保定市,望都县
130632,130600,安新县,3,AN_XIN_XIAN,A,河北省,保定市,安新县
130633,130600,易县,3,YI_XIAN,Y,河北省,保定市,易县
130634,130600,曲阳县,3,QU_YANG_XIAN,Q,河北省,保定市,曲阳县
130635,130600,蠡县,3,LI_XIAN,L,河北省,保定市,蠡县
130636,130600,顺平县,3,SHUN_PING_XIAN,S,河北省,保定市,顺平县
130637,130600,博野县,3,BO_YE_XIAN,B,河北省,保定市,博野县
130638,130600,雄县,3,XIONG_XIAN,X,河北省,保定市,雄县
130700,130000,张家口市,2,ZHANG_JIA_KOU_SHI,Z,河北省,张家口市,
130703,130700,桥西区,3,QIAO_XI_QU,Q,河北省,张家口市,桥西区
130702,130700,桥东区,3,QIAO_DONG_QU,Q,河北省,张家口市,桥东区
130705,130700,宣化区,3,XUAN_HUA_QU,X,河北省,张家口市,宣化区
130706,130700,下花园区,3,XIA_HUA_YUAN_QU,X,河北省,张家口市,下花园区
130708,130700,万全区,3,WAN_QUAN_QU,W,河北省,张家口市,万全区
130709,130700,崇礼区,3,CHONG_LI_QU,C,河北省,张家口市,崇礼区
130722,130700,张北县,3,ZHANG_BEI_XIAN,Z,河北省,张家口市,张北县
130723,130700,康保县,3,KANG_BAO_XIAN,K,河北省,张家口市,康保县
130724,130700,沽源县,3,GU_YUAN_XIAN,G,河北省,张家口市,沽源县
130725,130700,尚义县,3,SHANG_YI_XIAN,S,河北省,张家口市,尚义县
130726,130700,蔚县,3,YU_XIAN,Y,河北省,张家口市,蔚县
130727,130700,阳原县,3,YANG_YUAN_XIAN,Y,河北省,张家口市,阳原县
130728,130700,怀安县,3,HUAI_AN_XIAN,H,河北省,张家口市,怀安县
130730,130700,怀来县,3,HUAI_LAI_XIAN,H,河北省,张家口市,怀来县
130731,130700,涿鹿县,3,ZHUO_LU_XIAN,Z,河北省,张家口市,涿鹿县
130732,130700,赤城县,3,CHI_CHENG_XIAN,C,河北省,张家口市,赤城县
130800,130000,承德市,2,CHENG_DE_SHI,C,河北省,承德市,
130802,130800,双桥区,3,SHUANG_QIAO_QU,S,河北省,承德市,双桥区
130803,130800,双滦区,3,SHUANG_LUAN_QU,S,河北省,承德市,双滦区
130804,130800,鹰手营子矿区,3,YING_SHOU_YING_ZI_KUANG_QU,Y,河北省,承德市,鹰手营子矿区
130881,130800,平泉市,3,PING_QUAN_SHI,P,河北省,承德市,平泉市
130821,130800,承德县,3,CHENG_DE_XIAN,C,河北省,承德市,承德县
130822,130800,兴隆县,3,XING_LONG_XIAN,X,河北省,承德市,兴隆县
130824,130800,滦平县,3,LUAN_PING_XIAN,L,河北省,承德市,滦平县
130825,130800,隆化县,3,LONG_HUA_XIAN,L,河北省,承德市,隆化县
130826,130800,丰宁满族自治县,3,FENG_NING_MAN_ZU_ZI_ZHI_XIAN,F,河北省,承德市,丰宁满族自治县
130827,130800,宽城满族自治县,3,KUAN_CHENG_MAN_ZU_ZI_ZHI_XIAN,K,河北省,承德市,宽城满族自治县
130828,130800,围场满族蒙古族自治县,3,WEI_CHANG_MAN_ZU_MENG_GU_ZU_ZI_ZHI_XIAN,W,河北省,承德市,围场满族蒙古族自治县
130900,130000,沧州市,2,CANG_ZHOU_SHI,C,河北省,沧州市,
130903,130900,运河区,3,YUN_HE_QU,Y,河北省,沧州市,运河区
130902,130900,新华区,3,XIN_HUA_QU,X,河北省,沧州市,新华区
130981,130900,泊头市,3,BO_TOU_SHI,B,河北省,沧州市,泊头市
130982,130900,任丘市,3,REN_QIU_SHI,R,河北省,沧州市,任丘市
130983,130900,黄骅市,3,HUANG_HUA_SHI,H,河北省,沧州市,黄骅市
130984,130900,河间市,3,HE_JIAN_SHI,H,河北省,沧州市,河间市
130921,130900,沧县,3,CANG_XIAN,C,河北省,沧州市,沧县
130922,130900,青县,3,QING_XIAN,Q,河北省,沧州市,青县
130923,130900,东光县,3,DONG_GUANG_XIAN,D,河北省,沧州市,东光县
130924,130900,海兴县,3,HAI_XING_XIAN,H,河北省,沧州市,海兴县
130925,130900,盐山县,3,YAN_SHAN_XIAN,Y,河北省,沧州市,盐山县
130926,130900,肃宁县,3,SU_NING_XIAN,S,河北省,沧州市,肃宁县
130927,130900,南皮县,3,NAN_PI_XIAN,N,河北省,沧州市,南皮县
130928,130900,吴桥县,3,WU_QIAO_XIAN,W,河北省,沧州市,吴桥县
130929,130900,献县,3,XIAN_XIAN,X,河北省,沧州市,献县
130930,130900,孟村回族自治县,3,MENG_CUN_HUI_ZU_ZI_ZHI_XIAN,M,河北省,沧州市,孟村回族自治县
131000,130000,廊坊市,2,LANG_FANG_SHI,L,河北省,廊坊市,
131003,131000,广阳区,3,GUANG_YANG_QU,G,河北省,廊坊市,广阳区
131002,131000,安次区,3,AN_CI_QU,A,河北省,廊坊市,安次区
131081,131000,霸州市,3,BA_ZHOU_SHI,B,河北省,廊坊市,霸州市
131082,131000,三河市,3,SAN_HE_SHI,S,河北省,廊坊市,三河市
131022,131000,固安县,3,GU_AN_XIAN,G,河北省,廊坊市,固安县
131023,131000,永清县,3,YONG_QING_XIAN,Y,河北省,廊坊市,永清县
131024,131000,香河县,3,XIANG_HE_XIAN,X,河北省,廊坊市,香河县
131025,131000,大城县,3,DA_CHENG_XIAN,D,河北省,廊坊市,大城县
131026,131000,文安县,3,WEN_AN_XIAN,W,河北省,廊坊市,文安县
131028,131000,大厂回族自治县,3,DA_CHANG_HUI_ZU_ZI_ZHI_XIAN,D,河北省,廊坊市,大厂回族自治县
131100,130000,衡水市,2,HENG_SHUI_SHI,H,河北省,衡水市,
131102,131100,桃城区,3,TAO_CHENG_QU,T,河北省,衡水市,桃城区
131103,131100,冀州区,3,JI_ZHOU_QU,J,河北省,衡水市,冀州区
131182,131100,深州市,3,SHEN_ZHOU_SHI,S,河北省,衡水市,深州市
131121,131100,枣强县,3,ZAO_QIANG_XIAN,Z,河北省,衡水市,枣强县
131122,131100,武邑县,3,WU_YI_XIAN,W,河北省,衡水市,武邑县
131123,131100,武强县,3,WU_QIANG_XIAN,W,河北省,衡水市,武强县
131124,131100,饶阳县,3,RAO_YANG_XIAN,R,河北省,衡水市,饶阳县
131125,131100,安平县,3,AN_PING_XIAN,A,河北省,衡水市,安平县
131126,131100,故城县,3,GU_CHENG_XIAN,G,河北省,衡水市,故城县
131127,131100,景县,3,JING_XIAN,J,河北省,衡水市,景县
131128,131100,阜城县,3,FU_CHENG_XIAN,F,河北省,衡水市,阜城县
140000,100000,山西省,1,SHAN_XI_SHENG,S,山西省,,
140100,140000,太原市,2,TAI_YUAN_SHI,T,山西省,太原市,
140107,140100,杏花岭区,3,XING_HUA_LING_QU,X,山西省,太原市,杏花岭区
140105,140100,小店区,3,XIAO_DIAN_QU,X,山西省,太原市,小店区
140106,140100,迎泽区,3,YING_ZE_QU,Y,山西省,太原市,迎泽区
140108,140100,尖草坪区,3,JIAN_CAO_PING_QU,J,山西省,太原市,尖草坪区
140109,140100,万柏林区,3,WAN_BO_LIN_QU,W,山西省,太原市,万柏林区
140110,140100,晋源区,3,JIN_YUAN_QU,J,山西省,太原市,晋源区
140181,140100,古交市,3,GU_JIAO_SHI,G,山西省,太原市,古交市
140121,140100,清徐县,3,QING_XU_XIAN,Q,山西省,太原市,清徐县
140122,140100,阳曲县,3,YANG_QU_XIAN,Y,山西省,太原市,阳曲县
140123,140100,娄烦县,3,LOU_FAN_XIAN,L,山西省,太原市,娄烦县
140200,140000,大同市,2,DA_TONG_SHI,D,山西省,大同市,
140202,140200,城区,3,CHENG_QU,C,山西省,大同市,城区
140203,140200,矿区,3,KUANG_QU,K,山西省,大同市,矿区
140211,140200,南郊区,3,NAN_JIAO_QU,N,山西省,大同市,南郊区
140212,140200,新荣区,3,XIN_RONG_QU,X,山西省,大同市,新荣区
140221,140200,阳高县,3,YANG_GAO_XIAN,Y,山西省,大同市,阳高县
140222,140200,天镇县,3,TIAN_ZHEN_XIAN,T,山西省,大同市,天镇县
140223,140200,广灵县,3,GUANG_LING_XIAN,G,山西省,大同市,广灵县
140224,140200,灵丘县,3,LING_QIU_XIAN,L,山西省,大同市,灵丘县
140225,140200,浑源县,3,HUN_YUAN_XIAN,H,山西省,大同市,浑源县
140226,140200,左云县,3,ZUO_YUN_XIAN,Z,山西省,大同市,左云县
140227,140200,大同县,3,DA_TONG_XIAN,D,山西省,大同市,大同县
140300,140000,阳泉市,2,YANG_QUAN_SHI,Y,山西省,阳泉市,
140302,140300,城区,3,CHENG_QU,C,山西省,阳泉市,城区
140303,140300,矿区,3,KUANG_QU,K,山西省,阳泉市,矿区
140311,140300,郊区,3,JIAO_QU,J,山西省,阳泉市,郊区
140321,140300,平定县,3,PING_DING_XIAN,P,山西省,阳泉市,平定县
140322,140300,盂县,3,YU_XIAN,Y,山西省,阳泉市,盂县
140400,140000,长治市,2,ZHANG_ZHI_SHI,Z,山西省,长治市,
140402,140400,城区,3,CHENG_QU,C,山西省,长治市,城区
140411,140400,郊区,3,JIAO_QU,J,山西省,长治市,郊区
140481,140400,潞城市,3,LU_CHENG_SHI,L,山西省,长治市,潞城市
140421,140400,长治县,3,ZHANG_ZHI_XIAN,Z,山西省,长治市,长治县
140423,140400,襄垣县,3,XIANG_YUAN_XIAN,X,山西省,长治市,襄垣县
140424,140400,屯留县,3,TUN_LIU_XIAN,T,山西省,长治市,屯留县
140425,140400,平顺县,3,PING_SHUN_XIAN,P,山西省,长治市,平顺县
140426,140400,黎城县,3,LI_CHENG_XIAN,L,山西省,长治市,黎城县
140427,140400,壶关县,3,HU_GUAN_XIAN,H,山西省,长治市,壶关县
140428,140400,长子县,3,ZHANG_ZI_XIAN,Z,山西省,长治市,长子县
140429,140400,武乡县,3,WU_XIANG_XIAN,W,山西省,长治市,武乡县
140430,140400,沁县,3,QIN_XIAN,Q,山西省,长治市,沁县
140431,140400,沁源县,3,QIN_YUAN_XIAN,Q,山西省,长治市,沁源县
140500,140000,晋城市,2,JIN_CHENG_SHI,J,山西省,晋城市,
140502,140500,城区,3,CHENG_QU,C,山西省,晋城市,城区
140581,140500,高平市,3,GAO_PING_SHI,G,山西省,晋城市,高平市
140521,140500,沁水县,3,QIN_SHUI_XIAN,Q,山西省,晋城市,沁水县
140522,140500,阳城县,3,YANG_CHENG_XIAN,Y,山西省,晋城市,阳城县
140524,140500,陵川县,3,LING_CHUAN_XIAN,L,山西省,晋城市,陵川县
140525,140500,泽州县,3,ZE_ZHOU_XIAN,Z,山西省,晋城市,泽州县
140600,140000,朔州市,2,SHUO_ZHOU_SHI,S,山西省,朔州市,
140602,140600,朔城区,3,SHUO_CHENG_QU,S,山西省,朔州市,朔城区
140603,140600,平鲁区,3,PING_LU_QU,P,山西省,朔州市,平鲁区
140621,140600,山阴县,3,SHAN_YIN_XIAN,S,山西省,朔州市,山阴县
140622,140600,应县,3,YING_XIAN,Y,山西省,朔州市,应县
140623,140600,右玉县,3,YOU_YU_XIAN,Y,山西省,朔州市,右玉县
140624,140600,怀仁县,3,HUAI_REN_XIAN,H,山西省,朔州市,怀仁县
140700,140000,晋中市,2,JIN_ZHONG_SHI,J,山西省,晋中市,
140702,140700,榆次区,3,YU_CI_QU,Y,山西省,晋中市,榆次区
140781,140700,介休市,3,JIE_XIU_SHI,J,山西省,晋中市,介休市
140721,140700,榆社县,3,YU_SHE_XIAN,Y,山西省,晋中市,榆社县
140722,140700,左权县,3,ZUO_QUAN_XIAN,Z,山西省,晋中市,左权县
140723,140700,和顺县,3,HE_SHUN_XIAN,H,山西省,晋中市,和顺县
140724,140700,昔阳县,3,XI_YANG_XIAN,X,山西省,晋中市,昔阳县
140725,140700,寿阳县,3,SHOU_YANG_XIAN,S,山西省,晋中市,寿阳县
140726,140700,太谷县,3,TAI_GU_XIAN,T,山西省,晋中市,太谷县
140727,140700,祁县,3,QI_XIAN,Q,山西省,晋中市,祁县
140728,140700,平遥县,3,PING_YAO_XIAN,P,山西省,晋中市,平遥县
140729,140700,灵石县,3,LING_SHI_XIAN,L,山西省,晋中市,灵石县
140800,140000,运城市,2,YUN_CHENG_SHI,Y,山西省,运城市,
140802,140800,盐湖区,3,YAN_HU_QU,Y,山西省,运城市,盐湖区
140881,140800,永济市,3,YONG_JI_SHI,Y,山西省,运城市,永济市
140882,140800,河津市,3,HE_JIN_SHI,H,山西省,运城市,河津市
140821,140800,临猗县,3,LIN_YI_XIAN,L,山西省,运城市,临猗县
140822,140800,万荣县,3,WAN_RONG_XIAN,W,山西省,运城市,万荣县
140823,140800,闻喜县,3,WEN_XI_XIAN,W,山西省,运城市,闻喜县
140824,140800,稷山县,3,JI_SHAN_XIAN,J,山西省,运城市,稷山县
140825,140800,新绛县,3,XIN_JIANG_XIAN,X,山西省,运城市,新绛县
140826,140800,绛县,3,JIANG_XIAN,J,山西省,运城市,绛县
140827,140800,垣曲县,3,YUAN_QU_XIAN,Y,山西省,运城市,垣曲县
140828,140800,夏县,3,XIA_XIAN,X,山西省,运城市,夏县
140829,140800,平陆县,3,PING_LU_XIAN,P,山西省,运城市,平陆县
140830,140800,芮城县,3,RUI_CHENG_XIAN,R,山西省,运城市,芮城县
140900,140000,忻州市,2,XIN_ZHOU_SHI,X,山西省,忻州市,
140902,140900,忻府区,3,XIN_FU_QU,X,山西省,忻州市,忻府区
140981,140900,原平市,3,YUAN_PING_SHI,Y,山西省,忻州市,原平市
140921,140900,定襄县,3,DING_XIANG_XIAN,D,山西省,忻州市,定襄县
140922,140900,五台县,3,WU_TAI_XIAN,W,山西省,忻州市,五台县
140923,140900,代县,3,DAI_XIAN,D,山西省,忻州市,代县
140924,140900,繁峙县,3,FAN_ZHI_XIAN,F,山西省,忻州市,繁峙县
140925,140900,宁武县,3,NING_WU_XIAN,N,山西省,忻州市,宁武县
140926,140900,静乐县,3,JING_LE_XIAN,J,山西省,忻州市,静乐县
140927,140900,神池县,3,SHEN_CHI_XIAN,S,山西省,忻州市,神池县
140928,140900,五寨县,3,WU_ZHAI_XIAN,W,山西省,忻州市,五寨县
140929,140900,岢岚县,3,KE_LAN_XIAN,K,山西省,忻州市,岢岚县
140930,140900,河曲县,3,HE_QU_XIAN,H,山西省,忻州市,河曲县
140931,140900,保德县,3,BAO_DE_XIAN,B,山西省,忻州市,保德县
140932,140900,偏关县,3,PIAN_GUAN_XIAN,P,山西省,忻州市,偏关县
141000,140000,临汾市,2,LIN_FEN_SHI,L,山西省,临汾市,
141002,141000,尧都区,3,YAO_DOU_QU,Y,山西省,临汾市,尧都区
141081,141000,侯马市,3,HOU_MA_SHI,H,山西省,临汾市,侯马市
141082,141000,霍州市,3,HUO_ZHOU_SHI,H,山西省,临汾市,霍州市
141021,141000,曲沃县,3,QU_WO_XIAN,Q,山西省,临汾市,曲沃县
141022,141000,翼城县,3,YI_CHENG_XIAN,Y,山西省,临汾市,翼城县
141023,141000,襄汾县,3,XIANG_FEN_XIAN,X,山西省,临汾市,襄汾县
141024,141000,洪洞县,3,HONG_DONG_XIAN,H,山西省,临汾市,洪洞县
141025,141000,古县,3,GU_XIAN,G,山西省,临汾市,古县
141026,141000,安泽县,3,AN_ZE_XIAN,A,山西省,临汾市,安泽县
141027,141000,浮山县,3,FU_SHAN_XIAN,F,山西省,临汾市,浮山县
141028,141000,吉县,3,JI_XIAN,J,山西省,临汾市,吉县
141029,141000,乡宁县,3,XIANG_NING_XIAN,X,山西省,临汾市,乡宁县
141030,141000,大宁县,3,DA_NING_XIAN,D,山西省,临汾市,大宁县
141031,141000,隰县,3,XI_XIAN,X,山西省,临汾市,隰县
141032,141000,永和县,3,YONG_HE_XIAN,Y,山西省,临汾市,永和县
141033,141000,蒲县,3,PU_XIAN,P,山西省,临汾市,蒲县
141034,141000,汾西县,3,FEN_XI_XIAN,F,山西省,临汾市,汾西县
141100,140000,吕梁市,2,LV_LIANG_SHI,L,山西省,吕梁市,
141102,141100,离石区,3,LI_SHI_QU,L,山西省,吕梁市,离石区
141181,141100,孝义市,3,XIAO_YI_SHI,X,山西省,吕梁市,孝义市
141182,141100,汾阳市,3,FEN_YANG_SHI,F,山西省,吕梁市,汾阳市
141121,141100,文水县,3,WEN_SHUI_XIAN,W,山西省,吕梁市,文水县
141122,141100,交城县,3,JIAO_CHENG_XIAN,J,山西省,吕梁市,交城县
141123,141100,兴县,3,XING_XIAN,X,山西省,吕梁市,兴县
141124,141100,临县,3,LIN_XIAN,L,山西省,吕梁市,临县
141125,141100,柳林县,3,LIU_LIN_XIAN,L,山西省,吕梁市,柳林县
141126,141100,石楼县,3,SHI_LOU_XIAN,S,山西省,吕梁市,石楼县
141127,141100,岚县,3,LAN_XIAN,L,山西省,吕梁市,岚县
141128,141100,方山县,3,FANG_SHAN_XIAN,F,山西省,吕梁市,方山县
141129,141100,中阳县,3,ZHONG_YANG_XIAN,Z,山西省,吕梁市,中阳县
141130,141100,交口县,3,JIAO_KOU_XIAN,J,山西省,吕梁市,交口县
150000,100000,内蒙古自治区,1,NEI_MENG_GU_ZI_ZHI_QU,N,内蒙古自治区,,
150100,150000,呼和浩特市,2,HU_HE_HAO_TE_SHI,H,内蒙古自治区,呼和浩特市,
150102,150100,新城区,3,XIN_CHENG_QU,X,内蒙古自治区,呼和浩特市,新城区
150103,150100,回民区,3,HUI_MIN_QU,H,内蒙古自治区,呼和浩特市,回民区
150104,150100,玉泉区,3,YU_QUAN_QU,Y,内蒙古自治区,呼和浩特市,玉泉区
150105,150100,赛罕区,3,SAI_HAN_QU,S,内蒙古自治区,呼和浩特市,赛罕区
150122,150100,托克托县,3,TUO_KE_TUO_XIAN,T,内蒙古自治区,呼和浩特市,托克托县
150123,150100,和林格尔县,3,HE_LIN_GE_ER_XIAN,H,内蒙古自治区,呼和浩特市,和林格尔县
150124,150100,清水河县,3,QING_SHUI_HE_XIAN,Q,内蒙古自治区,呼和浩特市,清水河县
150125,150100,武川县,3,WU_CHUAN_XIAN,W,内蒙古自治区,呼和浩特市,武川县
150121,150100,土默特左旗,3,TU_MO_TE_ZUO_QI,T,内蒙古自治区,呼和浩特市,土默特左旗
150200,150000,包头市,2,BAO_TOU_SHI,B,内蒙古自治区,包头市,
150203,150200,昆都仑区,3,KUN_DOU_LUN_QU,K,内蒙古自治区,包头市,昆都仑区
150202,150200,东河区,3,DONG_HE_QU,D,内蒙古自治区,包头市,东河区
150204,150200,青山区,3,QING_SHAN_QU,Q,内蒙古自治区,包头市,青山区
150205,150200,石拐区,3,SHI_GUAI_QU,S,内蒙古自治区,包头市,石拐区
150206,150200,白云鄂博矿区,3,BAI_YUN_E_BO_KUANG_QU,B,内蒙古自治区,包头市,白云鄂博矿区
150207,150200,九原区,3,JIU_YUAN_QU,J,内蒙古自治区,包头市,九原区
150222,150200,固阳县,3,GU_YANG_XIAN,G,内蒙古自治区,包头市,固阳县
150221,150200,土默特右旗,3,TU_MO_TE_YOU_QI,T,内蒙古自治区,包头市,土默特右旗
150223,150200,达尔罕茂明安联合旗,3,DA_ER_HAN_MAO_MING_AN_LIAN_HE_QI,D,内蒙古自治区,包头市,达尔罕茂明安联合旗
150300,150000,乌海市,2,WU_HAI_SHI,W,内蒙古自治区,乌海市,
150302,150300,海勃湾区,3,HAI_BO_WAN_QU,H,内蒙古自治区,乌海市,海勃湾区
150303,150300,海南区,3,HAI_NAN_QU,H,内蒙古自治区,乌海市,海南区
150304,150300,乌达区,3,WU_DA_QU,W,内蒙古自治区,乌海市,乌达区
150400,150000,赤峰市,2,CHI_FENG_SHI,C,内蒙古自治区,赤峰市,
150402,150400,红山区,3,HONG_SHAN_QU,H,内蒙古自治区,赤峰市,红山区
150403,150400,元宝山区,3,YUAN_BAO_SHAN_QU,Y,内蒙古自治区,赤峰市,元宝山区
150404,150400,松山区,3,SONG_SHAN_QU,S,内蒙古自治区,赤峰市,松山区
150424,150400,林西县,3,LIN_XI_XIAN,L,内蒙古自治区,赤峰市,林西县
150429,150400,宁城县,3,NING_CHENG_XIAN,N,内蒙古自治区,赤峰市,宁城县
150421,150400,阿鲁科尔沁旗,3,A_LU_KE_ER_QIN_QI,A,内蒙古自治区,赤峰市,阿鲁科尔沁旗
150422,150400,巴林左旗,3,BA_LIN_ZUO_QI,B,内蒙古自治区,赤峰市,巴林左旗
150423,150400,巴林右旗,3,BA_LIN_YOU_QI,B,内蒙古自治区,赤峰市,巴林右旗
150425,150400,克什克腾旗,3,KE_SHEN_KE_TENG_QI,K,内蒙古自治区,赤峰市,克什克腾旗
150426,150400,翁牛特旗,3,WENG_NIU_TE_QI,W,内蒙古自治区,赤峰市,翁牛特旗
150428,150400,喀喇沁旗,3,KA_LA_QIN_QI,K,内蒙古自治区,赤峰市,喀喇沁旗
150430,150400,敖汉旗,3,AO_HAN_QI,A,内蒙古自治区,赤峰市,敖汉旗
150500,150000,通辽市,2,TONG_LIAO_SHI,T,内蒙古自治区,通辽市,
150502,150500,科尔沁区,3,KE_ER_QIN_QU,K,内蒙古自治区,通辽市,科尔沁区
150581,150500,霍林郭勒市,3,HUO_LIN_GUO_LE_SHI,H,内蒙古自治区,通辽市,霍林郭勒市
150523,150500,开鲁县,3,KAI_LU_XIAN,K,内蒙古自治区,通辽市,开鲁县
150524,150500,库伦旗,3,KU_LUN_QI,K,内蒙古自治区,通辽市,库伦旗
150525,150500,奈曼旗,3,NAI_MAN_QI,N,内蒙古自治区,通辽市,奈曼旗
150526,150500,扎鲁特旗,3,ZHA_LU_TE_QI,Z,内蒙古自治区,通辽市,扎鲁特旗
150521,150500,科尔沁左翼中旗,3,KE_ER_QIN_ZUO_YI_ZHONG_QI,K,内蒙古自治区,通辽市,科尔沁左翼中旗
150522,150500,科尔沁左翼后旗,3,KE_ER_QIN_ZUO_YI_HOU_QI,K,内蒙古自治区,通辽市,科尔沁左翼后旗
150600,150000,鄂尔多斯市,2,E_ER_DUO_SI_SHI,E,内蒙古自治区,鄂尔多斯市,
150602,150600,东胜区,3,DONG_SHENG_QU,D,内蒙古自治区,鄂尔多斯市,东胜区
150603,150600,康巴什区,3,KANG_BA_SHEN_QU,K,内蒙古自治区,鄂尔多斯市,康巴什区
150621,150600,达拉特旗,3,DA_LA_TE_QI,D,内蒙古自治区,鄂尔多斯市,达拉特旗
150622,150600,准格尔旗,3,ZHUN_GE_ER_QI,Z,内蒙古自治区,鄂尔多斯市,准格尔旗
150623,150600,鄂托克前旗,3,E_TUO_KE_QIAN_QI,E,内蒙古自治区,鄂尔多斯市,鄂托克前旗
150624,150600,鄂托克旗,3,E_TUO_KE_QI,E,内蒙古自治区,鄂尔多斯市,鄂托克旗
150625,150600,杭锦旗,3,HANG_JIN_QI,H,内蒙古自治区,鄂尔多斯市,杭锦旗
150626,150600,乌审旗,3,WU_SHEN_QI,W,内蒙古自治区,鄂尔多斯市,乌审旗
150627,150600,伊金霍洛旗,3,YI_JIN_HUO_LUO_QI,Y,内蒙古自治区,鄂尔多斯市,伊金霍洛旗
150700,150000,呼伦贝尔市,2,HU_LUN_BEI_ER_SHI,H,内蒙古自治区,呼伦贝尔市,
150702,150700,海拉尔区,3,HAI_LA_ER_QU,H,内蒙古自治区,呼伦贝尔市,海拉尔区
150703,150700,扎赉诺尔区,3,ZHA_LAI_NUO_ER_QU,Z,内蒙古自治区,呼伦贝尔市,扎赉诺尔区
150781,150700,满洲里市,3,MAN_ZHOU_LI_SHI,M,内蒙古自治区,呼伦贝尔市,满洲里市
150782,150700,牙克石市,3,YA_KE_SHI_SHI,Y,内蒙古自治区,呼伦贝尔市,牙克石市
150783,150700,扎兰屯市,3,ZHA_LAN_TUN_SHI,Z,内蒙古自治区,呼伦贝尔市,扎兰屯市
150784,150700,额尔古纳市,3,E_ER_GU_NA_SHI,E,内蒙古自治区,呼伦贝尔市,额尔古纳市
150785,150700,根河市,3,GEN_HE_SHI,G,内蒙古自治区,呼伦贝尔市,根河市
150721,150700,阿荣旗,3,A_RONG_QI,A,内蒙古自治区,呼伦贝尔市,阿荣旗
150725,150700,陈巴尔虎旗,3,CHEN_BA_ER_HU_QI,C,内蒙古自治区,呼伦贝尔市,陈巴尔虎旗
150726,150700,新巴尔虎左旗,3,XIN_BA_ER_HU_ZUO_QI,X,内蒙古自治区,呼伦贝尔市,新巴尔虎左旗
150727,150700,新巴尔虎右旗,3,XIN_BA_ER_HU_YOU_QI,X,内蒙古自治区,呼伦贝尔市,新巴尔虎右旗
150722,150700,莫力达瓦达斡尔族自治旗,3,MO_LI_DA_WA_DA_WO_ER_ZU_ZI_ZHI_QI,M,内蒙古自治区,呼伦贝尔市,莫力达瓦达斡尔族自治旗
150723,150700,鄂伦春自治旗,3,E_LUN_CHUN_ZI_ZHI_QI,E,内蒙古自治区,呼伦贝尔市,鄂伦春自治旗
150724,150700,鄂温克族自治旗,3,E_WEN_KE_ZU_ZI_ZHI_QI,E,内蒙古自治区,呼伦贝尔市,鄂温克族自治旗
150800,150000,巴彦淖尔市,2,BA_YAN_NAO_ER_SHI,B,内蒙古自治区,巴彦淖尔市,
150802,150800,临河区,3,LIN_HE_QU,L,内蒙古自治区,巴彦淖尔市,临河区
150821,150800,五原县,3,WU_YUAN_XIAN,W,内蒙古自治区,巴彦淖尔市,五原县
150822,150800,磴口县,3,DENG_KOU_XIAN,D,内蒙古自治区,巴彦淖尔市,磴口县
150823,150800,乌拉特前旗,3,WU_LA_TE_QIAN_QI,W,内蒙古自治区,巴彦淖尔市,乌拉特前旗
150824,150800,乌拉特中旗,3,WU_LA_TE_ZHONG_QI,W,内蒙古自治区,巴彦淖尔市,乌拉特中旗
150825,150800,乌拉特后旗,3,WU_LA_TE_HOU_QI,W,内蒙古自治区,巴彦淖尔市,乌拉特后旗
150826,150800,杭锦后旗,3,HANG_JIN_HOU_QI,H,内蒙古自治区,巴彦淖尔市,杭锦后旗
150900,150000,乌兰察布市,2,WU_LAN_CHA_BU_SHI,W,内蒙古自治区,乌兰察布市,
150902,150900,集宁区,3,JI_NING_QU,J,内蒙古自治区,乌兰察布市,集宁区
150981,150900,丰镇市,3,FENG_ZHEN_SHI,F,内蒙古自治区,乌兰察布市,丰镇市
150921,150900,卓资县,3,ZHUO_ZI_XIAN,Z,内蒙古自治区,乌兰察布市,卓资县
150922,150900,化德县,3,HUA_DE_XIAN,H,内蒙古自治区,乌兰察布市,化德县
150923,150900,商都县,3,SHANG_DOU_XIAN,S,内蒙古自治区,乌兰察布市,商都县
150924,150900,兴和县,3,XING_HE_XIAN,X,内蒙古自治区,乌兰察布市,兴和县
150925,150900,凉城县,3,LIANG_CHENG_XIAN,L,内蒙古自治区,乌兰察布市,凉城县
150926,150900,察哈尔右翼前旗,3,CHA_HA_ER_YOU_YI_QIAN_QI,C,内蒙古自治区,乌兰察布市,察哈尔右翼前旗
150927,150900,察哈尔右翼中旗,3,CHA_HA_ER_YOU_YI_ZHONG_QI,C,内蒙古自治区,乌兰察布市,察哈尔右翼中旗
150928,150900,察哈尔右翼后旗,3,CHA_HA_ER_YOU_YI_HOU_QI,C,内蒙古自治区,乌兰察布市,察哈尔右翼后旗
150929,150900,四子王旗,3,SI_ZI_WANG_QI,S,内蒙古自治区,乌兰察布市,四子王旗
152200,150000,兴安盟,2,XING_AN_MENG,X,内蒙古自治区,兴安盟,
152201,152200,乌兰浩特市,3,WU_LAN_HAO_TE_SHI,W,内蒙古自治区,兴安盟,乌兰浩特市
152202,152200,阿尔山市,3,A_ER_SHAN_SHI,A,内蒙古自治区,兴安盟,阿尔山市
152224,152200,突泉县,3,TU_QUAN_XIAN,T,内蒙古自治区,兴安盟,突泉县
152221,152200,科尔沁右翼前旗,3,KE_ER_QIN_YOU_YI_QIAN_QI,K,内蒙古自治区,兴安盟,科尔沁右翼前旗
152222,152200,科尔沁右翼中旗,3,KE_ER_QIN_YOU_YI_ZHONG_QI,K,内蒙古自治区,兴安盟,科尔沁右翼中旗
152223,152200,扎赉特旗,3,ZHA_LAI_TE_QI,Z,内蒙古自治区,兴安盟,扎赉特旗
152500,150000,锡林郭勒盟,2,XI_LIN_GUO_LE_MENG,X,内蒙古自治区,锡林郭勒盟,
152502,152500,锡林浩特市,3,XI_LIN_HAO_TE_SHI,X,内蒙古自治区,锡林郭勒盟,锡林浩特市
152501,152500,二连浩特市,3,ER_LIAN_HAO_TE_SHI,E,内蒙古自治区,锡林郭勒盟,二连浩特市
152531,152500,多伦县,3,DUO_LUN_XIAN,D,内蒙古自治区,锡林郭勒盟,多伦县
152522,152500,阿巴嘎旗,3,A_BA_GA_QI,A,内蒙古自治区,锡林郭勒盟,阿巴嘎旗
152523,152500,苏尼特左旗,3,SU_NI_TE_ZUO_QI,S,内蒙古自治区,锡林郭勒盟,苏尼特左旗
152524,152500,苏尼特右旗,3,SU_NI_TE_YOU_QI,S,内蒙古自治区,锡林郭勒盟,苏尼特右旗
152525,152500,东乌珠穆沁旗,3,DONG_WU_ZHU_MU_QIN_QI,D,内蒙古自治区,锡林郭勒盟,东乌珠穆沁旗
152526,152500,西乌珠穆沁旗,3,XI_WU_ZHU_MU_QIN_QI,X,内蒙古自治区,锡林郭勒盟,西乌珠穆沁旗
152527,152500,太仆寺旗,3,TAI_PU_SI_QI,T,内蒙古自治区,锡林郭勒盟,太仆寺旗
152528,152500,镶黄旗,3,XIANG_HUANG_QI,X,内蒙古自治区,锡林郭勒盟,镶黄旗
152529,152500,正镶白旗,3,ZHENG_XIANG_BAI_QI,Z,内蒙古自治区,锡林郭勒盟,正镶白旗
152530,152500,正蓝旗,3,ZHENG_LAN_QI,Z,内蒙古自治区,锡林郭勒盟,正蓝旗
152900,150000,阿拉善盟,2,A_LA_SHAN_MENG,A,内蒙古自治区,阿拉善盟,
152921,152900,阿拉善左旗,3,A_LA_SHAN_ZUO_QI,A,内蒙古自治区,阿拉善盟,阿拉善左旗
152922,152900,阿拉善右旗,3,A_LA_SHAN_YOU_QI,A,内蒙古自治区,阿拉善盟,阿拉善右旗
152923,152900,额济纳旗,3,E_JI_NA_QI,E,内蒙古自治区,阿拉善盟,额济纳旗
210000,100000,辽宁省,1,LIAO_NING_SHENG,L,辽宁省,,
210100,210000,沈阳市,2,SHEN_YANG_SHI,S,辽宁省,沈阳市,
210103,210100,沈河区,3,SHEN_HE_QU,S,辽宁省,沈阳市,沈河区
210102,210100,和平区,3,HE_PING_QU,H,辽宁省,沈阳市,和平区
210104,210100,大东区,3,DA_DONG_QU,D,辽宁省,沈阳市,大东区
210105,210100,皇姑区,3,HUANG_GU_QU,H,辽宁省,沈阳市,皇姑区
210106,210100,铁西区,3,TIE_XI_QU,T,辽宁省,沈阳市,铁西区
210111,210100,苏家屯区,3,SU_JIA_TUN_QU,S,辽宁省,沈阳市,苏家屯区
210112,210100,浑南区,3,HUN_NAN_QU,H,辽宁省,沈阳市,浑南区
210113,210100,沈北新区,3,SHEN_BEI_XIN_QU,S,辽宁省,沈阳市,沈北新区
210114,210100,于洪区,3,YU_HONG_QU,Y,辽宁省,沈阳市,于洪区
210115,210100,辽中区,3,LIAO_ZHONG_QU,L,辽宁省,沈阳市,辽中区
210181,210100,新民市,3,XIN_MIN_SHI,X,辽宁省,沈阳市,新民市
210123,210100,康平县,3,KANG_PING_XIAN,K,辽宁省,沈阳市,康平县
210124,210100,法库县,3,FA_KU_XIAN,F,辽宁省,沈阳市,法库县
210200,210000,大连市,2,DA_LIAN_SHI,D,辽宁省,大连市,
210203,210200,西岗区,3,XI_GANG_QU,X,辽宁省,大连市,西岗区
210202,210200,中山区,3,ZHONG_SHAN_QU,Z,辽宁省,大连市,中山区
210204,210200,沙河口区,3,SHA_HE_KOU_QU,S,辽宁省,大连市,沙河口区
210211,210200,甘井子区,3,GAN_JING_ZI_QU,G,辽宁省,大连市,甘井子区
210212,210200,旅顺口区,3,LV_SHUN_KOU_QU,L,辽宁省,大连市,旅顺口区
210213,210200,金州区,3,JIN_ZHOU_QU,J,辽宁省,大连市,金州区
210281,210200,瓦房店市,3,WA_FANG_DIAN_SHI,W,辽宁省,大连市,瓦房店市
210214,210200,普兰店区,3,PU_LAN_DIAN_QU,P,辽宁省,大连市,普兰店区
210283,210200,庄河市,3,ZHUANG_HE_SHI,Z,辽宁省,大连市,庄河市
210224,210200,长海县,3,ZHANG_HAI_XIAN,Z,辽宁省,大连市,长海县
210300,210000,鞍山市,2,AN_SHAN_SHI,A,辽宁省,鞍山市,
210302,210300,铁东区,3,TIE_DONG_QU,T,辽宁省,鞍山市,铁东区
210303,210300,铁西区,3,TIE_XI_QU,T,辽宁省,鞍山市,铁西区
210304,210300,立山区,3,LI_SHAN_QU,L,辽宁省,鞍山市,立山区
210311,210300,千山区,3,QIAN_SHAN_QU,Q,辽宁省,鞍山市,千山区
210381,210300,海城市,3,HAI_CHENG_SHI,H,辽宁省,鞍山市,海城市
210321,210300,台安县,3,TAI_AN_XIAN,T,辽宁省,鞍山市,台安县
210323,210300,岫岩满族自治县,3,XIU_YAN_MAN_ZU_ZI_ZHI_XIAN,X,辽宁省,鞍山市,岫岩满族自治县
210400,210000,抚顺市,2,FU_SHUN_SHI,F,辽宁省,抚顺市,
210411,210400,顺城区,3,SHUN_CHENG_QU,S,辽宁省,抚顺市,顺城区
210402,210400,新抚区,3,XIN_FU_QU,X,辽宁省,抚顺市,新抚区
210403,210400,东洲区,3,DONG_ZHOU_QU,D,辽宁省,抚顺市,东洲区
210404,210400,望花区,3,WANG_HUA_QU,W,辽宁省,抚顺市,望花区
210421,210400,抚顺县,3,FU_SHUN_XIAN,F,辽宁省,抚顺市,抚顺县
210422,210400,新宾满族自治县,3,XIN_BIN_MAN_ZU_ZI_ZHI_XIAN,X,辽宁省,抚顺市,新宾满族自治县
210423,210400,清原满族自治县,3,QING_YUAN_MAN_ZU_ZI_ZHI_XIAN,Q,辽宁省,抚顺市,清原满族自治县
210500,210000,本溪市,2,BEN_XI_SHI,B,辽宁省,本溪市,
210502,210500,平山区,3,PING_SHAN_QU,P,辽宁省,本溪市,平山区
210503,210500,溪湖区,3,XI_HU_QU,X,辽宁省,本溪市,溪湖区
210504,210500,明山区,3,MING_SHAN_QU,M,辽宁省,本溪市,明山区
210505,210500,南芬区,3,NAN_FEN_QU,N,辽宁省,本溪市,南芬区
210521,210500,本溪满族自治县,3,BEN_XI_MAN_ZU_ZI_ZHI_XIAN,B,辽宁省,本溪市,本溪满族自治县
210522,210500,桓仁满族自治县,3,HUAN_REN_MAN_ZU_ZI_ZHI_XIAN,H,辽宁省,本溪市,桓仁满族自治县
210600,210000,丹东市,2,DAN_DONG_SHI,D,辽宁省,丹东市,
210603,210600,振兴区,3,ZHEN_XING_QU,Z,辽宁省,丹东市,振兴区
210602,210600,元宝区,3,YUAN_BAO_QU,Y,辽宁省,丹东市,元宝区
210604,210600,振安区,3,ZHEN_AN_QU,Z,辽宁省,丹东市,振安区
210681,210600,东港市,3,DONG_GANG_SHI,D,辽宁省,丹东市,东港市
210682,210600,凤城市,3,FENG_CHENG_SHI,F,辽宁省,丹东市,凤城市
210624,210600,宽甸满族自治县,3,KUAN_DIAN_MAN_ZU_ZI_ZHI_XIAN,K,辽宁省,丹东市,宽甸满族自治县
210700,210000,锦州市,2,JIN_ZHOU_SHI,J,辽宁省,锦州市,
210711,210700,太和区,3,TAI_HE_QU,T,辽宁省,锦州市,太和区
210702,210700,古塔区,3,GU_TA_QU,G,辽宁省,锦州市,古塔区
210703,210700,凌河区,3,LING_HE_QU,L,辽宁省,锦州市,凌河区
210781,210700,凌海市,3,LING_HAI_SHI,L,辽宁省,锦州市,凌海市
210782,210700,北镇市,3,BEI_ZHEN_SHI,B,辽宁省,锦州市,北镇市
210726,210700,黑山县,3,HEI_SHAN_XIAN,H,辽宁省,锦州市,黑山县
210727,210700,义县,3,YI_XIAN,Y,辽宁省,锦州市,义县
210800,210000,营口市,2,YING_KOU_SHI,Y,辽宁省,营口市,
210802,210800,站前区,3,ZHAN_QIAN_QU,Z,辽宁省,营口市,站前区
210803,210800,西市区,3,XI_SHI_QU,X,辽宁省,营口市,西市区
210804,210800,鲅鱼圈区,3,BA_YU_QUAN_QU,B,辽宁省,营口市,鲅鱼圈区
210811,210800,老边区,3,LAO_BIAN_QU,L,辽宁省,营口市,老边区
210881,210800,盖州市,3,GAI_ZHOU_SHI,G,辽宁省,营口市,盖州市
210882,210800,大石桥市,3,DA_SHI_QIAO_SHI,D,辽宁省,营口市,大石桥市
210900,210000,阜新市,2,FU_XIN_SHI,F,辽宁省,阜新市,
210911,210900,细河区,3,XI_HE_QU,X,辽宁省,阜新市,细河区
210902,210900,海州区,3,HAI_ZHOU_QU,H,辽宁省,阜新市,海州区
210903,210900,新邱区,3,XIN_QIU_QU,X,辽宁省,阜新市,新邱区
210904,210900,太平区,3,TAI_PING_QU,T,辽宁省,阜新市,太平区
210905,210900,清河门区,3,QING_HE_MEN_QU,Q,辽宁省,阜新市,清河门区
210922,210900,彰武县,3,ZHANG_WU_XIAN,Z,辽宁省,阜新市,彰武县
210921,210900,阜新蒙古族自治县,3,FU_XIN_MENG_GU_ZU_ZI_ZHI_XIAN,F,辽宁省,阜新市,阜新蒙古族自治县
211000,210000,辽阳市,2,LIAO_YANG_SHI,L,辽宁省,辽阳市,
211002,211000,白塔区,3,BAI_TA_QU,B,辽宁省,辽阳市,白塔区
211003,211000,文圣区,3,WEN_SHENG_QU,W,辽宁省,辽阳市,文圣区
211004,211000,宏伟区,3,HONG_WEI_QU,H,辽宁省,辽阳市,宏伟区
211005,211000,弓长岭区,3,GONG_ZHANG_LING_QU,G,辽宁省,辽阳市,弓长岭区
211011,211000,太子河区,3,TAI_ZI_HE_QU,T,辽宁省,辽阳市,太子河区
211081,211000,灯塔市,3,DENG_TA_SHI,D,辽宁省,辽阳市,灯塔市
211021,211000,辽阳县,3,LIAO_YANG_XIAN,L,辽宁省,辽阳市,辽阳县
211100,210000,盘锦市,2,PAN_JIN_SHI,P,辽宁省,盘锦市,
211103,211100,兴隆台区,3,XING_LONG_TAI_QU,X,辽宁省,盘锦市,兴隆台区
211102,211100,双台子区,3,SHUANG_TAI_ZI_QU,S,辽宁省,盘锦市,双台子区
211104,211100,大洼区,3,DA_WA_QU,D,辽宁省,盘锦市,大洼区
211122,211100,盘山县,3,PAN_SHAN_XIAN,P,辽宁省,盘锦市,盘山县
211200,210000,铁岭市,2,TIE_LING_SHI,T,辽宁省,铁岭市,
211202,211200,银州区,3,YIN_ZHOU_QU,Y,辽宁省,铁岭市,银州区
211204,211200,清河区,3,QING_HE_QU,Q,辽宁省,铁岭市,清河区
211281,211200,调兵山市,3,DIAO_BING_SHAN_SHI,D,辽宁省,铁岭市,调兵山市
211282,211200,开原市,3,KAI_YUAN_SHI,K,辽宁省,铁岭市,开原市
211221,211200,铁岭县,3,TIE_LING_XIAN,T,辽宁省,铁岭市,铁岭县
211223,211200,西丰县,3,XI_FENG_XIAN,X,辽宁省,铁岭市,西丰县
211224,211200,昌图县,3,CHANG_TU_XIAN,C,辽宁省,铁岭市,昌图县
211300,210000,朝阳市,2,CHAO_YANG_SHI,C,辽宁省,朝阳市,
211302,211300,双塔区,3,SHUANG_TA_QU,S,辽宁省,朝阳市,双塔区
211303,211300,龙城区,3,LONG_CHENG_QU,L,辽宁省,朝阳市,龙城区
211381,211300,北票市,3,BEI_PIAO_SHI,B,辽宁省,朝阳市,北票市
211382,211300,凌源市,3,LING_YUAN_SHI,L,辽宁省,朝阳市,凌源市
211321,211300,朝阳县,3,CHAO_YANG_XIAN,C,辽宁省,朝阳市,朝阳县
211322,211300,建平县,3,JIAN_PING_XIAN,J,辽宁省,朝阳市,建平县
211324,211300,喀喇沁左翼蒙古族自治县,3,KA_LA_QIN_ZUO_YI_MENG_GU_ZU_ZI_ZHI_XIAN,K,辽宁省,朝阳市,喀喇沁左翼蒙古族自治县
211400,210000,葫芦岛市,2,HU_LU_DAO_SHI,H,辽宁省,葫芦岛市,
211403,211400,龙港区,3,LONG_GANG_QU,L,辽宁省,葫芦岛市,龙港区
211402,211400,连山区,3,LIAN_SHAN_QU,L,辽宁省,葫芦岛市,连山区
211404,211400,南票区,3,NAN_PIAO_QU,N,辽宁省,葫芦岛市,南票区
211481,211400,兴城市,3,XING_CHENG_SHI,X,辽宁省,葫芦岛市,兴城市
211421,211400,绥中县,3,SUI_ZHONG_XIAN,S,辽宁省,葫芦岛市,绥中县
211422,211400,建昌县,3,JIAN_CHANG_XIAN,J,辽宁省,葫芦岛市,建昌县
220000,100000,吉林省,1,JI_LIN_SHENG,J,吉林省,,
220100,220000,长春市,2,ZHANG_CHUN_SHI,Z,吉林省,长春市,
220102,220100,南关区,3,NAN_GUAN_QU,N,吉林省,长春市,南关区
220103,220100,宽城区,3,KUAN_CHENG_QU,K,吉林省,长春市,宽城区
220104,220100,朝阳区,3,CHAO_YANG_QU,C,吉林省,长春市,朝阳区
220105,220100,二道区,3,ER_DAO_QU,E,吉林省,长春市,二道区
220106,220100,绿园区,3,LV_YUAN_QU,L,吉林省,长春市,绿园区
220112,220100,双阳区,3,SHUANG_YANG_QU,S,吉林省,长春市,双阳区
220113,220100,九台区,3,JIU_TAI_QU,J,吉林省,长春市,九台区
220182,220100,榆树市,3,YU_SHU_SHI,Y,吉林省,长春市,榆树市
220183,220100,德惠市,3,DE_HUI_SHI,D,吉林省,长春市,德惠市
220122,220100,农安县,3,NONG_AN_XIAN,N,吉林省,长春市,农安县
220200,220000,吉林市,2,JI_LIN_SHI,J,吉林省,吉林市,
220204,220200,船营区,3,CHUAN_YING_QU,C,吉林省,吉林市,船营区
220202,220200,昌邑区,3,CHANG_YI_QU,C,吉林省,吉林市,昌邑区
220203,220200,龙潭区,3,LONG_TAN_QU,L,吉林省,吉林市,龙潭区
220211,220200,丰满区,3,FENG_MAN_QU,F,吉林省,吉林市,丰满区
220281,220200,蛟河市,3,JIAO_HE_SHI,J,吉林省,吉林市,蛟河市
220282,220200,桦甸市,3,HUA_DIAN_SHI,H,吉林省,吉林市,桦甸市
220283,220200,舒兰市,3,SHU_LAN_SHI,S,吉林省,吉林市,舒兰市
220284,220200,磐石市,3,PAN_SHI_SHI,P,吉林省,吉林市,磐石市
220221,220200,永吉县,3,YONG_JI_XIAN,Y,吉林省,吉林市,永吉县
220300,220000,四平市,2,SI_PING_SHI,S,吉林省,四平市,
220302,220300,铁西区,3,TIE_XI_QU,T,吉林省,四平市,铁西区
220303,220300,铁东区,3,TIE_DONG_QU,T,吉林省,四平市,铁东区
220381,220300,公主岭市,3,GONG_ZHU_LING_SHI,G,吉林省,四平市,公主岭市
220382,220300,双辽市,3,SHUANG_LIAO_SHI,S,吉林省,四平市,双辽市
220322,220300,梨树县,3,LI_SHU_XIAN,L,吉林省,四平市,梨树县
220323,220300,伊通满族自治县,3,YI_TONG_MAN_ZU_ZI_ZHI_XIAN,Y,吉林省,四平市,伊通满族自治县
220400,220000,辽源市,2,LIAO_YUAN_SHI,L,吉林省,辽源市,
220402,220400,龙山区,3,LONG_SHAN_QU,L,吉林省,辽源市,龙山区
220403,220400,西安区,3,XI_AN_QU,X,吉林省,辽源市,西安区
220421,220400,东丰县,3,DONG_FENG_XIAN,D,吉林省,辽源市,东丰县
220422,220400,东辽县,3,DONG_LIAO_XIAN,D,吉林省,辽源市,东辽县
220500,220000,通化市,2,TONG_HUA_SHI,T,吉林省,通化市,
220502,220500,东昌区,3,DONG_CHANG_QU,D,吉林省,通化市,东昌区
220503,220500,二道江区,3,ER_DAO_JIANG_QU,E,吉林省,通化市,二道江区
220581,220500,梅河口市,3,MEI_HE_KOU_SHI,M,吉林省,通化市,梅河口市
220582,220500,集安市,3,JI_AN_SHI,J,吉林省,通化市,集安市
220521,220500,通化县,3,TONG_HUA_XIAN,T,吉林省,通化市,通化县
220523,220500,辉南县,3,HUI_NAN_XIAN,H,吉林省,通化市,辉南县
220524,220500,柳河县,3,LIU_HE_XIAN,L,吉林省,通化市,柳河县
220600,220000,白山市,2,BAI_SHAN_SHI,B,吉林省,白山市,
220602,220600,浑江区,3,HUN_JIANG_QU,H,吉林省,白山市,浑江区
220605,220600,江源区,3,JIANG_YUAN_QU,J,吉林省,白山市,江源区
220681,220600,临江市,3,LIN_JIANG_SHI,L,吉林省,白山市,临江市
220621,220600,抚松县,3,FU_SONG_XIAN,F,吉林省,白山市,抚松县
220622,220600,靖宇县,3,JING_YU_XIAN,J,吉林省,白山市,靖宇县
220623,220600,长白朝鲜族自治县,3,ZHANG_BAI_CHAO_XIAN_ZU_ZI_ZHI_XIAN,Z,吉林省,白山市,长白朝鲜族自治县
220700,220000,松原市,2,SONG_YUAN_SHI,S,吉林省,松原市,
220702,220700,宁江区,3,NING_JIANG_QU,N,吉林省,松原市,宁江区
220781,220700,扶余市,3,FU_YU_SHI,F,吉林省,松原市,扶余市
220722,220700,长岭县,3,ZHANG_LING_XIAN,Z,吉林省,松原市,长岭县
220723,220700,乾安县,3,QIAN_AN_XIAN,Q,吉林省,松原市,乾安县
220721,220700,前郭尔罗斯蒙古族自治县,3,QIAN_GUO_ER_LUO_SI_MENG_GU_ZU_ZI_ZHI_XIAN,Q,吉林省,松原市,前郭尔罗斯蒙古族自治县
220800,220000,白城市,2,BAI_CHENG_SHI,B,吉林省,白城市,
220802,220800,洮北区,3,TAO_BEI_QU,T,吉林省,白城市,洮北区
220881,220800,洮南市,3,TAO_NAN_SHI,T,吉林省,白城市,洮南市
220882,220800,大安市,3,DA_AN_SHI,D,吉林省,白城市,大安市
220821,220800,镇赉县,3,ZHEN_LAI_XIAN,Z,吉林省,白城市,镇赉县
220822,220800,通榆县,3,TONG_YU_XIAN,T,吉林省,白城市,通榆县
222400,220000,延边朝鲜族自治州,2,YAN_BIAN_CHAO_XIAN_ZU_ZI_ZHI_ZHOU,Y,吉林省,延边朝鲜族自治州,
222401,222400,延吉市,3,YAN_JI_SHI,Y,吉林省,延边朝鲜族自治州,延吉市
222402,222400,图们市,3,TU_MEN_SHI,T,吉林省,延边朝鲜族自治州,图们市
222403,222400,敦化市,3,DUN_HUA_SHI,D,吉林省,延边朝鲜族自治州,敦化市
222404,222400,珲春市,3,HUN_CHUN_SHI,H,吉林省,延边朝鲜族自治州,珲春市
222405,222400,龙井市,3,LONG_JING_SHI,L,吉林省,延边朝鲜族自治州,龙井市
222406,222400,和龙市,3,HE_LONG_SHI,H,吉林省,延边朝鲜族自治州,和龙市
222424,222400,汪清县,3,WANG_QING_XIAN,W,吉林省,延边朝鲜族自治州,汪清县
222426,222400,安图县,3,AN_TU_XIAN,A,吉林省,延边朝鲜族自治州,安图县
230000,100000,黑龙江省,1,HEI_LONG_JIANG_SHENG,H,黑龙江省,,
230100,230000,哈尔滨市,2,HA_ER_BIN_SHI,H,黑龙江省,哈尔滨市,
230109,230100,松北区,3,SONG_BEI_QU,S,黑龙江省,哈尔滨市,松北区
230102,230100,道里区,3,DAO_LI_QU,D,黑龙江省,哈尔滨市,道里区
230103,230100,南岗区,3,NAN_GANG_QU,N,黑龙江省,哈尔滨市,南岗区
230104,230100,道外区,3,DAO_WAI_QU,D,黑龙江省,哈尔滨市,道外区
230108,230100,平房区,3,PING_FANG_QU,P,黑龙江省,哈尔滨市,平房区
230110,230100,香坊区,3,XIANG_FANG_QU,X,黑龙江省,哈尔滨市,香坊区
230111,230100,呼兰区,3,HU_LAN_QU,H,黑龙江省,哈尔滨市,呼兰区
230112,230100,阿城区,3,A_CHENG_QU,A,黑龙江省,哈尔滨市,阿城区
230113,230100,双城区,3,SHUANG_CHENG_QU,S,黑龙江省,哈尔滨市,双城区
230183,230100,尚志市,3,SHANG_ZHI_SHI,S,黑龙江省,哈尔滨市,尚志市
230184,230100,五常市,3,WU_CHANG_SHI,W,黑龙江省,哈尔滨市,五常市
230123,230100,依兰县,3,YI_LAN_XIAN,Y,黑龙江省,哈尔滨市,依兰县
230124,230100,方正县,3,FANG_ZHENG_XIAN,F,黑龙江省,哈尔滨市,方正县
230125,230100,宾县,3,BIN_XIAN,B,黑龙江省,哈尔滨市,宾县
230126,230100,巴彦县,3,BA_YAN_XIAN,B,黑龙江省,哈尔滨市,巴彦县
230127,230100,木兰县,3,MU_LAN_XIAN,M,黑龙江省,哈尔滨市,木兰县
230128,230100,通河县,3,TONG_HE_XIAN,T,黑龙江省,哈尔滨市,通河县
230129,230100,延寿县,3,YAN_SHOU_XIAN,Y,黑龙江省,哈尔滨市,延寿县
230200,230000,齐齐哈尔市,2,QI_QI_HA_ER_SHI,Q,黑龙江省,齐齐哈尔市,
230203,230200,建华区,3,JIAN_HUA_QU,J,黑龙江省,齐齐哈尔市,建华区
230202,230200,龙沙区,3,LONG_SHA_QU,L,黑龙江省,齐齐哈尔市,龙沙区
230204,230200,铁锋区,3,TIE_FENG_QU,T,黑龙江省,齐齐哈尔市,铁锋区
230205,230200,昂昂溪区,3,ANG_ANG_XI_QU,A,黑龙江省,齐齐哈尔市,昂昂溪区
230206,230200,富拉尔基区,3,FU_LA_ER_JI_QU,F,黑龙江省,齐齐哈尔市,富拉尔基区
230207,230200,碾子山区,3,NIAN_ZI_SHAN_QU,N,黑龙江省,齐齐哈尔市,碾子山区
230208,230200,梅里斯达斡尔族区,3,MEI_LI_SI_DA_WO_ER_ZU_QU,M,黑龙江省,齐齐哈尔市,梅里斯达斡尔族区
230281,230200,讷河市,3,NE_HE_SHI,N,黑龙江省,齐齐哈尔市,讷河市
230221,230200,龙江县,3,LONG_JIANG_XIAN,L,黑龙江省,齐齐哈尔市,龙江县
230223,230200,依安县,3,YI_AN_XIAN,Y,黑龙江省,齐齐哈尔市,依安县
230224,230200,泰来县,3,TAI_LAI_XIAN,T,黑龙江省,齐齐哈尔市,泰来县
230225,230200,甘南县,3,GAN_NAN_XIAN,G,黑龙江省,齐齐哈尔市,甘南县
230227,230200,富裕县,3,FU_YU_XIAN,F,黑龙江省,齐齐哈尔市,富裕县
230229,230200,克山县,3,KE_SHAN_XIAN,K,黑龙江省,齐齐哈尔市,克山县
230230,230200,克东县,3,KE_DONG_XIAN,K,黑龙江省,齐齐哈尔市,克东县
230231,230200,拜泉县,3,BAI_QUAN_XIAN,B,黑龙江省,齐齐哈尔市,拜泉县
230300,230000,鸡西市,2,JI_XI_SHI,J,黑龙江省,鸡西市,
230302,230300,鸡冠区,3,JI_GUAN_QU,J,黑龙江省,鸡西市,鸡冠区
230303,230300,恒山区,3,HENG_SHAN_QU,H,黑龙江省,鸡西市,恒山区
230304,230300,滴道区,3,DI_DAO_QU,D,黑龙江省,鸡西市,滴道区
230305,230300,梨树区,3,LI_SHU_QU,L,黑龙江省,鸡西市,梨树区
230306,230300,城子河区,3,CHENG_ZI_HE_QU,C,黑龙江省,鸡西市,城子河区
230307,230300,麻山区,3,MA_SHAN_QU,M,黑龙江省,鸡西市,麻山区
230381,230300,虎林市,3,HU_LIN_SHI,H,黑龙江省,鸡西市,虎林市
230382,230300,密山市,3,MI_SHAN_SHI,M,黑龙江省,鸡西市,密山市
230321,230300,鸡东县,3,JI_DONG_XIAN,J,黑龙江省,鸡西市,鸡东县
230400,230000,鹤岗市,2,HE_GANG_SHI,H,黑龙江省,鹤岗市,
230402,230400,向阳区,3,XIANG_YANG_QU,X,黑龙江省,鹤岗市,向阳区
230403,230400,工农区,3,GONG_NONG_QU,G,黑龙江省,鹤岗市,工农区
230404,230400,南山区,3,NAN_SHAN_QU,N,黑龙江省,鹤岗市,南山区
230405,230400,兴安区,3,XING_AN_QU,X,黑龙江省,鹤岗市,兴安区
230406,230400,东山区,3,DONG_SHAN_QU,D,黑龙江省,鹤岗市,东山区
230407,230400,兴山区,3,XING_SHAN_QU,X,黑龙江省,鹤岗市,兴山区
230421,230400,萝北县,3,LUO_BEI_XIAN,L,黑龙江省,鹤岗市,萝北县
230422,230400,绥滨县,3,SUI_BIN_XIAN,S,黑龙江省,鹤岗市,绥滨县
230500,230000,双鸭山市,2,SHUANG_YA_SHAN_SHI,S,黑龙江省,双鸭山市,
230502,230500,尖山区,3,JIAN_SHAN_QU,J,黑龙江省,双鸭山市,尖山区
230503,230500,岭东区,3,LING_DONG_QU,L,黑龙江省,双鸭山市,岭东区
230505,230500,四方台区,3,SI_FANG_TAI_QU,S,黑龙江省,双鸭山市,四方台区
230506,230500,宝山区,3,BAO_SHAN_QU,B,黑龙江省,双鸭山市,宝山区
230521,230500,集贤县,3,JI_XIAN_XIAN,J,黑龙江省,双鸭山市,集贤县
230522,230500,友谊县,3,YOU_YI_XIAN,Y,黑龙江省,双鸭山市,友谊县
230523,230500,宝清县,3,BAO_QING_XIAN,B,黑龙江省,双鸭山市,宝清县
230524,230500,饶河县,3,RAO_HE_XIAN,R,黑龙江省,双鸭山市,饶河县
230600,230000,大庆市,2,DA_QING_SHI,D,黑龙江省,大庆市,
230602,230600,萨尔图区,3,SA_ER_TU_QU,S,黑龙江省,大庆市,萨尔图区
230603,230600,龙凤区,3,LONG_FENG_QU,L,黑龙江省,大庆市,龙凤区
230604,230600,让胡路区,3,RANG_HU_LU_QU,R,黑龙江省,大庆市,让胡路区
230605,230600,红岗区,3,HONG_GANG_QU,H,黑龙江省,大庆市,红岗区
230606,230600,大同区,3,DA_TONG_QU,D,黑龙江省,大庆市,大同区
230621,230600,肇州县,3,ZHAO_ZHOU_XIAN,Z,黑龙江省,大庆市,肇州县
230622,230600,肇源县,3,ZHAO_YUAN_XIAN,Z,黑龙江省,大庆市,肇源县
230623,230600,林甸县,3,LIN_DIAN_XIAN,L,黑龙江省,大庆市,林甸县
230624,230600,杜尔伯特蒙古族自治县,3,DU_ER_BO_TE_MENG_GU_ZU_ZI_ZHI_XIAN,D,黑龙江省,大庆市,杜尔伯特蒙古族自治县
230700,230000,伊春市,2,YI_CHUN_SHI,Y,黑龙江省,伊春市,
230702,230700,伊春区,3,YI_CHUN_QU,Y,黑龙江省,伊春市,伊春区
230703,230700,南岔区,3,NAN_CHA_QU,N,黑龙江省,伊春市,南岔区
230704,230700,友好区,3,YOU_HAO_QU,Y,黑龙江省,伊春市,友好区
230705,230700,西林区,3,XI_LIN_QU,X,黑龙江省,伊春市,西林区
230706,230700,翠峦区,3,CUI_LUAN_QU,C,黑龙江省,伊春市,翠峦区
230707,230700,新青区,3,XIN_QING_QU,X,黑龙江省,伊春市,新青区
230708,230700,美溪区,3,MEI_XI_QU,M,黑龙江省,伊春市,美溪区
230709,230700,金山屯区,3,JIN_SHAN_TUN_QU,J,黑龙江省,伊春市,金山屯区
230710,230700,五营区,3,WU_YING_QU,W,黑龙江省,伊春市,五营区
230711,230700,乌马河区,3,WU_MA_HE_QU,W,黑龙江省,伊春市,乌马河区
230712,230700,汤旺河区,3,TANG_WANG_HE_QU,T,黑龙江省,伊春市,汤旺河区
230713,230700,带岭区,3,DAI_LING_QU,D,黑龙江省,伊春市,带岭区
230714,230700,乌伊岭区,3,WU_YI_LING_QU,W,黑龙江省,伊春市,乌伊岭区
230715,230700,红星区,3,HONG_XING_QU,H,黑龙江省,伊春市,红星区
230716,230700,上甘岭区,3,SHANG_GAN_LING_QU,S,黑龙江省,伊春市,上甘岭区
230781,230700,铁力市,3,TIE_LI_SHI,T,黑龙江省,伊春市,铁力市
230722,230700,嘉荫县,3,JIA_YIN_XIAN,J,黑龙江省,伊春市,嘉荫县
230800,230000,佳木斯市,2,JIA_MU_SI_SHI,J,黑龙江省,佳木斯市,
230804,230800,前进区,3,QIAN_JIN_QU,Q,黑龙江省,佳木斯市,前进区
230803,230800,向阳区,3,XIANG_YANG_QU,X,黑龙江省,佳木斯市,向阳区
230805,230800,东风区,3,DONG_FENG_QU,D,黑龙江省,佳木斯市,东风区
230811,230800,郊区,3,JIAO_QU,J,黑龙江省,佳木斯市,郊区
230881,230800,同江市,3,TONG_JIANG_SHI,T,黑龙江省,佳木斯市,同江市
230882,230800,富锦市,3,FU_JIN_SHI,F,黑龙江省,佳木斯市,富锦市
230883,230800,抚远市,3,FU_YUAN_SHI,F,黑龙江省,佳木斯市,抚远市
230822,230800,桦南县,3,HUA_NAN_XIAN,H,黑龙江省,佳木斯市,桦南县
230826,230800,桦川县,3,HUA_CHUAN_XIAN,H,黑龙江省,佳木斯市,桦川县
230828,230800,汤原县,3,TANG_YUAN_XIAN,T,黑龙江省,佳木斯市,汤原县
230900,230000,七台河市,2,QI_TAI_HE_SHI,Q,黑龙江省,七台河市,
230903,230900,桃山区,3,TAO_SHAN_QU,T,黑龙江省,七台河市,桃山区
230902,230900,新兴区,3,XIN_XING_QU,X,黑龙江省,七台河市,新兴区
230904,230900,茄子河区,3,QIE_ZI_HE_QU,Q,黑龙江省,七台河市,茄子河区
230921,230900,勃利县,3,BO_LI_XIAN,B,黑龙江省,七台河市,勃利县
231000,230000,牡丹江市,2,MU_DAN_JIANG_SHI,M,黑龙江省,牡丹江市,
231002,231000,东安区,3,DONG_AN_QU,D,黑龙江省,牡丹江市,东安区
231003,231000,阳明区,3,YANG_MING_QU,Y,黑龙江省,牡丹江市,阳明区
231004,231000,爱民区,3,AI_MIN_QU,A,黑龙江省,牡丹江市,爱民区
231005,231000,西安区,3,XI_AN_QU,X,黑龙江省,牡丹江市,西安区
231081,231000,绥芬河市,3,SUI_FEN_HE_SHI,S,黑龙江省,牡丹江市,绥芬河市
231083,231000,海林市,3,HAI_LIN_SHI,H,黑龙江省,牡丹江市,海林市
231084,231000,宁安市,3,NING_AN_SHI,N,黑龙江省,牡丹江市,宁安市
231085,231000,穆棱市,3,MU_LENG_SHI,M,黑龙江省,牡丹江市,穆棱市
231086,231000,东宁市,3,DONG_NING_SHI,D,黑龙江省,牡丹江市,东宁市
231025,231000,林口县,3,LIN_KOU_XIAN,L,黑龙江省,牡丹江市,林口县
231100,230000,黑河市,2,HEI_HE_SHI,H,黑龙江省,黑河市,
231102,231100,爱辉区,3,AI_HUI_QU,A,黑龙江省,黑河市,爱辉区
231181,231100,北安市,3,BEI_AN_SHI,B,黑龙江省,黑河市,北安市
231182,231100,五大连池市,3,WU_DA_LIAN_CHI_SHI,W,黑龙江省,黑河市,五大连池市
231121,231100,嫩江县,3,NEN_JIANG_XIAN,N,黑龙江省,黑河市,嫩江县
231123,231100,逊克县,3,XUN_KE_XIAN,X,黑龙江省,黑河市,逊克县
231124,231100,孙吴县,3,SUN_WU_XIAN,S,黑龙江省,黑河市,孙吴县
231200,230000,绥化市,2,SUI_HUA_SHI,S,黑龙江省,绥化市,
231202,231200,北林区,3,BEI_LIN_QU,B,黑龙江省,绥化市,北林区
231281,231200,安达市,3,AN_DA_SHI,A,黑龙江省,绥化市,安达市
231282,231200,肇东市,3,ZHAO_DONG_SHI,Z,黑龙江省,绥化市,肇东市
231283,231200,海伦市,3,HAI_LUN_SHI,H,黑龙江省,绥化市,海伦市
231221,231200,望奎县,3,WANG_KUI_XIAN,W,黑龙江省,绥化市,望奎县
231222,231200,兰西县,3,LAN_XI_XIAN,L,黑龙江省,绥化市,兰西县
231223,231200,青冈县,3,QING_GANG_XIAN,Q,黑龙江省,绥化市,青冈县
231224,231200,庆安县,3,QING_AN_XIAN,Q,黑龙江省,绥化市,庆安县
231225,231200,明水县,3,MING_SHUI_XIAN,M,黑龙江省,绥化市,明水县
231226,231200,绥棱县,3,SUI_LENG_XIAN,S,黑龙江省,绥化市,绥棱县
232700,230000,大兴安岭地区,2,DA_XING_AN_LING_DI_QU,D,黑龙江省,大兴安岭地区,
232721,232700,呼玛县,3,HU_MA_XIAN,H,黑龙江省,大兴安岭地区,呼玛县
232722,232700,塔河县,3,TA_HE_XIAN,T,黑龙江省,大兴安岭地区,塔河县
232723,232700,漠河县,3,MO_HE_XIAN,M,黑龙江省,大兴安岭地区,漠河县
310000,100000,上海,1,SHANG_HAI,S,上海,,
310100,310000,上海市,2,SHANG_HAI_SHI,S,上海,上海市,
310101,310100,黄浦区,3,HUANG_PU_QU,H,上海,上海市,黄浦区
310104,310100,徐汇区,3,XU_HUI_QU,X,上海,上海市,徐汇区
310105,310100,长宁区,3,ZHANG_NING_QU,Z,上海,上海市,长宁区
310106,310100,静安区,3,JING_AN_QU,J,上海,上海市,静安区
310107,310100,普陀区,3,PU_TUO_QU,P,上海,上海市,普陀区
310109,310100,虹口区,3,HONG_KOU_QU,H,上海,上海市,虹口区
310110,310100,杨浦区,3,YANG_PU_QU,Y,上海,上海市,杨浦区
310112,310100,闵行区,3,MIN_XING_QU,M,上海,上海市,闵行区
310113,310100,宝山区,3,BAO_SHAN_QU,B,上海,上海市,宝山区
310114,310100,嘉定区,3,JIA_DING_QU,J,上海,上海市,嘉定区
310115,310100,浦东新区,3,PU_DONG_XIN_QU,P,上海,上海市,浦东新区
310116,310100,金山区,3,JIN_SHAN_QU,J,上海,上海市,金山区
310117,310100,松江区,3,SONG_JIANG_QU,S,上海,上海市,松江区
310118,310100,青浦区,3,QING_PU_QU,Q,上海,上海市,青浦区
310120,310100,奉贤区,3,FENG_XIAN_QU,F,上海,上海市,奉贤区
310151,310100,崇明区,3,CHONG_MING_QU,C,上海,上海市,崇明区
320000,100000,江苏省,1,JIANG_SU_SHENG,J,江苏省,,
320100,320000,南京市,2,NAN_JING_SHI,N,江苏省,南京市,
320102,320100,玄武区,3,XUAN_WU_QU,X,江苏省,南京市,玄武区
320104,320100,秦淮区,3,QIN_HUAI_QU,Q,江苏省,南京市,秦淮区
320105,320100,建邺区,3,JIAN_YE_QU,J,江苏省,南京市,建邺区
320106,320100,鼓楼区,3,GU_LOU_QU,G,江苏省,南京市,鼓楼区
320111,320100,浦口区,3,PU_KOU_QU,P,江苏省,南京市,浦口区
320113,320100,栖霞区,3,QI_XIA_QU,Q,江苏省,南京市,栖霞区
320114,320100,雨花台区,3,YU_HUA_TAI_QU,Y,江苏省,南京市,雨花台区
320115,320100,江宁区,3,JIANG_NING_QU,J,江苏省,南京市,江宁区
320116,320100,六合区,3,LIU_HE_QU,L,江苏省,南京市,六合区
320117,320100,溧水区,3,LI_SHUI_QU,L,江苏省,南京市,溧水区
320118,320100,高淳区,3,GAO_CHUN_QU,G,江苏省,南京市,高淳区
320200,320000,无锡市,2,WU_XI_SHI,W,江苏省,无锡市,
320205,320200,锡山区,3,XI_SHAN_QU,X,江苏省,无锡市,锡山区
320206,320200,惠山区,3,HUI_SHAN_QU,H,江苏省,无锡市,惠山区
320211,320200,滨湖区,3,BIN_HU_QU,B,江苏省,无锡市,滨湖区
320213,320200,梁溪区,3,LIANG_XI_QU,L,江苏省,无锡市,梁溪区
320214,320200,新吴区,3,XIN_WU_QU,X,江苏省,无锡市,新吴区
320281,320200,江阴市,3,JIANG_YIN_SHI,J,江苏省,无锡市,江阴市
320282,320200,宜兴市,3,YI_XING_SHI,Y,江苏省,无锡市,宜兴市
320300,320000,徐州市,2,XU_ZHOU_SHI,X,江苏省,徐州市,
320303,320300,云龙区,3,YUN_LONG_QU,Y,江苏省,徐州市,云龙区
320302,320300,鼓楼区,3,GU_LOU_QU,G,江苏省,徐州市,鼓楼区
320305,320300,贾汪区,3,JIA_WANG_QU,J,江苏省,徐州市,贾汪区
320311,320300,泉山区,3,QUAN_SHAN_QU,Q,江苏省,徐州市,泉山区
320312,320300,铜山区,3,TONG_SHAN_QU,T,江苏省,徐州市,铜山区
320381,320300,新沂市,3,XIN_YI_SHI,X,江苏省,徐州市,新沂市
320382,320300,邳州市,3,PI_ZHOU_SHI,P,江苏省,徐州市,邳州市
320321,320300,丰县,3,FENG_XIAN,F,江苏省,徐州市,丰县
320322,320300,沛县,3,PEI_XIAN,P,江苏省,徐州市,沛县
320324,320300,睢宁县,3,SUI_NING_XIAN,S,江苏省,徐州市,睢宁县
320400,320000,常州市,2,CHANG_ZHOU_SHI,C,江苏省,常州市,
320411,320400,新北区,3,XIN_BEI_QU,X,江苏省,常州市,新北区
320402,320400,天宁区,3,TIAN_NING_QU,T,江苏省,常州市,天宁区
320404,320400,钟楼区,3,ZHONG_LOU_QU,Z,江苏省,常州市,钟楼区
320412,320400,武进区,3,WU_JIN_QU,W,江苏省,常州市,武进区
320413,320400,金坛区,3,JIN_TAN_QU,J,江苏省,常州市,金坛区
320481,320400,溧阳市,3,LI_YANG_SHI,L,江苏省,常州市,溧阳市
320500,320000,苏州市,2,SU_ZHOU_SHI,S,江苏省,苏州市,
320508,320500,姑苏区,3,GU_SU_QU,G,江苏省,苏州市,姑苏区
320505,320500,虎丘区,3,HU_QIU_QU,H,江苏省,苏州市,虎丘区
320506,320500,吴中区,3,WU_ZHONG_QU,W,江苏省,苏州市,吴中区
320507,320500,相城区,3,XIANG_CHENG_QU,X,江苏省,苏州市,相城区
320509,320500,吴江区,3,WU_JIANG_QU,W,江苏省,苏州市,吴江区
320581,320500,常熟市,3,CHANG_SHU_SHI,C,江苏省,苏州市,常熟市
320582,320500,张家港市,3,ZHANG_JIA_GANG_SHI,Z,江苏省,苏州市,张家港市
320583,320500,昆山市,3,KUN_SHAN_SHI,K,江苏省,苏州市,昆山市
320585,320500,太仓市,3,TAI_CANG_SHI,T,江苏省,苏州市,太仓市
320600,320000,南通市,2,NAN_TONG_SHI,N,江苏省,南通市,
320602,320600,崇川区,3,CHONG_CHUAN_QU,C,江苏省,南通市,崇川区
320611,320600,港闸区,3,GANG_ZHA_QU,G,江苏省,南通市,港闸区
320612,320600,通州区,3,TONG_ZHOU_QU,T,江苏省,南通市,通州区
320681,320600,启东市,3,QI_DONG_SHI,Q,江苏省,南通市,启东市
320682,320600,如皋市,3,RU_GAO_SHI,R,江苏省,南通市,如皋市
320684,320600,海门市,3,HAI_MEN_SHI,H,江苏省,南通市,海门市
320621,320600,海安县,3,HAI_AN_XIAN,H,江苏省,南通市,海安县
320623,320600,如东县,3,RU_DONG_XIAN,R,江苏省,南通市,如东县
320700,320000,连云港市,2,LIAN_YUN_GANG_SHI,L,江苏省,连云港市,
320706,320700,海州区,3,HAI_ZHOU_QU,H,江苏省,连云港市,海州区
320703,320700,连云区,3,LIAN_YUN_QU,L,江苏省,连云港市,连云区
320707,320700,赣榆区,3,GAN_YU_QU,G,江苏省,连云港市,赣榆区
320722,320700,东海县,3,DONG_HAI_XIAN,D,江苏省,连云港市,东海县
320723,320700,灌云县,3,GUAN_YUN_XIAN,G,江苏省,连云港市,灌云县
320724,320700,灌南县,3,GUAN_NAN_XIAN,G,江苏省,连云港市,灌南县
320800,320000,淮安市,2,HUAI_AN_SHI,H,江苏省,淮安市,
320803,320800,淮安区,3,HUAI_AN_QU,H,江苏省,淮安市,淮安区
320804,320800,淮阴区,3,HUAI_YIN_QU,H,江苏省,淮安市,淮阴区
320812,320800,清江浦区,3,QING_JIANG_PU_QU,Q,江苏省,淮安市,清江浦区
320813,320800,洪泽区,3,HONG_ZE_QU,H,江苏省,淮安市,洪泽区
320826,320800,涟水县,3,LIAN_SHUI_XIAN,L,江苏省,淮安市,涟水县
320830,320800,盱眙县,3,XU_YI_XIAN,X,江苏省,淮安市,盱眙县
320831,320800,金湖县,3,JIN_HU_XIAN,J,江苏省,淮安市,金湖县
320900,320000,盐城市,2,YAN_CHENG_SHI,Y,江苏省,盐城市,
320902,320900,亭湖区,3,TING_HU_QU,T,江苏省,盐城市,亭湖区
320903,320900,盐都区,3,YAN_DOU_QU,Y,江苏省,盐城市,盐都区
320904,320900,大丰区,3,DA_FENG_QU,D,江苏省,盐城市,大丰区
320981,320900,东台市,3,DONG_TAI_SHI,D,江苏省,盐城市,东台市
320921,320900,响水县,3,XIANG_SHUI_XIAN,X,江苏省,盐城市,响水县
320922,320900,滨海县,3,BIN_HAI_XIAN,B,江苏省,盐城市,滨海县
320923,320900,阜宁县,3,FU_NING_XIAN,F,江苏省,盐城市,阜宁县
320924,320900,射阳县,3,SHE_YANG_XIAN,S,江苏省,盐城市,射阳县
320925,320900,建湖县,3,JIAN_HU_XIAN,J,江苏省,盐城市,建湖县
321000,320000,扬州市,2,YANG_ZHOU_SHI,Y,江苏省,扬州市,
321003,321000,邗江区,3,HAN_JIANG_QU,H,江苏省,扬州市,邗江区
321002,321000,广陵区,3,GUANG_LING_QU,G,江苏省,扬州市,广陵区
321012,321000,江都区,3,JIANG_DOU_QU,J,江苏省,扬州市,江都区
321081,321000,仪征市,3,YI_ZHENG_SHI,Y,江苏省,扬州市,仪征市
321084,321000,高邮市,3,GAO_YOU_SHI,G,江苏省,扬州市,高邮市
321023,321000,宝应县,3,BAO_YING_XIAN,B,江苏省,扬州市,宝应县
321100,320000,镇江市,2,ZHEN_JIANG_SHI,Z,江苏省,镇江市,
321102,321100,京口区,3,JING_KOU_QU,J,江苏省,镇江市,京口区
321111,321100,润州区,3,RUN_ZHOU_QU,R,江苏省,镇江市,润州区
321112,321100,丹徒区,3,DAN_TU_QU,D,江苏省,镇江市,丹徒区
321181,321100,丹阳市,3,DAN_YANG_SHI,D,江苏省,镇江市,丹阳市
321182,321100,扬中市,3,YANG_ZHONG_SHI,Y,江苏省,镇江市,扬中市
321183,321100,句容市,3,JU_RONG_SHI,J,江苏省,镇江市,句容市
321200,320000,泰州市,2,TAI_ZHOU_SHI,T,江苏省,泰州市,
321202,321200,海陵区,3,HAI_LING_QU,H,江苏省,泰州市,海陵区
321203,321200,高港区,3,GAO_GANG_QU,G,江苏省,泰州市,高港区
321204,321200,姜堰区,3,JIANG_YAN_QU,J,江苏省,泰州市,姜堰区
321281,321200,兴化市,3,XING_HUA_SHI,X,江苏省,泰州市,兴化市
321282,321200,靖江市,3,JING_JIANG_SHI,J,江苏省,泰州市,靖江市
321283,321200,泰兴市,3,TAI_XING_SHI,T,江苏省,泰州市,泰兴市
321300,320000,宿迁市,2,SU_QIAN_SHI,S,江苏省,宿迁市,
321302,321300,宿城区,3,SU_CHENG_QU,S,江苏省,宿迁市,宿城区
321311,321300,宿豫区,3,SU_YU_QU,S,江苏省,宿迁市,宿豫区
321322,321300,沭阳县,3,SHU_YANG_XIAN,S,江苏省,宿迁市,沭阳县
321323,321300,泗阳县,3,SI_YANG_XIAN,S,江苏省,宿迁市,泗阳县
321324,321300,泗洪县,3,SI_HONG_XIAN,S,江苏省,宿迁市,泗洪县
330000,100000,浙江省,1,ZHE_JIANG_SHENG,Z,浙江省,,
330100,330000,杭州市,2,HANG_ZHOU_SHI,H,浙江省,杭州市,
330105,330100,拱墅区,3,GONG_SHU_QU,G,浙江省,杭州市,拱墅区
330102,330100,上城区,3,SHANG_CHENG_QU,S,浙江省,杭州市,上城区
330103,330100,下城区,3,XIA_CHENG_QU,X,浙江省,杭州市,下城区
330104,330100,江干区,3,JIANG_GAN_QU,J,浙江省,杭州市,江干区
330106,330100,西湖区,3,XI_HU_QU,X,浙江省,杭州市,西湖区
330108,330100,滨江区,3,BIN_JIANG_QU,B,浙江省,杭州市,滨江区
330109,330100,萧山区,3,XIAO_SHAN_QU,X,浙江省,杭州市,萧山区
330110,330100,余杭区,3,YU_HANG_QU,Y,浙江省,杭州市,余杭区
330111,330100,富阳区,3,FU_YANG_QU,F,浙江省,杭州市,富阳区
330182,330100,建德市,3,JIAN_DE_SHI,J,浙江省,杭州市,建德市
330185,330100,临安市,3,LIN_AN_SHI,L,浙江省,杭州市,临安市
330122,330100,桐庐县,3,TONG_LU_XIAN,T,浙江省,杭州市,桐庐县
330127,330100,淳安县,3,CHUN_AN_XIAN,C,浙江省,杭州市,淳安县
330200,330000,宁波市,2,NING_BO_SHI,N,浙江省,宁波市,
330203,330200,海曙区,3,HAI_SHU_QU,H,浙江省,宁波市,海曙区
330205,330200,江北区,3,JIANG_BEI_QU,J,浙江省,宁波市,江北区
330206,330200,北仑区,3,BEI_LUN_QU,B,浙江省,宁波市,北仑区
330211,330200,镇海区,3,ZHEN_HAI_QU,Z,浙江省,宁波市,镇海区
330212,330200,鄞州区,3,YIN_ZHOU_QU,Y,浙江省,宁波市,鄞州区
330213,330200,奉化区,3,FENG_HUA_QU,F,浙江省,宁波市,奉化区
330281,330200,余姚市,3,YU_YAO_SHI,Y,浙江省,宁波市,余姚市
330282,330200,慈溪市,3,CI_XI_SHI,C,浙江省,宁波市,慈溪市
330225,330200,象山县,3,XIANG_SHAN_XIAN,X,浙江省,宁波市,象山县
330226,330200,宁海县,3,NING_HAI_XIAN,N,浙江省,宁波市,宁海县
330300,330000,温州市,2,WEN_ZHOU_SHI,W,浙江省,温州市,
330302,330300,鹿城区,3,LU_CHENG_QU,L,浙江省,温州市,鹿城区
330303,330300,龙湾区,3,LONG_WAN_QU,L,浙江省,温州市,龙湾区
330304,330300,瓯海区,3,OU_HAI_QU,O,浙江省,温州市,瓯海区
330305,330300,洞头区,3,DONG_TOU_QU,D,浙江省,温州市,洞头区
330381,330300,瑞安市,3,RUI_AN_SHI,R,浙江省,温州市,瑞安市
330382,330300,乐清市,3,LE_QING_SHI,L,浙江省,温州市,乐清市
330324,330300,永嘉县,3,YONG_JIA_XIAN,Y,浙江省,温州市,永嘉县
330326,330300,平阳县,3,PING_YANG_XIAN,P,浙江省,温州市,平阳县
330327,330300,苍南县,3,CANG_NAN_XIAN,C,浙江省,温州市,苍南县
330328,330300,文成县,3,WEN_CHENG_XIAN,W,浙江省,温州市,文成县
330329,330300,泰顺县,3,TAI_SHUN_XIAN,T,浙江省,温州市,泰顺县
330400,330000,嘉兴市,2,JIA_XING_SHI,J,浙江省,嘉兴市,
330402,330400,南湖区,3,NAN_HU_QU,N,浙江省,嘉兴市,南湖区
330411,330400,秀洲区,3,XIU_ZHOU_QU,X,浙江省,嘉兴市,秀洲区
330481,330400,海宁市,3,HAI_NING_SHI,H,浙江省,嘉兴市,海宁市
330482,330400,平湖市,3,PING_HU_SHI,P,浙江省,嘉兴市,平湖市
330483,330400,桐乡市,3,TONG_XIANG_SHI,T,浙江省,嘉兴市,桐乡市
330421,330400,嘉善县,3,JIA_SHAN_XIAN,J,浙江省,嘉兴市,嘉善县
330424,330400,海盐县,3,HAI_YAN_XIAN,H,浙江省,嘉兴市,海盐县
330500,330000,湖州市,2,HU_ZHOU_SHI,H,浙江省,湖州市,
330502,330500,吴兴区,3,WU_XING_QU,W,浙江省,湖州市,吴兴区
330503,330500,南浔区,3,NAN_XUN_QU,N,浙江省,湖州市,南浔区
330521,330500,德清县,3,DE_QING_XIAN,D,浙江省,湖州市,德清县
330522,330500,长兴县,3,ZHANG_XING_XIAN,Z,浙江省,湖州市,长兴县
330523,330500,安吉县,3,AN_JI_XIAN,A,浙江省,湖州市,安吉县
330600,330000,绍兴市,2,SHAO_XING_SHI,S,浙江省,绍兴市,
330602,330600,越城区,3,YUE_CHENG_QU,Y,浙江省,绍兴市,越城区
330603,330600,柯桥区,3,KE_QIAO_QU,K,浙江省,绍兴市,柯桥区
330604,330600,上虞区,3,SHANG_YU_QU,S,浙江省,绍兴市,上虞区
330681,330600,诸暨市,3,ZHU_JI_SHI,Z,浙江省,绍兴市,诸暨市
330683,330600,嵊州市,3,SHENG_ZHOU_SHI,S,浙江省,绍兴市,嵊州市
330624,330600,新昌县,3,XIN_CHANG_XIAN,X,浙江省,绍兴市,新昌县
330700,330000,金华市,2,JIN_HUA_SHI,J,浙江省,金华市,
330702,330700,婺城区,3,WU_CHENG_QU,W,浙江省,金华市,婺城区
330703,330700,金东区,3,JIN_DONG_QU,J,浙江省,金华市,金东区
330781,330700,兰溪市,3,LAN_XI_SHI,L,浙江省,金华市,兰溪市
330782,330700,义乌市,3,YI_WU_SHI,Y,浙江省,金华市,义乌市
330783,330700,东阳市,3,DONG_YANG_SHI,D,浙江省,金华市,东阳市
330784,330700,永康市,3,YONG_KANG_SHI,Y,浙江省,金华市,永康市
330723,330700,武义县,3,WU_YI_XIAN,W,浙江省,金华市,武义县
330726,330700,浦江县,3,PU_JIANG_XIAN,P,浙江省,金华市,浦江县
330727,330700,磐安县,3,PAN_AN_XIAN,P,浙江省,金华市,磐安县
330800,330000,衢州市,2,QU_ZHOU_SHI,Q,浙江省,衢州市,
330802,330800,柯城区,3,KE_CHENG_QU,K,浙江省,衢州市,柯城区
330803,330800,衢江区,3,QU_JIANG_QU,Q,浙江省,衢州市,衢江区
330881,330800,江山市,3,JIANG_SHAN_SHI,J,浙江省,衢州市,江山市
330822,330800,常山县,3,CHANG_SHAN_XIAN,C,浙江省,衢州市,常山县
330824,330800,开化县,3,KAI_HUA_XIAN,K,浙江省,衢州市,开化县
330825,330800,龙游县,3,LONG_YOU_XIAN,L,浙江省,衢州市,龙游县
330900,330000,舟山市,2,ZHOU_SHAN_SHI,Z,浙江省,舟山市,
330902,330900,定海区,3,DING_HAI_QU,D,浙江省,舟山市,定海区
330903,330900,普陀区,3,PU_TUO_QU,P,浙江省,舟山市,普陀区
330921,330900,岱山县,3,DAI_SHAN_XIAN,D,浙江省,舟山市,岱山县
330922,330900,嵊泗县,3,SHENG_SI_XIAN,S,浙江省,舟山市,嵊泗县
331000,330000,台州市,2,TAI_ZHOU_SHI,T,浙江省,台州市,
331002,331000,椒江区,3,JIAO_JIANG_QU,J,浙江省,台州市,椒江区
331003,331000,黄岩区,3,HUANG_YAN_QU,H,浙江省,台州市,黄岩区
331004,331000,路桥区,3,LU_QIAO_QU,L,浙江省,台州市,路桥区
331081,331000,温岭市,3,WEN_LING_SHI,W,浙江省,台州市,温岭市
331082,331000,临海市,3,LIN_HAI_SHI,L,浙江省,台州市,临海市
331083,331000,玉环市,3,YU_HUAN_SHI,Y,浙江省,台州市,玉环市
331022,331000,三门县,3,SAN_MEN_XIAN,S,浙江省,台州市,三门县
331023,331000,天台县,3,TIAN_TAI_XIAN,T,浙江省,台州市,天台县
331024,331000,仙居县,3,XIAN_JU_XIAN,X,浙江省,台州市,仙居县
331100,330000,丽水市,2,LI_SHUI_SHI,L,浙江省,丽水市,
331102,331100,莲都区,3,LIAN_DOU_QU,L,浙江省,丽水市,莲都区
331181,331100,龙泉市,3,LONG_QUAN_SHI,L,浙江省,丽水市,龙泉市
331121,331100,青田县,3,QING_TIAN_XIAN,Q,浙江省,丽水市,青田县
331122,331100,缙云县,3,JIN_YUN_XIAN,J,浙江省,丽水市,缙云县
331123,331100,遂昌县,3,SUI_CHANG_XIAN,S,浙江省,丽水市,遂昌县
331124,331100,松阳县,3,SONG_YANG_XIAN,S,浙江省,丽水市,松阳县
331125,331100,云和县,3,YUN_HE_XIAN,Y,浙江省,丽水市,云和县
331126,331100,庆元县,3,QING_YUAN_XIAN,Q,浙江省,丽水市,庆元县
331127,331100,景宁畲族自治县,3,JING_NING_SHE_ZU_ZI_ZHI_XIAN,J,浙江省,丽水市,景宁畲族自治县
340000,100000,安徽省,1,AN_HUI_SHENG,A,安徽省,,
340100,340000,合肥市,2,HE_FEI_SHI,H,安徽省,合肥市,
340104,340100,蜀山区,3,SHU_SHAN_QU,S,安徽省,合肥市,蜀山区
340102,340100,瑶海区,3,YAO_HAI_QU,Y,安徽省,合肥市,瑶海区
340103,340100,庐阳区,3,LU_YANG_QU,L,安徽省,合肥市,庐阳区
340111,340100,包河区,3,BAO_HE_QU,B,安徽省,合肥市,包河区
340181,340100,巢湖市,3,CHAO_HU_SHI,C,安徽省,合肥市,巢湖市
340121,340100,长丰县,3,ZHANG_FENG_XIAN,Z,安徽省,合肥市,长丰县
340122,340100,肥东县,3,FEI_DONG_XIAN,F,安徽省,合肥市,肥东县
340123,340100,肥西县,3,FEI_XI_XIAN,F,安徽省,合肥市,肥西县
340124,340100,庐江县,3,LU_JIANG_XIAN,L,安徽省,合肥市,庐江县
340200,340000,芜湖市,2,WU_HU_SHI,W,安徽省,芜湖市,
340207,340200,鸠江区,3,JIU_JIANG_QU,J,安徽省,芜湖市,鸠江区
340202,340200,镜湖区,3,JING_HU_QU,J,安徽省,芜湖市,镜湖区
340203,340200,弋江区,3,YI_JIANG_QU,Y,安徽省,芜湖市,弋江区
340208,340200,三山区,3,SAN_SHAN_QU,S,安徽省,芜湖市,三山区
340221,340200,芜湖县,3,WU_HU_XIAN,W,安徽省,芜湖市,芜湖县
340222,340200,繁昌县,3,FAN_CHANG_XIAN,F,安徽省,芜湖市,繁昌县
340223,340200,南陵县,3,NAN_LING_XIAN,N,安徽省,芜湖市,南陵县
340225,340200,无为县,3,WU_WEI_XIAN,W,安徽省,芜湖市,无为县
340300,340000,蚌埠市,2,BANG_BU_SHI,B,安徽省,蚌埠市,
340303,340300,蚌山区,3,BANG_SHAN_QU,B,安徽省,蚌埠市,蚌山区
340302,340300,龙子湖区,3,LONG_ZI_HU_QU,L,安徽省,蚌埠市,龙子湖区
340304,340300,禹会区,3,YU_HUI_QU,Y,安徽省,蚌埠市,禹会区
340311,340300,淮上区,3,HUAI_SHANG_QU,H,安徽省,蚌埠市,淮上区
340321,340300,怀远县,3,HUAI_YUAN_XIAN,H,安徽省,蚌埠市,怀远县
340322,340300,五河县,3,WU_HE_XIAN,W,安徽省,蚌埠市,五河县
340323,340300,固镇县,3,GU_ZHEN_XIAN,G,安徽省,蚌埠市,固镇县
340400,340000,淮南市,2,HUAI_NAN_SHI,H,安徽省,淮南市,
340403,340400,田家庵区,3,TIAN_JIA_AN_QU,T,安徽省,淮南市,田家庵区
340402,340400,大通区,3,DA_TONG_QU,D,安徽省,淮南市,大通区
340404,340400,谢家集区,3,XIE_JIA_JI_QU,X,安徽省,淮南市,谢家集区
340405,340400,八公山区,3,BA_GONG_SHAN_QU,B,安徽省,淮南市,八公山区
340406,340400,潘集区,3,PAN_JI_QU,P,安徽省,淮南市,潘集区
340421,340400,凤台县,3,FENG_TAI_XIAN,F,安徽省,淮南市,凤台县
340422,340400,寿县,3,SHOU_XIAN,S,安徽省,淮南市,寿县
340500,340000,马鞍山市,2,MA_AN_SHAN_SHI,M,安徽省,马鞍山市,
340504,340500,雨山区,3,YU_SHAN_QU,Y,安徽省,马鞍山市,雨山区
340503,340500,花山区,3,HUA_SHAN_QU,H,安徽省,马鞍山市,花山区
340506,340500,博望区,3,BO_WANG_QU,B,安徽省,马鞍山市,博望区
340521,340500,当涂县,3,DANG_TU_XIAN,D,安徽省,马鞍山市,当涂县
340522,340500,含山县,3,HAN_SHAN_XIAN,H,安徽省,马鞍山市,含山县
340523,340500,和县,3,HE_XIAN,H,安徽省,马鞍山市,和县
340600,340000,淮北市,2,HUAI_BEI_SHI,H,安徽省,淮北市,
340603,340600,相山区,3,XIANG_SHAN_QU,X,安徽省,淮北市,相山区
340602,340600,杜集区,3,DU_JI_QU,D,安徽省,淮北市,杜集区
340604,340600,烈山区,3,LIE_SHAN_QU,L,安徽省,淮北市,烈山区
340621,340600,濉溪县,3,SUI_XI_XIAN,S,安徽省,淮北市,濉溪县
340700,340000,铜陵市,2,TONG_LING_SHI,T,安徽省,铜陵市,
340705,340700,铜官区,3,TONG_GUAN_QU,T,安徽省,铜陵市,铜官区
340706,340700,义安区,3,YI_AN_QU,Y,安徽省,铜陵市,义安区
340711,340700,郊区,3,JIAO_QU,J,安徽省,铜陵市,郊区
340722,340700,枞阳县,3,ZONG_YANG_XIAN,Z,安徽省,铜陵市,枞阳县
340800,340000,安庆市,2,AN_QING_SHI,A,安徽省,安庆市,
340803,340800,大观区,3,DA_GUAN_QU,D,安徽省,安庆市,大观区
340802,340800,迎江区,3,YING_JIANG_QU,Y,安徽省,安庆市,迎江区
340811,340800,宜秀区,3,YI_XIU_QU,Y,安徽省,安庆市,宜秀区
340881,340800,桐城市,3,TONG_CHENG_SHI,T,安徽省,安庆市,桐城市
340822,340800,怀宁县,3,HUAI_NING_XIAN,H,安徽省,安庆市,怀宁县
340824,340800,潜山县,3,QIAN_SHAN_XIAN,Q,安徽省,安庆市,潜山县
340825,340800,太湖县,3,TAI_HU_XIAN,T,安徽省,安庆市,太湖县
340826,340800,宿松县,3,SU_SONG_XIAN,S,安徽省,安庆市,宿松县
340827,340800,望江县,3,WANG_JIANG_XIAN,W,安徽省,安庆市,望江县
340828,340800,岳西县,3,YUE_XI_XIAN,Y,安徽省,安庆市,岳西县
341000,340000,黄山市,2,HUANG_SHAN_SHI,H,安徽省,黄山市,
341002,341000,屯溪区,3,TUN_XI_QU,T,安徽省,黄山市,屯溪区
341003,341000,黄山区,3,HUANG_SHAN_QU,H,安徽省,黄山市,黄山区
341004,341000,徽州区,3,HUI_ZHOU_QU,H,安徽省,黄山市,徽州区
341021,341000,歙县,3,SHE_XIAN,S,安徽省,黄山市,歙县
341022,341000,休宁县,3,XIU_NING_XIAN,X,安徽省,黄山市,休宁县
341023,341000,黟县,3,YI_XIAN,Y,安徽省,黄山市,黟县
341024,341000,祁门县,3,QI_MEN_XIAN,Q,安徽省,黄山市,祁门县
341100,340000,滁州市,2,CHU_ZHOU_SHI,C,安徽省,滁州市,
341102,341100,琅琊区,3,LANG_YA_QU,L,安徽省,滁州市,琅琊区
341103,341100,南谯区,3,NAN_QIAO_QU,N,安徽省,滁州市,南谯区
341181,341100,天长市,3,TIAN_ZHANG_SHI,T,安徽省,滁州市,天长市
341182,341100,明光市,3,MING_GUANG_SHI,M,安徽省,滁州市,明光市
341122,341100,来安县,3,LAI_AN_XIAN,L,安徽省,滁州市,来安县
341124,341100,全椒县,3,QUAN_JIAO_XIAN,Q,安徽省,滁州市,全椒县
341125,341100,定远县,3,DING_YUAN_XIAN,D,安徽省,滁州市,定远县
341126,341100,凤阳县,3,FENG_YANG_XIAN,F,安徽省,滁州市,凤阳县
341200,340000,阜阳市,2,FU_YANG_SHI,F,安徽省,阜阳市,
341202,341200,颍州区,3,YING_ZHOU_QU,Y,安徽省,阜阳市,颍州区
341203,341200,颍东区,3,YING_DONG_QU,Y,安徽省,阜阳市,颍东区
341204,341200,颍泉区,3,YING_QUAN_QU,Y,安徽省,阜阳市,颍泉区
341282,341200,界首市,3,JIE_SHOU_SHI,J,安徽省,阜阳市,界首市
341221,341200,临泉县,3,LIN_QUAN_XIAN,L,安徽省,阜阳市,临泉县
341222,341200,太和县,3,TAI_HE_XIAN,T,安徽省,阜阳市,太和县
341225,341200,阜南县,3,FU_NAN_XIAN,F,安徽省,阜阳市,阜南县
341226,341200,颍上县,3,YING_SHANG_XIAN,Y,安徽省,阜阳市,颍上县
341300,340000,宿州市,2,SU_ZHOU_SHI,S,安徽省,宿州市,
341302,341300,埇桥区,3,YONG_QIAO_QU,Y,安徽省,宿州市,埇桥区
341321,341300,砀山县,3,DANG_SHAN_XIAN,D,安徽省,宿州市,砀山县
341322,341300,萧县,3,XIAO_XIAN,X,安徽省,宿州市,萧县
341323,341300,灵璧县,3,LING_BI_XIAN,L,安徽省,宿州市,灵璧县
341324,341300,泗县,3,SI_XIAN,S,安徽省,宿州市,泗县
341500,340000,六安市,2,LIU_AN_SHI,L,安徽省,六安市,
341502,341500,金安区,3,JIN_AN_QU,J,安徽省,六安市,金安区
341503,341500,裕安区,3,YU_AN_QU,Y,安徽省,六安市,裕安区
341504,341500,叶集区,3,YE_JI_QU,Y,安徽省,六安市,叶集区
341522,341500,霍邱县,3,HUO_QIU_XIAN,H,安徽省,六安市,霍邱县
341523,341500,舒城县,3,SHU_CHENG_XIAN,S,安徽省,六安市,舒城县
341524,341500,金寨县,3,JIN_ZHAI_XIAN,J,安徽省,六安市,金寨县
341525,341500,霍山县,3,HUO_SHAN_XIAN,H,安徽省,六安市,霍山县
341600,340000,亳州市,2,BO_ZHOU_SHI,B,安徽省,亳州市,
341602,341600,谯城区,3,QIAO_CHENG_QU,Q,安徽省,亳州市,谯城区
341621,341600,涡阳县,3,WO_YANG_XIAN,W,安徽省,亳州市,涡阳县
341622,341600,蒙城县,3,MENG_CHENG_XIAN,M,安徽省,亳州市,蒙城县
341623,341600,利辛县,3,LI_XIN_XIAN,L,安徽省,亳州市,利辛县
341700,340000,池州市,2,CHI_ZHOU_SHI,C,安徽省,池州市,
341702,341700,贵池区,3,GUI_CHI_QU,G,安徽省,池州市,贵池区
341721,341700,东至县,3,DONG_ZHI_XIAN,D,安徽省,池州市,东至县
341722,341700,石台县,3,SHI_TAI_XIAN,S,安徽省,池州市,石台县
341723,341700,青阳县,3,QING_YANG_XIAN,Q,安徽省,池州市,青阳县
341800,340000,宣城市,2,XUAN_CHENG_SHI,X,安徽省,宣城市,
341802,341800,宣州区,3,XUAN_ZHOU_QU,X,安徽省,宣城市,宣州区
341881,341800,宁国市,3,NING_GUO_SHI,N,安徽省,宣城市,宁国市
341821,341800,郎溪县,3,LANG_XI_XIAN,L,安徽省,宣城市,郎溪县
341822,341800,广德县,3,GUANG_DE_XIAN,G,安徽省,宣城市,广德县
341823,341800,泾县,3,JING_XIAN,J,安徽省,宣城市,泾县
341824,341800,绩溪县,3,JI_XI_XIAN,J,安徽省,宣城市,绩溪县
341825,341800,旌德县,3,JING_DE_XIAN,J,安徽省,宣城市,旌德县
350000,100000,福建省,1,FU_JIAN_SHENG,F,福建省,,
350100,350000,福州市,2,FU_ZHOU_SHI,F,福建省,福州市,
350102,350100,鼓楼区,3,GU_LOU_QU,G,福建省,福州市,鼓楼区
350103,350100,台江区,3,TAI_JIANG_QU,T,福建省,福州市,台江区
350104,350100,仓山区,3,CANG_SHAN_QU,C,福建省,福州市,仓山区
350105,350100,马尾区,3,MA_WEI_QU,M,福建省,福州市,马尾区
350111,350100,晋安区,3,JIN_AN_QU,J,福建省,福州市,晋安区
350181,350100,福清市,3,FU_QING_SHI,F,福建省,福州市,福清市
350182,350100,长乐市,3,ZHANG_LE_SHI,Z,福建省,福州市,长乐市
350121,350100,闽侯县,3,MIN_HOU_XIAN,M,福建省,福州市,闽侯县
350122,350100,连江县,3,LIAN_JIANG_XIAN,L,福建省,福州市,连江县
350123,350100,罗源县,3,LUO_YUAN_XIAN,L,福建省,福州市,罗源县
350124,350100,闽清县,3,MIN_QING_XIAN,M,福建省,福州市,闽清县
350125,350100,永泰县,3,YONG_TAI_XIAN,Y,福建省,福州市,永泰县
350128,350100,平潭县,3,PING_TAN_XIAN,P,福建省,福州市,平潭县
350200,350000,厦门市,2,SHA_MEN_SHI,S,福建省,厦门市,
350203,350200,思明区,3,SI_MING_QU,S,福建省,厦门市,思明区
350205,350200,海沧区,3,HAI_CANG_QU,H,福建省,厦门市,海沧区
350206,350200,湖里区,3,HU_LI_QU,H,福建省,厦门市,湖里区
350211,350200,集美区,3,JI_MEI_QU,J,福建省,厦门市,集美区
350212,350200,同安区,3,TONG_AN_QU,T,福建省,厦门市,同安区
350213,350200,翔安区,3,XIANG_AN_QU,X,福建省,厦门市,翔安区
350300,350000,莆田市,2,PU_TIAN_SHI,P,福建省,莆田市,
350302,350300,城厢区,3,CHENG_XIANG_QU,C,福建省,莆田市,城厢区
350303,350300,涵江区,3,HAN_JIANG_QU,H,福建省,莆田市,涵江区
350304,350300,荔城区,3,LI_CHENG_QU,L,福建省,莆田市,荔城区
350305,350300,秀屿区,3,XIU_YU_QU,X,福建省,莆田市,秀屿区
350322,350300,仙游县,3,XIAN_YOU_XIAN,X,福建省,莆田市,仙游县
350400,350000,三明市,2,SAN_MING_SHI,S,福建省,三明市,
350402,350400,梅列区,3,MEI_LIE_QU,M,福建省,三明市,梅列区
350403,350400,三元区,3,SAN_YUAN_QU,S,福建省,三明市,三元区
350481,350400,永安市,3,YONG_AN_SHI,Y,福建省,三明市,永安市
350421,350400,明溪县,3,MING_XI_XIAN,M,福建省,三明市,明溪县
350423,350400,清流县,3,QING_LIU_XIAN,Q,福建省,三明市,清流县
350424,350400,宁化县,3,NING_HUA_XIAN,N,福建省,三明市,宁化县
350425,350400,大田县,3,DA_TIAN_XIAN,D,福建省,三明市,大田县
350426,350400,尤溪县,3,YOU_XI_XIAN,Y,福建省,三明市,尤溪县
350427,350400,沙县,3,SHA_XIAN,S,福建省,三明市,沙县
350428,350400,将乐县,3,JIANG_LE_XIAN,J,福建省,三明市,将乐县
350429,350400,泰宁县,3,TAI_NING_XIAN,T,福建省,三明市,泰宁县
350430,350400,建宁县,3,JIAN_NING_XIAN,J,福建省,三明市,建宁县
350500,350000,泉州市,2,QUAN_ZHOU_SHI,Q,福建省,泉州市,
350503,350500,丰泽区,3,FENG_ZE_QU,F,福建省,泉州市,丰泽区
350502,350500,鲤城区,3,LI_CHENG_QU,L,福建省,泉州市,鲤城区
350504,350500,洛江区,3,LUO_JIANG_QU,L,福建省,泉州市,洛江区
350505,350500,泉港区,3,QUAN_GANG_QU,Q,福建省,泉州市,泉港区
350581,350500,石狮市,3,SHI_SHI_SHI,S,福建省,泉州市,石狮市
350582,350500,晋江市,3,JIN_JIANG_SHI,J,福建省,泉州市,晋江市
350583,350500,南安市,3,NAN_AN_SHI,N,福建省,泉州市,南安市
350521,350500,惠安县,3,HUI_AN_XIAN,H,福建省,泉州市,惠安县
350524,350500,安溪县,3,AN_XI_XIAN,A,福建省,泉州市,安溪县
350525,350500,永春县,3,YONG_CHUN_XIAN,Y,福建省,泉州市,永春县
350526,350500,德化县,3,DE_HUA_XIAN,D,福建省,泉州市,德化县
350527,350500,金门县☆,3,JIN_MEN_XIAN,J,福建省,泉州市,金门县☆
350600,350000,漳州市,2,ZHANG_ZHOU_SHI,Z,福建省,漳州市,
350603,350600,龙文区,3,LONG_WEN_QU,L,福建省,漳州市,龙文区
350602,350600,芗城区,3,XIANG_CHENG_QU,X,福建省,漳州市,芗城区
350681,350600,龙海市,3,LONG_HAI_SHI,L,福建省,漳州市,龙海市
350622,350600,云霄县,3,YUN_XIAO_XIAN,Y,福建省,漳州市,云霄县
350623,350600,漳浦县,3,ZHANG_PU_XIAN,Z,福建省,漳州市,漳浦县
350624,350600,诏安县,3,ZHAO_AN_XIAN,Z,福建省,漳州市,诏安县
350625,350600,长泰县,3,ZHANG_TAI_XIAN,Z,福建省,漳州市,长泰县
350626,350600,东山县,3,DONG_SHAN_XIAN,D,福建省,漳州市,东山县
350627,350600,南靖县,3,NAN_JING_XIAN,N,福建省,漳州市,南靖县
350628,350600,平和县,3,PING_HE_XIAN,P,福建省,漳州市,平和县
350629,350600,华安县,3,HUA_AN_XIAN,H,福建省,漳州市,华安县
350700,350000,南平市,2,NAN_PING_SHI,N,福建省,南平市,
350703,350700,建阳区,3,JIAN_YANG_QU,J,福建省,南平市,建阳区
350702,350700,延平区,3,YAN_PING_QU,Y,福建省,南平市,延平区
350781,350700,邵武市,3,SHAO_WU_SHI,S,福建省,南平市,邵武市
350782,350700,武夷山市,3,WU_YI_SHAN_SHI,W,福建省,南平市,武夷山市
350783,350700,建瓯市,3,JIAN_OU_SHI,J,福建省,南平市,建瓯市
350721,350700,顺昌县,3,SHUN_CHANG_XIAN,S,福建省,南平市,顺昌县
350722,350700,浦城县,3,PU_CHENG_XIAN,P,福建省,南平市,浦城县
350723,350700,光泽县,3,GUANG_ZE_XIAN,G,福建省,南平市,光泽县
350724,350700,松溪县,3,SONG_XI_XIAN,S,福建省,南平市,松溪县
350725,350700,政和县,3,ZHENG_HE_XIAN,Z,福建省,南平市,政和县
350800,350000,龙岩市,2,LONG_YAN_SHI,L,福建省,龙岩市,
350802,350800,新罗区,3,XIN_LUO_QU,X,福建省,龙岩市,新罗区
350803,350800,永定区,3,YONG_DING_QU,Y,福建省,龙岩市,永定区
350881,350800,漳平市,3,ZHANG_PING_SHI,Z,福建省,龙岩市,漳平市
350821,350800,长汀县,3,ZHANG_TING_XIAN,Z,福建省,龙岩市,长汀县
350823,350800,上杭县,3,SHANG_HANG_XIAN,S,福建省,龙岩市,上杭县
350824,350800,武平县,3,WU_PING_XIAN,W,福建省,龙岩市,武平县
350825,350800,连城县,3,LIAN_CHENG_XIAN,L,福建省,龙岩市,连城县
350900,350000,宁德市,2,NING_DE_SHI,N,福建省,宁德市,
350902,350900,蕉城区,3,JIAO_CHENG_QU,J,福建省,宁德市,蕉城区
350981,350900,福安市,3,FU_AN_SHI,F,福建省,宁德市,福安市
350982,350900,福鼎市,3,FU_DING_SHI,F,福建省,宁德市,福鼎市
350921,350900,霞浦县,3,XIA_PU_XIAN,X,福建省,宁德市,霞浦县
350922,350900,古田县,3,GU_TIAN_XIAN,G,福建省,宁德市,古田县
350923,350900,屏南县,3,PING_NAN_XIAN,P,福建省,宁德市,屏南县
350924,350900,寿宁县,3,SHOU_NING_XIAN,S,福建省,宁德市,寿宁县
350925,350900,周宁县,3,ZHOU_NING_XIAN,Z,福建省,宁德市,周宁县
350926,350900,柘荣县,3,ZHE_RONG_XIAN,Z,福建省,宁德市,柘荣县
360000,100000,江西省,1,JIANG_XI_SHENG,J,江西省,,
360100,360000,南昌市,2,NAN_CHANG_SHI,N,江西省,南昌市,
360102,360100,东湖区,3,DONG_HU_QU,D,江西省,南昌市,东湖区
360103,360100,西湖区,3,XI_HU_QU,X,江西省,南昌市,西湖区
360104,360100,青云谱区,3,QING_YUN_PU_QU,Q,江西省,南昌市,青云谱区
360105,360100,湾里区,3,WAN_LI_QU,W,江西省,南昌市,湾里区
360111,360100,青山湖区,3,QING_SHAN_HU_QU,Q,江西省,南昌市,青山湖区
360112,360100,新建区,3,XIN_JIAN_QU,X,江西省,南昌市,新建区
360121,360100,南昌县,3,NAN_CHANG_XIAN,N,江西省,南昌市,南昌县
360123,360100,安义县,3,AN_YI_XIAN,A,江西省,南昌市,安义县
360124,360100,进贤县,3,JIN_XIAN_XIAN,J,江西省,南昌市,进贤县
360200,360000,景德镇市,2,JING_DE_ZHEN_SHI,J,江西省,景德镇市,
360202,360200,昌江区,3,CHANG_JIANG_QU,C,江西省,景德镇市,昌江区
360203,360200,珠山区,3,ZHU_SHAN_QU,Z,江西省,景德镇市,珠山区
360281,360200,乐平市,3,LE_PING_SHI,L,江西省,景德镇市,乐平市
360222,360200,浮梁县,3,FU_LIANG_XIAN,F,江西省,景德镇市,浮梁县
360300,360000,萍乡市,2,PING_XIANG_SHI,P,江西省,萍乡市,
360302,360300,安源区,3,AN_YUAN_QU,A,江西省,萍乡市,安源区
360313,360300,湘东区,3,XIANG_DONG_QU,X,江西省,萍乡市,湘东区
360321,360300,莲花县,3,LIAN_HUA_XIAN,L,江西省,萍乡市,莲花县
360322,360300,上栗县,3,SHANG_LI_XIAN,S,江西省,萍乡市,上栗县
360323,360300,芦溪县,3,LU_XI_XIAN,L,江西省,萍乡市,芦溪县
360400,360000,九江市,2,JIU_JIANG_SHI,J,江西省,九江市,
360403,360400,浔阳区,3,XUN_YANG_QU,X,江西省,九江市,浔阳区
360402,360400,濂溪区,3,LIAN_XI_QU,L,江西省,九江市,濂溪区
360481,360400,瑞昌市,3,RUI_CHANG_SHI,R,江西省,九江市,瑞昌市
360482,360400,共青城市,3,GONG_QING_CHENG_SHI,G,江西省,九江市,共青城市
360483,360400,庐山市,3,LU_SHAN_SHI,L,江西省,九江市,庐山市
360421,360400,九江县,3,JIU_JIANG_XIAN,J,江西省,九江市,九江县
360423,360400,武宁县,3,WU_NING_XIAN,W,江西省,九江市,武宁县
360424,360400,修水县,3,XIU_SHUI_XIAN,X,江西省,九江市,修水县
360425,360400,永修县,3,YONG_XIU_XIAN,Y,江西省,九江市,永修县
360426,360400,德安县,3,DE_AN_XIAN,D,江西省,九江市,德安县
360428,360400,都昌县,3,DOU_CHANG_XIAN,D,江西省,九江市,都昌县
360429,360400,湖口县,3,HU_KOU_XIAN,H,江西省,九江市,湖口县
360430,360400,彭泽县,3,PENG_ZE_XIAN,P,江西省,九江市,彭泽县
360500,360000,新余市,2,XIN_YU_SHI,X,江西省,新余市,
360502,360500,渝水区,3,YU_SHUI_QU,Y,江西省,新余市,渝水区
360521,360500,分宜县,3,FEN_YI_XIAN,F,江西省,新余市,分宜县
360600,360000,鹰潭市,2,YING_TAN_SHI,Y,江西省,鹰潭市,
360602,360600,月湖区,3,YUE_HU_QU,Y,江西省,鹰潭市,月湖区
360681,360600,贵溪市,3,GUI_XI_SHI,G,江西省,鹰潭市,贵溪市
360622,360600,余江县,3,YU_JIANG_XIAN,Y,江西省,鹰潭市,余江县
360700,360000,赣州市,2,GAN_ZHOU_SHI,G,江西省,赣州市,
360702,360700,章贡区,3,ZHANG_GONG_QU,Z,江西省,赣州市,章贡区
360703,360700,南康区,3,NAN_KANG_QU,N,江西省,赣州市,南康区
360704,360700,赣县区,3,GAN_XIAN_QU,G,江西省,赣州市,赣县区
360781,360700,瑞金市,3,RUI_JIN_SHI,R,江西省,赣州市,瑞金市
360722,360700,信丰县,3,XIN_FENG_XIAN,X,江西省,赣州市,信丰县
360723,360700,大余县,3,DA_YU_XIAN,D,江西省,赣州市,大余县
360724,360700,上犹县,3,SHANG_YOU_XIAN,S,江西省,赣州市,上犹县
360725,360700,崇义县,3,CHONG_YI_XIAN,C,江西省,赣州市,崇义县
360726,360700,安远县,3,AN_YUAN_XIAN,A,江西省,赣州市,安远县
360727,360700,龙南县,3,LONG_NAN_XIAN,L,江西省,赣州市,龙南县
360728,360700,定南县,3,DING_NAN_XIAN,D,江西省,赣州市,定南县
360729,360700,全南县,3,QUAN_NAN_XIAN,Q,江西省,赣州市,全南县
360730,360700,宁都县,3,NING_DOU_XIAN,N,江西省,赣州市,宁都县
360731,360700,于都县,3,YU_DOU_XIAN,Y,江西省,赣州市,于都县
360732,360700,兴国县,3,XING_GUO_XIAN,X,江西省,赣州市,兴国县
360733,360700,会昌县,3,HUI_CHANG_XIAN,H,江西省,赣州市,会昌县
360734,360700,寻乌县,3,XUN_WU_XIAN,X,江西省,赣州市,寻乌县
360735,360700,石城县,3,SHI_CHENG_XIAN,S,江西省,赣州市,石城县
360800,360000,吉安市,2,JI_AN_SHI,J,江西省,吉安市,
360802,360800,吉州区,3,JI_ZHOU_QU,J,江西省,吉安市,吉州区
360803,360800,青原区,3,QING_YUAN_QU,Q,江西省,吉安市,青原区
360881,360800,井冈山市,3,JING_GANG_SHAN_SHI,J,江西省,吉安市,井冈山市
360821,360800,吉安县,3,JI_AN_XIAN,J,江西省,吉安市,吉安县
360822,360800,吉水县,3,JI_SHUI_XIAN,J,江西省,吉安市,吉水县
360823,360800,峡江县,3,XIA_JIANG_XIAN,X,江西省,吉安市,峡江县
360824,360800,新干县,3,XIN_GAN_XIAN,X,江西省,吉安市,新干县
360825,360800,永丰县,3,YONG_FENG_XIAN,Y,江西省,吉安市,永丰县
360826,360800,泰和县,3,TAI_HE_XIAN,T,江西省,吉安市,泰和县
360827,360800,遂川县,3,SUI_CHUAN_XIAN,S,江西省,吉安市,遂川县
360828,360800,万安县,3,WAN_AN_XIAN,W,江西省,吉安市,万安县
360829,360800,安福县,3,AN_FU_XIAN,A,江西省,吉安市,安福县
360830,360800,永新县,3,YONG_XIN_XIAN,Y,江西省,吉安市,永新县
360900,360000,宜春市,2,YI_CHUN_SHI,Y,江西省,宜春市,
360902,360900,袁州区,3,YUAN_ZHOU_QU,Y,江西省,宜春市,袁州区
360981,360900,丰城市,3,FENG_CHENG_SHI,F,江西省,宜春市,丰城市
360982,360900,樟树市,3,ZHANG_SHU_SHI,Z,江西省,宜春市,樟树市
360983,360900,高安市,3,GAO_AN_SHI,G,江西省,宜春市,高安市
360921,360900,奉新县,3,FENG_XIN_XIAN,F,江西省,宜春市,奉新县
360922,360900,万载县,3,WAN_ZAI_XIAN,W,江西省,宜春市,万载县
360923,360900,上高县,3,SHANG_GAO_XIAN,S,江西省,宜春市,上高县
360924,360900,宜丰县,3,YI_FENG_XIAN,Y,江西省,宜春市,宜丰县
360925,360900,靖安县,3,JING_AN_XIAN,J,江西省,宜春市,靖安县
360926,360900,铜鼓县,3,TONG_GU_XIAN,T,江西省,宜春市,铜鼓县
361000,360000,抚州市,2,FU_ZHOU_SHI,F,江西省,抚州市,
361002,361000,临川区,3,LIN_CHUAN_QU,L,江西省,抚州市,临川区
361003,361000,东乡区,3,DONG_XIANG_QU,D,江西省,抚州市,东乡区
361021,361000,南城县,3,NAN_CHENG_XIAN,N,江西省,抚州市,南城县
361022,361000,黎川县,3,LI_CHUAN_XIAN,L,江西省,抚州市,黎川县
361023,361000,南丰县,3,NAN_FENG_XIAN,N,江西省,抚州市,南丰县
361024,361000,崇仁县,3,CHONG_REN_XIAN,C,江西省,抚州市,崇仁县
361025,361000,乐安县,3,LE_AN_XIAN,L,江西省,抚州市,乐安县
361026,361000,宜黄县,3,YI_HUANG_XIAN,Y,江西省,抚州市,宜黄县
361027,361000,金溪县,3,JIN_XI_XIAN,J,江西省,抚州市,金溪县
361028,361000,资溪县,3,ZI_XI_XIAN,Z,江西省,抚州市,资溪县
361030,361000,广昌县,3,GUANG_CHANG_XIAN,G,江西省,抚州市,广昌县
361100,360000,上饶市,2,SHANG_RAO_SHI,S,江西省,上饶市,
361102,361100,信州区,3,XIN_ZHOU_QU,X,江西省,上饶市,信州区
361103,361100,广丰区,3,GUANG_FENG_QU,G,江西省,上饶市,广丰区
361181,361100,德兴市,3,DE_XING_SHI,D,江西省,上饶市,德兴市
361121,361100,上饶县,3,SHANG_RAO_XIAN,S,江西省,上饶市,上饶县
361123,361100,玉山县,3,YU_SHAN_XIAN,Y,江西省,上饶市,玉山县
361124,361100,铅山县,3,QIAN_SHAN_XIAN,Q,江西省,上饶市,铅山县
361125,361100,横峰县,3,HENG_FENG_XIAN,H,江西省,上饶市,横峰县
361126,361100,弋阳县,3,YI_YANG_XIAN,Y,江西省,上饶市,弋阳县
361127,361100,余干县,3,YU_GAN_XIAN,Y,江西省,上饶市,余干县
361128,361100,鄱阳县,3,PO_YANG_XIAN,P,江西省,上饶市,鄱阳县
361129,361100,万年县,3,WAN_NIAN_XIAN,W,江西省,上饶市,万年县
361130,361100,婺源县,3,WU_YUAN_XIAN,W,江西省,上饶市,婺源县
370000,100000,山东省,1,SHAN_DONG_SHENG,S,山东省,,
370100,370000,济南市,2,JI_NAN_SHI,J,山东省,济南市,
370103,370100,市中区,3,SHI_ZHONG_QU,S,山东省,济南市,市中区
370102,370100,历下区,3,LI_XIA_QU,L,山东省,济南市,历下区
370104,370100,槐荫区,3,HUAI_YIN_QU,H,山东省,济南市,槐荫区
370105,370100,天桥区,3,TIAN_QIAO_QU,T,山东省,济南市,天桥区
370112,370100,历城区,3,LI_CHENG_QU,L,山东省,济南市,历城区
370113,370100,长清区,3,ZHANG_QING_QU,Z,山东省,济南市,长清区
370114,370100,章丘区,3,ZHANG_QIU_QU,Z,山东省,济南市,章丘区
370124,370100,平阴县,3,PING_YIN_XIAN,P,山东省,济南市,平阴县
370125,370100,济阳县,3,JI_YANG_XIAN,J,山东省,济南市,济阳县
370126,370100,商河县,3,SHANG_HE_XIAN,S,山东省,济南市,商河县
370200,370000,青岛市,2,QING_DAO_SHI,Q,山东省,青岛市,
370202,370200,市南区,3,SHI_NAN_QU,S,山东省,青岛市,市南区
370203,370200,市北区,3,SHI_BEI_QU,S,山东省,青岛市,市北区
370211,370200,黄岛区,3,HUANG_DAO_QU,H,山东省,青岛市,黄岛区
370212,370200,崂山区,3,LAO_SHAN_QU,L,山东省,青岛市,崂山区
370213,370200,李沧区,3,LI_CANG_QU,L,山东省,青岛市,李沧区
370214,370200,城阳区,3,CHENG_YANG_QU,C,山东省,青岛市,城阳区
370281,370200,胶州市,3,JIAO_ZHOU_SHI,J,山东省,青岛市,胶州市
370282,370200,即墨市,3,JI_MO_SHI,J,山东省,青岛市,即墨市
370283,370200,平度市,3,PING_DU_SHI,P,山东省,青岛市,平度市
370285,370200,莱西市,3,LAI_XI_SHI,L,山东省,青岛市,莱西市
370300,370000,淄博市,2,ZI_BO_SHI,Z,山东省,淄博市,
370303,370300,张店区,3,ZHANG_DIAN_QU,Z,山东省,淄博市,张店区
370302,370300,淄川区,3,ZI_CHUAN_QU,Z,山东省,淄博市,淄川区
370304,370300,博山区,3,BO_SHAN_QU,B,山东省,淄博市,博山区
370305,370300,临淄区,3,LIN_ZI_QU,L,山东省,淄博市,临淄区
370306,370300,周村区,3,ZHOU_CUN_QU,Z,山东省,淄博市,周村区
370321,370300,桓台县,3,HUAN_TAI_XIAN,H,山东省,淄博市,桓台县
370322,370300,高青县,3,GAO_QING_XIAN,G,山东省,淄博市,高青县
370323,370300,沂源县,3,YI_YUAN_XIAN,Y,山东省,淄博市,沂源县
370400,370000,枣庄市,2,ZAO_ZHUANG_SHI,Z,山东省,枣庄市,
370403,370400,薛城区,3,XUE_CHENG_QU,X,山东省,枣庄市,薛城区
370402,370400,市中区,3,SHI_ZHONG_QU,S,山东省,枣庄市,市中区
370404,370400,峄城区,3,YI_CHENG_QU,Y,山东省,枣庄市,峄城区
370405,370400,台儿庄区,3,TAI_ER_ZHUANG_QU,T,山东省,枣庄市,台儿庄区
370406,370400,山亭区,3,SHAN_TING_QU,S,山东省,枣庄市,山亭区
370481,370400,滕州市,3,TENG_ZHOU_SHI,T,山东省,枣庄市,滕州市
370500,370000,东营市,2,DONG_YING_SHI,D,山东省,东营市,
370502,370500,东营区,3,DONG_YING_QU,D,山东省,东营市,东营区
370503,370500,河口区,3,HE_KOU_QU,H,山东省,东营市,河口区
370505,370500,垦利区,3,KEN_LI_QU,K,山东省,东营市,垦利区
370522,370500,利津县,3,LI_JIN_XIAN,L,山东省,东营市,利津县
370523,370500,广饶县,3,GUANG_RAO_XIAN,G,山东省,东营市,广饶县
370600,370000,烟台市,2,YAN_TAI_SHI,Y,山东省,烟台市,
370613,370600,莱山区,3,LAI_SHAN_QU,L,山东省,烟台市,莱山区
370602,370600,芝罘区,3,ZHI_FU_QU,Z,山东省,烟台市,芝罘区
370611,370600,福山区,3,FU_SHAN_QU,F,山东省,烟台市,福山区
370612,370600,牟平区,3,MOU_PING_QU,M,山东省,烟台市,牟平区
370681,370600,龙口市,3,LONG_KOU_SHI,L,山东省,烟台市,龙口市
370682,370600,莱阳市,3,LAI_YANG_SHI,L,山东省,烟台市,莱阳市
370683,370600,莱州市,3,LAI_ZHOU_SHI,L,山东省,烟台市,莱州市
370684,370600,蓬莱市,3,PENG_LAI_SHI,P,山东省,烟台市,蓬莱市
370685,370600,招远市,3,ZHAO_YUAN_SHI,Z,山东省,烟台市,招远市
370686,370600,栖霞市,3,QI_XIA_SHI,Q,山东省,烟台市,栖霞市
370687,370600,海阳市,3,HAI_YANG_SHI,H,山东省,烟台市,海阳市
370634,370600,长岛县,3,ZHANG_DAO_XIAN,Z,山东省,烟台市,长岛县
370700,370000,潍坊市,2,WEI_FANG_SHI,W,山东省,潍坊市,
370705,370700,奎文区,3,KUI_WEN_QU,K,山东省,潍坊市,奎文区
370702,370700,潍城区,3,WEI_CHENG_QU,W,山东省,潍坊市,潍城区
370703,370700,寒亭区,3,HAN_TING_QU,H,山东省,潍坊市,寒亭区
370704,370700,坊子区,3,FANG_ZI_QU,F,山东省,潍坊市,坊子区
370781,370700,青州市,3,QING_ZHOU_SHI,Q,山东省,潍坊市,青州市
370782,370700,诸城市,3,ZHU_CHENG_SHI,Z,山东省,潍坊市,诸城市
370783,370700,寿光市,3,SHOU_GUANG_SHI,S,山东省,潍坊市,寿光市
370784,370700,安丘市,3,AN_QIU_SHI,A,山东省,潍坊市,安丘市
370785,370700,高密市,3,GAO_MI_SHI,G,山东省,潍坊市,高密市
370786,370700,昌邑市,3,CHANG_YI_SHI,C,山东省,潍坊市,昌邑市
370724,370700,临朐县,3,LIN_QU_XIAN,L,山东省,潍坊市,临朐县
370725,370700,昌乐县,3,CHANG_LE_XIAN,C,山东省,潍坊市,昌乐县
370800,370000,济宁市,2,JI_NING_SHI,J,山东省,济宁市,
370811,370800,任城区,3,REN_CHENG_QU,R,山东省,济宁市,任城区
370812,370800,兖州区,3,YAN_ZHOU_QU,Y,山东省,济宁市,兖州区
370881,370800,曲阜市,3,QU_FU_SHI,Q,山东省,济宁市,曲阜市
370883,370800,邹城市,3,ZOU_CHENG_SHI,Z,山东省,济宁市,邹城市
370826,370800,微山县,3,WEI_SHAN_XIAN,W,山东省,济宁市,微山县
370827,370800,鱼台县,3,YU_TAI_XIAN,Y,山东省,济宁市,鱼台县
370828,370800,金乡县,3,JIN_XIANG_XIAN,J,山东省,济宁市,金乡县
370829,370800,嘉祥县,3,JIA_XIANG_XIAN,J,山东省,济宁市,嘉祥县
370830,370800,汶上县,3,WEN_SHANG_XIAN,W,山东省,济宁市,汶上县
370831,370800,泗水县,3,SI_SHUI_XIAN,S,山东省,济宁市,泗水县
370832,370800,梁山县,3,LIANG_SHAN_XIAN,L,山东省,济宁市,梁山县
370900,370000,泰安市,2,TAI_AN_SHI,T,山东省,泰安市,
370902,370900,泰山区,3,TAI_SHAN_QU,T,山东省,泰安市,泰山区
370911,370900,岱岳区,3,DAI_YUE_QU,D,山东省,泰安市,岱岳区
370982,370900,新泰市,3,XIN_TAI_SHI,X,山东省,泰安市,新泰市
370983,370900,肥城市,3,FEI_CHENG_SHI,F,山东省,泰安市,肥城市
370921,370900,宁阳县,3,NING_YANG_XIAN,N,山东省,泰安市,宁阳县
370923,370900,东平县,3,DONG_PING_XIAN,D,山东省,泰安市,东平县
371000,370000,威海市,2,WEI_HAI_SHI,W,山东省,威海市,
371002,371000,环翠区,3,HUAN_CUI_QU,H,山东省,威海市,环翠区
371003,371000,文登区,3,WEN_DENG_QU,W,山东省,威海市,文登区
371082,371000,荣成市,3,RONG_CHENG_SHI,R,山东省,威海市,荣成市
371083,371000,乳山市,3,RU_SHAN_SHI,R,山东省,威海市,乳山市
371100,370000,日照市,2,RI_ZHAO_SHI,R,山东省,日照市,
371102,371100,东港区,3,DONG_GANG_QU,D,山东省,日照市,东港区
371103,371100,岚山区,3,LAN_SHAN_QU,L,山东省,日照市,岚山区
371121,371100,五莲县,3,WU_LIAN_XIAN,W,山东省,日照市,五莲县
371122,371100,莒县,3,JU_XIAN,J,山东省,日照市,莒县
371200,370000,莱芜市,2,LAI_WU_SHI,L,山东省,莱芜市,
371202,371200,莱城区,3,LAI_CHENG_QU,L,山东省,莱芜市,莱城区
371203,371200,钢城区,3,GANG_CHENG_QU,G,山东省,莱芜市,钢城区
371300,370000,临沂市,2,LIN_YI_SHI,L,山东省,临沂市,
371302,371300,兰山区,3,LAN_SHAN_QU,L,山东省,临沂市,兰山区
371311,371300,罗庄区,3,LUO_ZHUANG_QU,L,山东省,临沂市,罗庄区
371312,371300,河东区,3,HE_DONG_QU,H,山东省,临沂市,河东区
371321,371300,沂南县,3,YI_NAN_XIAN,Y,山东省,临沂市,沂南县
371322,371300,郯城县,3,TAN_CHENG_XIAN,T,山东省,临沂市,郯城县
371323,371300,沂水县,3,YI_SHUI_XIAN,Y,山东省,临沂市,沂水县
371324,371300,兰陵县,3,LAN_LING_XIAN,L,山东省,临沂市,兰陵县
371325,371300,费县,3,FEI_XIAN,F,山东省,临沂市,费县
371326,371300,平邑县,3,PING_YI_XIAN,P,山东省,临沂市,平邑县
371327,371300,莒南县,3,JU_NAN_XIAN,J,山东省,临沂市,莒南县
371328,371300,蒙阴县,3,MENG_YIN_XIAN,M,山东省,临沂市,蒙阴县
371329,371300,临沭县,3,LIN_SHU_XIAN,L,山东省,临沂市,临沭县
371400,370000,德州市,2,DE_ZHOU_SHI,D,山东省,德州市,
371402,371400,德城区,3,DE_CHENG_QU,D,山东省,德州市,德城区
371403,371400,陵城区,3,LING_CHENG_QU,L,山东省,德州市,陵城区
371481,371400,乐陵市,3,LE_LING_SHI,L,山东省,德州市,乐陵市
371482,371400,禹城市,3,YU_CHENG_SHI,Y,山东省,德州市,禹城市
371422,371400,宁津县,3,NING_JIN_XIAN,N,山东省,德州市,宁津县
371423,371400,庆云县,3,QING_YUN_XIAN,Q,山东省,德州市,庆云县
371424,371400,临邑县,3,LIN_YI_XIAN,L,山东省,德州市,临邑县
371425,371400,齐河县,3,QI_HE_XIAN,Q,山东省,德州市,齐河县
371426,371400,平原县,3,PING_YUAN_XIAN,P,山东省,德州市,平原县
371427,371400,夏津县,3,XIA_JIN_XIAN,X,山东省,德州市,夏津县
371428,371400,武城县,3,WU_CHENG_XIAN,W,山东省,德州市,武城县
371500,370000,聊城市,2,LIAO_CHENG_SHI,L,山东省,聊城市,
371502,371500,东昌府区,3,DONG_CHANG_FU_QU,D,山东省,聊城市,东昌府区
371581,371500,临清市,3,LIN_QING_SHI,L,山东省,聊城市,临清市
371521,371500,阳谷县,3,YANG_GU_XIAN,Y,山东省,聊城市,阳谷县
371522,371500,莘县,3,XIN_XIAN,X,山东省,聊城市,莘县
371523,371500,茌平县,3,CHI_PING_XIAN,C,山东省,聊城市,茌平县
371524,371500,东阿县,3,DONG_A_XIAN,D,山东省,聊城市,东阿县
371525,371500,冠县,3,GUAN_XIAN,G,山东省,聊城市,冠县
371526,371500,高唐县,3,GAO_TANG_XIAN,G,山东省,聊城市,高唐县
371600,370000,滨州市,2,BIN_ZHOU_SHI,B,山东省,滨州市,
371602,371600,滨城区,3,BIN_CHENG_QU,B,山东省,滨州市,滨城区
371603,371600,沾化区,3,ZHAN_HUA_QU,Z,山东省,滨州市,沾化区
371621,371600,惠民县,3,HUI_MIN_XIAN,H,山东省,滨州市,惠民县
371622,371600,阳信县,3,YANG_XIN_XIAN,Y,山东省,滨州市,阳信县
371623,371600,无棣县,3,WU_DI_XIAN,W,山东省,滨州市,无棣县
371625,371600,博兴县,3,BO_XING_XIAN,B,山东省,滨州市,博兴县
371626,371600,邹平县,3,ZOU_PING_XIAN,Z,山东省,滨州市,邹平县
371700,370000,菏泽市,2,HE_ZE_SHI,H,山东省,菏泽市,
371702,371700,牡丹区,3,MU_DAN_QU,M,山东省,菏泽市,牡丹区
371703,371700,定陶区,3,DING_TAO_QU,D,山东省,菏泽市,定陶区
371721,371700,曹县,3,CAO_XIAN,C,山东省,菏泽市,曹县
371722,371700,单县,3,DAN_XIAN,D,山东省,菏泽市,单县
371723,371700,成武县,3,CHENG_WU_XIAN,C,山东省,菏泽市,成武县
371724,371700,巨野县,3,JU_YE_XIAN,J,山东省,菏泽市,巨野县
371725,371700,郓城县,3,YUN_CHENG_XIAN,Y,山东省,菏泽市,郓城县
371726,371700,鄄城县,3,JUAN_CHENG_XIAN,J,山东省,菏泽市,鄄城县
371728,371700,东明县,3,DONG_MING_XIAN,D,山东省,菏泽市,东明县
410000,100000,河南省,1,HE_NAN_SHENG,H,河南省,,
410100,410000,郑州市,2,ZHENG_ZHOU_SHI,Z,河南省,郑州市,
410102,410100,中原区,3,ZHONG_YUAN_QU,Z,河南省,郑州市,中原区
410103,410100,二七区,3,ER_QI_QU,E,河南省,郑州市,二七区
410104,410100,管城回族区,3,GUAN_CHENG_HUI_ZU_QU,G,河南省,郑州市,管城回族区
410105,410100,金水区,3,JIN_SHUI_QU,J,河南省,郑州市,金水区
410106,410100,上街区,3,SHANG_JIE_QU,S,河南省,郑州市,上街区
410108,410100,惠济区,3,HUI_JI_QU,H,河南省,郑州市,惠济区
410181,410100,巩义市,3,GONG_YI_SHI,G,河南省,郑州市,巩义市
410182,410100,荥阳市,3,YING_YANG_SHI,Y,河南省,郑州市,荥阳市
410183,410100,新密市,3,XIN_MI_SHI,X,河南省,郑州市,新密市
410184,410100,新郑市,3,XIN_ZHENG_SHI,X,河南省,郑州市,新郑市
410185,410100,登封市,3,DENG_FENG_SHI,D,河南省,郑州市,登封市
410122,410100,中牟县,3,ZHONG_MOU_XIAN,Z,河南省,郑州市,中牟县
410200,410000,开封市,2,KAI_FENG_SHI,K,河南省,开封市,
410204,410200,鼓楼区,3,GU_LOU_QU,G,河南省,开封市,鼓楼区
410202,410200,龙亭区,3,LONG_TING_QU,L,河南省,开封市,龙亭区
410203,410200,顺河回族区,3,SHUN_HE_HUI_ZU_QU,S,河南省,开封市,顺河回族区
410205,410200,禹王台区,3,YU_WANG_TAI_QU,Y,河南省,开封市,禹王台区
410212,410200,祥符区,3,XIANG_FU_QU,X,河南省,开封市,祥符区
410221,410200,杞县,3,QI_XIAN,Q,河南省,开封市,杞县
410222,410200,通许县,3,TONG_XU_XIAN,T,河南省,开封市,通许县
410223,410200,尉氏县,3,WEI_SHI_XIAN,W,河南省,开封市,尉氏县
410225,410200,兰考县,3,LAN_KAO_XIAN,L,河南省,开封市,兰考县
410300,410000,洛阳市,2,LUO_YANG_SHI,L,河南省,洛阳市,
410303,410300,西工区,3,XI_GONG_QU,X,河南省,洛阳市,西工区
410302,410300,老城区,3,LAO_CHENG_QU,L,河南省,洛阳市,老城区
410304,410300,瀍河回族区,3,CHAN_HE_HUI_ZU_QU,C,河南省,洛阳市,瀍河回族区
410305,410300,涧西区,3,JIAN_XI_QU,J,河南省,洛阳市,涧西区
410306,410300,吉利区,3,JI_LI_QU,J,河南省,洛阳市,吉利区
410311,410300,洛龙区,3,LUO_LONG_QU,L,河南省,洛阳市,洛龙区
410381,410300,偃师市,3,YAN_SHI_SHI,Y,河南省,洛阳市,偃师市
410322,410300,孟津县,3,MENG_JIN_XIAN,M,河南省,洛阳市,孟津县
410323,410300,新安县,3,XIN_AN_XIAN,X,河南省,洛阳市,新安县
410324,410300,栾川县,3,LUAN_CHUAN_XIAN,L,河南省,洛阳市,栾川县
410325,410300,嵩县,3,SONG_XIAN,S,河南省,洛阳市,嵩县
410326,410300,汝阳县,3,RU_YANG_XIAN,R,河南省,洛阳市,汝阳县
410327,410300,宜阳县,3,YI_YANG_XIAN,Y,河南省,洛阳市,宜阳县
410328,410300,洛宁县,3,LUO_NING_XIAN,L,河南省,洛阳市,洛宁县
410329,410300,伊川县,3,YI_CHUAN_XIAN,Y,河南省,洛阳市,伊川县
410400,410000,平顶山市,2,PING_DING_SHAN_SHI,P,河南省,平顶山市,
410402,410400,新华区,3,XIN_HUA_QU,X,河南省,平顶山市,新华区
410403,410400,卫东区,3,WEI_DONG_QU,W,河南省,平顶山市,卫东区
410404,410400,石龙区,3,SHI_LONG_QU,S,河南省,平顶山市,石龙区
410411,410400,湛河区,3,ZHAN_HE_QU,Z,河南省,平顶山市,湛河区
410481,410400,舞钢市,3,WU_GANG_SHI,W,河南省,平顶山市,舞钢市
410482,410400,汝州市,3,RU_ZHOU_SHI,R,河南省,平顶山市,汝州市
410421,410400,宝丰县,3,BAO_FENG_XIAN,B,河南省,平顶山市,宝丰县
410422,410400,叶县,3,YE_XIAN,Y,河南省,平顶山市,叶县
410423,410400,鲁山县,3,LU_SHAN_XIAN,L,河南省,平顶山市,鲁山县
410425,410400,郏县,3,JIA_XIAN,J,河南省,平顶山市,郏县
410500,410000,安阳市,2,AN_YANG_SHI,A,河南省,安阳市,
410503,410500,北关区,3,BEI_GUAN_QU,B,河南省,安阳市,北关区
410502,410500,文峰区,3,WEN_FENG_QU,W,河南省,安阳市,文峰区
410505,410500,殷都区,3,YIN_DOU_QU,Y,河南省,安阳市,殷都区
410506,410500,龙安区,3,LONG_AN_QU,L,河南省,安阳市,龙安区
410581,410500,林州市,3,LIN_ZHOU_SHI,L,河南省,安阳市,林州市
410522,410500,安阳县,3,AN_YANG_XIAN,A,河南省,安阳市,安阳县
410523,410500,汤阴县,3,TANG_YIN_XIAN,T,河南省,安阳市,汤阴县
410526,410500,滑县,3,HUA_XIAN,H,河南省,安阳市,滑县
410527,410500,内黄县,3,NEI_HUANG_XIAN,N,河南省,安阳市,内黄县
410600,410000,鹤壁市,2,HE_BI_SHI,H,河南省,鹤壁市,
410611,410600,淇滨区,3,QI_BIN_QU,Q,河南省,鹤壁市,淇滨区
410602,410600,鹤山区,3,HE_SHAN_QU,H,河南省,鹤壁市,鹤山区
410603,410600,山城区,3,SHAN_CHENG_QU,S,河南省,鹤壁市,山城区
410621,410600,浚县,3,JUN_XIAN,J,河南省,鹤壁市,浚县
410622,410600,淇县,3,QI_XIAN,Q,河南省,鹤壁市,淇县
410700,410000,新乡市,2,XIN_XIANG_SHI,X,河南省,新乡市,
410703,410700,卫滨区,3,WEI_BIN_QU,W,河南省,新乡市,卫滨区
410702,410700,红旗区,3,HONG_QI_QU,H,河南省,新乡市,红旗区
410704,410700,凤泉区,3,FENG_QUAN_QU,F,河南省,新乡市,凤泉区
410711,410700,牧野区,3,MU_YE_QU,M,河南省,新乡市,牧野区
410781,410700,卫辉市,3,WEI_HUI_SHI,W,河南省,新乡市,卫辉市
410782,410700,辉县市,3,HUI_XIAN_SHI,H,河南省,新乡市,辉县市
410721,410700,新乡县,3,XIN_XIANG_XIAN,X,河南省,新乡市,新乡县
410724,410700,获嘉县,3,HUO_JIA_XIAN,H,河南省,新乡市,获嘉县
410725,410700,原阳县,3,YUAN_YANG_XIAN,Y,河南省,新乡市,原阳县
410726,410700,延津县,3,YAN_JIN_XIAN,Y,河南省,新乡市,延津县
410727,410700,封丘县,3,FENG_QIU_XIAN,F,河南省,新乡市,封丘县
410728,410700,长垣县,3,ZHANG_YUAN_XIAN,Z,河南省,新乡市,长垣县
410800,410000,焦作市,2,JIAO_ZUO_SHI,J,河南省,焦作市,
410802,410800,解放区,3,JIE_FANG_QU,J,河南省,焦作市,解放区
410803,410800,中站区,3,ZHONG_ZHAN_QU,Z,河南省,焦作市,中站区
410804,410800,马村区,3,MA_CUN_QU,M,河南省,焦作市,马村区
410811,410800,山阳区,3,SHAN_YANG_QU,S,河南省,焦作市,山阳区
410882,410800,沁阳市,3,QIN_YANG_SHI,Q,河南省,焦作市,沁阳市
410883,410800,孟州市,3,MENG_ZHOU_SHI,M,河南省,焦作市,孟州市
410821,410800,修武县,3,XIU_WU_XIAN,X,河南省,焦作市,修武县
410822,410800,博爱县,3,BO_AI_XIAN,B,河南省,焦作市,博爱县
410823,410800,武陟县,3,WU_ZHI_XIAN,W,河南省,焦作市,武陟县
410825,410800,温县,3,WEN_XIAN,W,河南省,焦作市,温县
410900,410000,濮阳市,2,PU_YANG_SHI,P,河南省,濮阳市,
410902,410900,华龙区,3,HUA_LONG_QU,H,河南省,濮阳市,华龙区
410922,410900,清丰县,3,QING_FENG_XIAN,Q,河南省,濮阳市,清丰县
410923,410900,南乐县,3,NAN_LE_XIAN,N,河南省,濮阳市,南乐县
410926,410900,范县,3,FAN_XIAN,F,河南省,濮阳市,范县
410927,410900,台前县,3,TAI_QIAN_XIAN,T,河南省,濮阳市,台前县
410928,410900,濮阳县,3,PU_YANG_XIAN,P,河南省,濮阳市,濮阳县
411000,410000,许昌市,2,XU_CHANG_SHI,X,河南省,许昌市,
411002,411000,魏都区,3,WEI_DOU_QU,W,河南省,许昌市,魏都区
411003,411000,建安区,3,JIAN_AN_QU,J,河南省,许昌市,建安区
411081,411000,禹州市,3,YU_ZHOU_SHI,Y,河南省,许昌市,禹州市
411082,411000,长葛市,3,ZHANG_GE_SHI,Z,河南省,许昌市,长葛市
411024,411000,鄢陵县,3,YAN_LING_XIAN,Y,河南省,许昌市,鄢陵县
411025,411000,襄城县,3,XIANG_CHENG_XIAN,X,河南省,许昌市,襄城县
411100,410000,漯河市,2,LUO_HE_SHI,L,河南省,漯河市,
411103,411100,郾城区,3,YAN_CHENG_QU,Y,河南省,漯河市,郾城区
411102,411100,源汇区,3,YUAN_HUI_QU,Y,河南省,漯河市,源汇区
411104,411100,召陵区,3,ZHAO_LING_QU,Z,河南省,漯河市,召陵区
411121,411100,舞阳县,3,WU_YANG_XIAN,W,河南省,漯河市,舞阳县
411122,411100,临颍县,3,LIN_YING_XIAN,L,河南省,漯河市,临颍县
411200,410000,三门峡市,2,SAN_MEN_XIA_SHI,S,河南省,三门峡市,
411202,411200,湖滨区,3,HU_BIN_QU,H,河南省,三门峡市,湖滨区
411203,411200,陕州区,3,SHAN_ZHOU_QU,S,河南省,三门峡市,陕州区
411281,411200,义马市,3,YI_MA_SHI,Y,河南省,三门峡市,义马市
411282,411200,灵宝市,3,LING_BAO_SHI,L,河南省,三门峡市,灵宝市
411221,411200,渑池县,3,MIAN_CHI_XIAN,M,河南省,三门峡市,渑池县
411224,411200,卢氏县,3,LU_SHI_XIAN,L,河南省,三门峡市,卢氏县
411300,410000,南阳市,2,NAN_YANG_SHI,N,河南省,南阳市,
411303,411300,卧龙区,3,WO_LONG_QU,W,河南省,南阳市,卧龙区
411302,411300,宛城区,3,WAN_CHENG_QU,W,河南省,南阳市,宛城区
411381,411300,邓州市,3,DENG_ZHOU_SHI,D,河南省,南阳市,邓州市
411321,411300,南召县,3,NAN_ZHAO_XIAN,N,河南省,南阳市,南召县
411322,411300,方城县,3,FANG_CHENG_XIAN,F,河南省,南阳市,方城县
411323,411300,西峡县,3,XI_XIA_XIAN,X,河南省,南阳市,西峡县
411324,411300,镇平县,3,ZHEN_PING_XIAN,Z,河南省,南阳市,镇平县
411325,411300,内乡县,3,NEI_XIANG_XIAN,N,河南省,南阳市,内乡县
411326,411300,淅川县,3,XI_CHUAN_XIAN,X,河南省,南阳市,淅川县
411327,411300,社旗县,3,SHE_QI_XIAN,S,河南省,南阳市,社旗县
411328,411300,唐河县,3,TANG_HE_XIAN,T,河南省,南阳市,唐河县
411329,411300,新野县,3,XIN_YE_XIAN,X,河南省,南阳市,新野县
411330,411300,桐柏县,3,TONG_BO_XIAN,T,河南省,南阳市,桐柏县
411400,410000,商丘市,2,SHANG_QIU_SHI,S,河南省,商丘市,
411402,411400,梁园区,3,LIANG_YUAN_QU,L,河南省,商丘市,梁园区
411403,411400,睢阳区,3,SUI_YANG_QU,S,河南省,商丘市,睢阳区
411481,411400,永城市,3,YONG_CHENG_SHI,Y,河南省,商丘市,永城市
411421,411400,民权县,3,MIN_QUAN_XIAN,M,河南省,商丘市,民权县
411422,411400,睢县,3,SUI_XIAN,S,河南省,商丘市,睢县
411423,411400,宁陵县,3,NING_LING_XIAN,N,河南省,商丘市,宁陵县
411424,411400,柘城县,3,ZHE_CHENG_XIAN,Z,河南省,商丘市,柘城县
411425,411400,虞城县,3,YU_CHENG_XIAN,Y,河南省,商丘市,虞城县
411426,411400,夏邑县,3,XIA_YI_XIAN,X,河南省,商丘市,夏邑县
411500,410000,信阳市,2,XIN_YANG_SHI,X,河南省,信阳市,
411502,411500,浉河区,3,SHI_HE_QU,S,河南省,信阳市,浉河区
411503,411500,平桥区,3,PING_QIAO_QU,P,河南省,信阳市,平桥区
411521,411500,罗山县,3,LUO_SHAN_XIAN,L,河南省,信阳市,罗山县
411522,411500,光山县,3,GUANG_SHAN_XIAN,G,河南省,信阳市,光山县
411523,411500,新县,3,XIN_XIAN,X,河南省,信阳市,新县
411524,411500,商城县,3,SHANG_CHENG_XIAN,S,河南省,信阳市,商城县
411525,411500,固始县,3,GU_SHI_XIAN,G,河南省,信阳市,固始县
411526,411500,潢川县,3,HUANG_CHUAN_XIAN,H,河南省,信阳市,潢川县
411527,411500,淮滨县,3,HUAI_BIN_XIAN,H,河南省,信阳市,淮滨县
411528,411500,息县,3,XI_XIAN,X,河南省,信阳市,息县
411600,410000,周口市,2,ZHOU_KOU_SHI,Z,河南省,周口市,
411602,411600,川汇区,3,CHUAN_HUI_QU,C,河南省,周口市,川汇区
411681,411600,项城市,3,XIANG_CHENG_SHI,X,河南省,周口市,项城市
411621,411600,扶沟县,3,FU_GOU_XIAN,F,河南省,周口市,扶沟县
411622,411600,西华县,3,XI_HUA_XIAN,X,河南省,周口市,西华县
411623,411600,商水县,3,SHANG_SHUI_XIAN,S,河南省,周口市,商水县
411624,411600,沈丘县,3,SHEN_QIU_XIAN,S,河南省,周口市,沈丘县
411625,411600,郸城县,3,DAN_CHENG_XIAN,D,河南省,周口市,郸城县
411626,411600,淮阳县,3,HUAI_YANG_XIAN,H,河南省,周口市,淮阳县
411627,411600,太康县,3,TAI_KANG_XIAN,T,河南省,周口市,太康县
411628,411600,鹿邑县,3,LU_YI_XIAN,L,河南省,周口市,鹿邑县
411700,410000,驻马店市,2,ZHU_MA_DIAN_SHI,Z,河南省,驻马店市,
411702,411700,驿城区,3,YI_CHENG_QU,Y,河南省,驻马店市,驿城区
411721,411700,西平县,3,XI_PING_XIAN,X,河南省,驻马店市,西平县
411722,411700,上蔡县,3,SHANG_CAI_XIAN,S,河南省,驻马店市,上蔡县
411723,411700,平舆县,3,PING_YU_XIAN,P,河南省,驻马店市,平舆县
411724,411700,正阳县,3,ZHENG_YANG_XIAN,Z,河南省,驻马店市,正阳县
411725,411700,确山县,3,QUE_SHAN_XIAN,Q,河南省,驻马店市,确山县
411726,411700,泌阳县,3,MI_YANG_XIAN,M,河南省,驻马店市,泌阳县
411727,411700,汝南县,3,RU_NAN_XIAN,R,河南省,驻马店市,汝南县
411728,411700,遂平县,3,SUI_PING_XIAN,S,河南省,驻马店市,遂平县
411729,411700,新蔡县,3,XIN_CAI_XIAN,X,河南省,驻马店市,新蔡县
419001,,济源市,3,JI_YUAN_SHI,J,河南省,省直辖县级行政单位,济源市
420000,100000,湖北省,1,HU_BEI_SHENG,H,湖北省,,
420100,420000,武汉市,2,WU_HAN_SHI,W,湖北省,武汉市,
420102,420100,江岸区,3,JIANG_AN_QU,J,湖北省,武汉市,江岸区
420103,420100,江汉区,3,JIANG_HAN_QU,J,湖北省,武汉市,江汉区
420104,420100,硚口区,3,QIAO_KOU_QU,Q,湖北省,武汉市,硚口区
420105,420100,汉阳区,3,HAN_YANG_QU,H,湖北省,武汉市,汉阳区
420106,420100,武昌区,3,WU_CHANG_QU,W,湖北省,武汉市,武昌区
420107,420100,青山区,3,QING_SHAN_QU,Q,湖北省,武汉市,青山区
420111,420100,洪山区,3,HONG_SHAN_QU,H,湖北省,武汉市,洪山区
420112,420100,东西湖区,3,DONG_XI_HU_QU,D,湖北省,武汉市,东西湖区
420113,420100,汉南区,3,HAN_NAN_QU,H,湖北省,武汉市,汉南区
420114,420100,蔡甸区,3,CAI_DIAN_QU,C,湖北省,武汉市,蔡甸区
420115,420100,江夏区,3,JIANG_XIA_QU,J,湖北省,武汉市,江夏区
420116,420100,黄陂区,3,HUANG_PO_QU,H,湖北省,武汉市,黄陂区
420117,420100,新洲区,3,XIN_ZHOU_QU,X,湖北省,武汉市,新洲区
420200,420000,黄石市,2,HUANG_SHI_SHI,H,湖北省,黄石市,
420204,420200,下陆区,3,XIA_LU_QU,X,湖北省,黄石市,下陆区
420202,420200,黄石港区,3,HUANG_SHI_GANG_QU,H,湖北省,黄石市,黄石港区
420203,420200,西塞山区,3,XI_SAI_SHAN_QU,X,湖北省,黄石市,西塞山区
420205,420200,铁山区,3,TIE_SHAN_QU,T,湖北省,黄石市,铁山区
420281,420200,大冶市,3,DA_YE_SHI,D,湖北省,黄石市,大冶市
420222,420200,阳新县,3,YANG_XIN_XIAN,Y,湖北省,黄石市,阳新县
420300,420000,十堰市,2,SHI_YAN_SHI,S,湖北省,十堰市,
420302,420300,茅箭区,3,MAO_JIAN_QU,M,湖北省,十堰市,茅箭区
420303,420300,张湾区,3,ZHANG_WAN_QU,Z,湖北省,十堰市,张湾区
420304,420300,郧阳区,3,YUN_YANG_QU,Y,湖北省,十堰市,郧阳区
420381,420300,丹江口市,3,DAN_JIANG_KOU_SHI,D,湖北省,十堰市,丹江口市
420322,420300,郧西县,3,YUN_XI_XIAN,Y,湖北省,十堰市,郧西县
420323,420300,竹山县,3,ZHU_SHAN_XIAN,Z,湖北省,十堰市,竹山县
420324,420300,竹溪县,3,ZHU_XI_XIAN,Z,湖北省,十堰市,竹溪县
420325,420300,房县,3,FANG_XIAN,F,湖北省,十堰市,房县
420500,420000,宜昌市,2,YI_CHANG_SHI,Y,湖北省,宜昌市,
420502,420500,西陵区,3,XI_LING_QU,X,湖北省,宜昌市,西陵区
420503,420500,伍家岗区,3,WU_JIA_GANG_QU,W,湖北省,宜昌市,伍家岗区
420504,420500,点军区,3,DIAN_JUN_QU,D,湖北省,宜昌市,点军区
420505,420500,猇亭区,3,YAO_TING_QU,Y,湖北省,宜昌市,猇亭区
420506,420500,夷陵区,3,YI_LING_QU,Y,湖北省,宜昌市,夷陵区
420581,420500,宜都市,3,YI_DOU_SHI,Y,湖北省,宜昌市,宜都市
420582,420500,当阳市,3,DANG_YANG_SHI,D,湖北省,宜昌市,当阳市
420583,420500,枝江市,3,ZHI_JIANG_SHI,Z,湖北省,宜昌市,枝江市
420525,420500,远安县,3,YUAN_AN_XIAN,Y,湖北省,宜昌市,远安县
420526,420500,兴山县,3,XING_SHAN_XIAN,X,湖北省,宜昌市,兴山县
420527,420500,秭归县,3,ZI_GUI_XIAN,Z,湖北省,宜昌市,秭归县
420528,420500,长阳土家族自治县,3,ZHANG_YANG_TU_JIA_ZU_ZI_ZHI_XIAN,Z,湖北省,宜昌市,长阳土家族自治县
420529,420500,五峰土家族自治县,3,WU_FENG_TU_JIA_ZU_ZI_ZHI_XIAN,W,湖北省,宜昌市,五峰土家族自治县
420600,420000,襄阳市,2,XIANG_YANG_SHI,X,湖北省,襄阳市,
420602,420600,襄城区,3,XIANG_CHENG_QU,X,湖北省,襄阳市,襄城区
420606,420600,樊城区,3,FAN_CHENG_QU,F,湖北省,襄阳市,樊城区
420607,420600,襄州区,3,XIANG_ZHOU_QU,X,湖北省,襄阳市,襄州区
420682,420600,老河口市,3,LAO_HE_KOU_SHI,L,湖北省,襄阳市,老河口市
420683,420600,枣阳市,3,ZAO_YANG_SHI,Z,湖北省,襄阳市,枣阳市
420684,420600,宜城市,3,YI_CHENG_SHI,Y,湖北省,襄阳市,宜城市
420624,420600,南漳县,3,NAN_ZHANG_XIAN,N,湖北省,襄阳市,南漳县
420625,420600,谷城县,3,GU_CHENG_XIAN,G,湖北省,襄阳市,谷城县
420626,420600,保康县,3,BAO_KANG_XIAN,B,湖北省,襄阳市,保康县
420700,420000,鄂州市,2,E_ZHOU_SHI,E,湖北省,鄂州市,
420704,420700,鄂城区,3,E_CHENG_QU,E,湖北省,鄂州市,鄂城区
420702,420700,梁子湖区,3,LIANG_ZI_HU_QU,L,湖北省,鄂州市,梁子湖区
420703,420700,华容区,3,HUA_RONG_QU,H,湖北省,鄂州市,华容区
420800,420000,荆门市,2,JING_MEN_SHI,J,湖北省,荆门市,
420802,420800,东宝区,3,DONG_BAO_QU,D,湖北省,荆门市,东宝区
420804,420800,掇刀区,3,DUO_DAO_QU,D,湖北省,荆门市,掇刀区
420881,420800,钟祥市,3,ZHONG_XIANG_SHI,Z,湖北省,荆门市,钟祥市
420821,420800,京山县,3,JING_SHAN_XIAN,J,湖北省,荆门市,京山县
420822,420800,沙洋县,3,SHA_YANG_XIAN,S,湖北省,荆门市,沙洋县
420900,420000,孝感市,2,XIAO_GAN_SHI,X,湖北省,孝感市,
420902,420900,孝南区,3,XIAO_NAN_QU,X,湖北省,孝感市,孝南区
420981,420900,应城市,3,YING_CHENG_SHI,Y,湖北省,孝感市,应城市
420982,420900,安陆市,3,AN_LU_SHI,A,湖北省,孝感市,安陆市
420984,420900,汉川市,3,HAN_CHUAN_SHI,H,湖北省,孝感市,汉川市
420921,420900,孝昌县,3,XIAO_CHANG_XIAN,X,湖北省,孝感市,孝昌县
420922,420900,大悟县,3,DA_WU_XIAN,D,湖北省,孝感市,大悟县
420923,420900,云梦县,3,YUN_MENG_XIAN,Y,湖北省,孝感市,云梦县
421000,420000,荆州市,2,JING_ZHOU_SHI,J,湖北省,荆州市,
421002,421000,沙市区,3,SHA_SHI_QU,S,湖北省,荆州市,沙市区
421003,421000,荆州区,3,JING_ZHOU_QU,J,湖北省,荆州市,荆州区
421081,421000,石首市,3,SHI_SHOU_SHI,S,湖北省,荆州市,石首市
421083,421000,洪湖市,3,HONG_HU_SHI,H,湖北省,荆州市,洪湖市
421087,421000,松滋市,3,SONG_ZI_SHI,S,湖北省,荆州市,松滋市
421022,421000,公安县,3,GONG_AN_XIAN,G,湖北省,荆州市,公安县
421023,421000,监利县,3,JIAN_LI_XIAN,J,湖北省,荆州市,监利县
421024,421000,江陵县,3,JIANG_LING_XIAN,J,湖北省,荆州市,江陵县
421100,420000,黄冈市,2,HUANG_GANG_SHI,H,湖北省,黄冈市,
421102,421100,黄州区,3,HUANG_ZHOU_QU,H,湖北省,黄冈市,黄州区
421181,421100,麻城市,3,MA_CHENG_SHI,M,湖北省,黄冈市,麻城市
421182,421100,武穴市,3,WU_XUE_SHI,W,湖北省,黄冈市,武穴市
421121,421100,团风县,3,TUAN_FENG_XIAN,T,湖北省,黄冈市,团风县
421122,421100,红安县,3,HONG_AN_XIAN,H,湖北省,黄冈市,红安县
421123,421100,罗田县,3,LUO_TIAN_XIAN,L,湖北省,黄冈市,罗田县
421124,421100,英山县,3,YING_SHAN_XIAN,Y,湖北省,黄冈市,英山县
421125,421100,浠水县,3,XI_SHUI_XIAN,X,湖北省,黄冈市,浠水县
421126,421100,蕲春县,3,QI_CHUN_XIAN,Q,湖北省,黄冈市,蕲春县
421127,421100,黄梅县,3,HUANG_MEI_XIAN,H,湖北省,黄冈市,黄梅县
421200,420000,咸宁市,2,XIAN_NING_SHI,X,湖北省,咸宁市,
421202,421200,咸安区,3,XIAN_AN_QU,X,湖北省,咸宁市,咸安区
421281,421200,赤壁市,3,CHI_BI_SHI,C,湖北省,咸宁市,赤壁市
421221,421200,嘉鱼县,3,JIA_YU_XIAN,J,湖北省,咸宁市,嘉鱼县
421222,421200,通城县,3,TONG_CHENG_XIAN,T,湖北省,咸宁市,通城县
421223,421200,崇阳县,3,CHONG_YANG_XIAN,C,湖北省,咸宁市,崇阳县
421224,421200,通山县,3,TONG_SHAN_XIAN,T,湖北省,咸宁市,通山县
421300,420000,随州市,2,SUI_ZHOU_SHI,S,湖北省,随州市,
421303,421300,曾都区,3,CENG_DOU_QU,C,湖北省,随州市,曾都区
421381,421300,广水市,3,GUANG_SHUI_SHI,G,湖北省,随州市,广水市
421321,421300,随县,3,SUI_XIAN,S,湖北省,随州市,随县
422800,420000,恩施土家族苗族自治州,2,EN_SHI_TU_JIA_ZU_MIAO_ZU_ZI_ZHI_ZHOU,E,湖北省,恩施土家族苗族自治州,
422801,422800,恩施市,3,EN_SHI_SHI,E,湖北省,恩施土家族苗族自治州,恩施市
422802,422800,利川市,3,LI_CHUAN_SHI,L,湖北省,恩施土家族苗族自治州,利川市
422822,422800,建始县,3,JIAN_SHI_XIAN,J,湖北省,恩施土家族苗族自治州,建始县
422823,422800,巴东县,3,BA_DONG_XIAN,B,湖北省,恩施土家族苗族自治州,巴东县
422825,422800,宣恩县,3,XUAN_EN_XIAN,X,湖北省,恩施土家族苗族自治州,宣恩县
422826,422800,咸丰县,3,XIAN_FENG_XIAN,X,湖北省,恩施土家族苗族自治州,咸丰县
422827,422800,来凤县,3,LAI_FENG_XIAN,L,湖北省,恩施土家族苗族自治州,来凤县
422828,422800,鹤峰县,3,HE_FENG_XIAN,H,湖北省,恩施土家族苗族自治州,鹤峰县
429004,,仙桃市,3,XIAN_TAO_SHI,X,湖北省,省直辖县级行政单位,仙桃市
429005,,潜江市,3,QIAN_JIANG_SHI,Q,湖北省,省直辖县级行政单位,潜江市
429006,,天门市,3,TIAN_MEN_SHI,T,湖北省,省直辖县级行政单位,天门市
429021,,神农架林区,3,SHEN_NONG_JIA_LIN_QU,S,湖北省,省直辖县级行政单位,神农架林区
430000,100000,湖南省,1,HU_NAN_SHENG,H,湖南省,,
430100,430000,长沙市,2,ZHANG_SHA_SHI,Z,湖南省,长沙市,
430104,430100,岳麓区,3,YUE_LU_QU,Y,湖南省,长沙市,岳麓区
430102,430100,芙蓉区,3,FU_RONG_QU,F,湖南省,长沙市,芙蓉区
430103,430100,天心区,3,TIAN_XIN_QU,T,湖南省,长沙市,天心区
430105,430100,开福区,3,KAI_FU_QU,K,湖南省,长沙市,开福区
430111,430100,雨花区,3,YU_HUA_QU,Y,湖南省,长沙市,雨花区
430112,430100,望城区,3,WANG_CHENG_QU,W,湖南省,长沙市,望城区
430181,430100,浏阳市,3,LIU_YANG_SHI,L,湖南省,长沙市,浏阳市
430182,430100,宁乡市,3,NING_XIANG_SHI,N,湖南省,长沙市,宁乡市
430121,430100,长沙县,3,ZHANG_SHA_XIAN,Z,湖南省,长沙市,长沙县
430200,430000,株洲市,2,ZHU_ZHOU_SHI,Z,湖南省,株洲市,
430211,430200,天元区,3,TIAN_YUAN_QU,T,湖南省,株洲市,天元区
430202,430200,荷塘区,3,HE_TANG_QU,H,湖南省,株洲市,荷塘区
430203,430200,芦淞区,3,LU_SONG_QU,L,湖南省,株洲市,芦淞区
430204,430200,石峰区,3,SHI_FENG_QU,S,湖南省,株洲市,石峰区
430281,430200,醴陵市,3,LI_LING_SHI,L,湖南省,株洲市,醴陵市
430221,430200,株洲县,3,ZHU_ZHOU_XIAN,Z,湖南省,株洲市,株洲县
430223,430200,攸县,3,YOU_XIAN,Y,湖南省,株洲市,攸县
430224,430200,茶陵县,3,CHA_LING_XIAN,C,湖南省,株洲市,茶陵县
430225,430200,炎陵县,3,YAN_LING_XIAN,Y,湖南省,株洲市,炎陵县
430300,430000,湘潭市,2,XIANG_TAN_SHI,X,湖南省,湘潭市,
430304,430300,岳塘区,3,YUE_TANG_QU,Y,湖南省,湘潭市,岳塘区
430302,430300,雨湖区,3,YU_HU_QU,Y,湖南省,湘潭市,雨湖区
430381,430300,湘乡市,3,XIANG_XIANG_SHI,X,湖南省,湘潭市,湘乡市
430382,430300,韶山市,3,SHAO_SHAN_SHI,S,湖南省,湘潭市,韶山市
430321,430300,湘潭县,3,XIANG_TAN_XIAN,X,湖南省,湘潭市,湘潭县
430400,430000,衡阳市,2,HENG_YANG_SHI,H,湖南省,衡阳市,
430408,430400,蒸湘区,3,ZHENG_XIANG_QU,Z,湖南省,衡阳市,蒸湘区
430405,430400,珠晖区,3,ZHU_HUI_QU,Z,湖南省,衡阳市,珠晖区
430406,430400,雁峰区,3,YAN_FENG_QU,Y,湖南省,衡阳市,雁峰区
430407,430400,石鼓区,3,SHI_GU_QU,S,湖南省,衡阳市,石鼓区
430412,430400,南岳区,3,NAN_YUE_QU,N,湖南省,衡阳市,南岳区
430481,430400,耒阳市,3,LEI_YANG_SHI,L,湖南省,衡阳市,耒阳市
430482,430400,常宁市,3,CHANG_NING_SHI,C,湖南省,衡阳市,常宁市
430421,430400,衡阳县,3,HENG_YANG_XIAN,H,湖南省,衡阳市,衡阳县
430422,430400,衡南县,3,HENG_NAN_XIAN,H,湖南省,衡阳市,衡南县
430423,430400,衡山县,3,HENG_SHAN_XIAN,H,湖南省,衡阳市,衡山县
430424,430400,衡东县,3,HENG_DONG_XIAN,H,湖南省,衡阳市,衡东县
430426,430400,祁东县,3,QI_DONG_XIAN,Q,湖南省,衡阳市,祁东县
430500,430000,邵阳市,2,SHAO_YANG_SHI,S,湖南省,邵阳市,
430503,430500,大祥区,3,DA_XIANG_QU,D,湖南省,邵阳市,大祥区
430502,430500,双清区,3,SHUANG_QING_QU,S,湖南省,邵阳市,双清区
430511,430500,北塔区,3,BEI_TA_QU,B,湖南省,邵阳市,北塔区
430581,430500,武冈市,3,WU_GANG_SHI,W,湖南省,邵阳市,武冈市
430521,430500,邵东县,3,SHAO_DONG_XIAN,S,湖南省,邵阳市,邵东县
430522,430500,新邵县,3,XIN_SHAO_XIAN,X,湖南省,邵阳市,新邵县
430523,430500,邵阳县,3,SHAO_YANG_XIAN,S,湖南省,邵阳市,邵阳县
430524,430500,隆回县,3,LONG_HUI_XIAN,L,湖南省,邵阳市,隆回县
430525,430500,洞口县,3,DONG_KOU_XIAN,D,湖南省,邵阳市,洞口县
430527,430500,绥宁县,3,SUI_NING_XIAN,S,湖南省,邵阳市,绥宁县
430528,430500,新宁县,3,XIN_NING_XIAN,X,湖南省,邵阳市,新宁县
430529,430500,城步苗族自治县,3,CHENG_BU_MIAO_ZU_ZI_ZHI_XIAN,C,湖南省,邵阳市,城步苗族自治县
430600,430000,岳阳市,2,YUE_YANG_SHI,Y,湖南省,岳阳市,
430602,430600,岳阳楼区,3,YUE_YANG_LOU_QU,Y,湖南省,岳阳市,岳阳楼区
430603,430600,云溪区,3,YUN_XI_QU,Y,湖南省,岳阳市,云溪区
430611,430600,君山区,3,JUN_SHAN_QU,J,湖南省,岳阳市,君山区
430681,430600,汨罗市,3,MI_LUO_SHI,M,湖南省,岳阳市,汨罗市
430682,430600,临湘市,3,LIN_XIANG_SHI,L,湖南省,岳阳市,临湘市
430621,430600,岳阳县,3,YUE_YANG_XIAN,Y,湖南省,岳阳市,岳阳县
430623,430600,华容县,3,HUA_RONG_XIAN,H,湖南省,岳阳市,华容县
430624,430600,湘阴县,3,XIANG_YIN_XIAN,X,湖南省,岳阳市,湘阴县
430626,430600,平江县,3,PING_JIANG_XIAN,P,湖南省,岳阳市,平江县
430700,430000,常德市,2,CHANG_DE_SHI,C,湖南省,常德市,
430702,430700,武陵区,3,WU_LING_QU,W,湖南省,常德市,武陵区
430703,430700,鼎城区,3,DING_CHENG_QU,D,湖南省,常德市,鼎城区
430781,430700,津市市,3,JIN_SHI_SHI,J,湖南省,常德市,津市市
430721,430700,安乡县,3,AN_XIANG_XIAN,A,湖南省,常德市,安乡县
430722,430700,汉寿县,3,HAN_SHOU_XIAN,H,湖南省,常德市,汉寿县
430723,430700,澧县,3,LI_XIAN,L,湖南省,常德市,澧县
430724,430700,临澧县,3,LIN_LI_XIAN,L,湖南省,常德市,临澧县
430725,430700,桃源县,3,TAO_YUAN_XIAN,T,湖南省,常德市,桃源县
430726,430700,石门县,3,SHI_MEN_XIAN,S,湖南省,常德市,石门县
430800,430000,张家界市,2,ZHANG_JIA_JIE_SHI,Z,湖南省,张家界市,
430802,430800,永定区,3,YONG_DING_QU,Y,湖南省,张家界市,永定区
430811,430800,武陵源区,3,WU_LING_YUAN_QU,W,湖南省,张家界市,武陵源区
430821,430800,慈利县,3,CI_LI_XIAN,C,湖南省,张家界市,慈利县
430822,430800,桑植县,3,SANG_ZHI_XIAN,S,湖南省,张家界市,桑植县
430900,430000,益阳市,2,YI_YANG_SHI,Y,湖南省,益阳市,
430903,430900,赫山区,3,HE_SHAN_QU,H,湖南省,益阳市,赫山区
430902,430900,资阳区,3,ZI_YANG_QU,Z,湖南省,益阳市,资阳区
430981,430900,沅江市,3,YUAN_JIANG_SHI,Y,湖南省,益阳市,沅江市
430921,430900,南县,3,NAN_XIAN,N,湖南省,益阳市,南县
430922,430900,桃江县,3,TAO_JIANG_XIAN,T,湖南省,益阳市,桃江县
430923,430900,安化县,3,AN_HUA_XIAN,A,湖南省,益阳市,安化县
431000,430000,郴州市,2,CHEN_ZHOU_SHI,C,湖南省,郴州市,
431002,431000,北湖区,3,BEI_HU_QU,B,湖南省,郴州市,北湖区
431003,431000,苏仙区,3,SU_XIAN_QU,S,湖南省,郴州市,苏仙区
431081,431000,资兴市,3,ZI_XING_SHI,Z,湖南省,郴州市,资兴市
431021,431000,桂阳县,3,GUI_YANG_XIAN,G,湖南省,郴州市,桂阳县
431022,431000,宜章县,3,YI_ZHANG_XIAN,Y,湖南省,郴州市,宜章县
431023,431000,永兴县,3,YONG_XING_XIAN,Y,湖南省,郴州市,永兴县
431024,431000,嘉禾县,3,JIA_HE_XIAN,J,湖南省,郴州市,嘉禾县
431025,431000,临武县,3,LIN_WU_XIAN,L,湖南省,郴州市,临武县
431026,431000,汝城县,3,RU_CHENG_XIAN,R,湖南省,郴州市,汝城县
431027,431000,桂东县,3,GUI_DONG_XIAN,G,湖南省,郴州市,桂东县
431028,431000,安仁县,3,AN_REN_XIAN,A,湖南省,郴州市,安仁县
431100,430000,永州市,2,YONG_ZHOU_SHI,Y,湖南省,永州市,
431103,431100,冷水滩区,3,LENG_SHUI_TAN_QU,L,湖南省,永州市,冷水滩区
431102,431100,零陵区,3,LING_LING_QU,L,湖南省,永州市,零陵区
431121,431100,祁阳县,3,QI_YANG_XIAN,Q,湖南省,永州市,祁阳县
431122,431100,东安县,3,DONG_AN_XIAN,D,湖南省,永州市,东安县
431123,431100,双牌县,3,SHUANG_PAI_XIAN,S,湖南省,永州市,双牌县
431124,431100,道县,3,DAO_XIAN,D,湖南省,永州市,道县
431125,431100,江永县,3,JIANG_YONG_XIAN,J,湖南省,永州市,江永县
431126,431100,宁远县,3,NING_YUAN_XIAN,N,湖南省,永州市,宁远县
431127,431100,蓝山县,3,LAN_SHAN_XIAN,L,湖南省,永州市,蓝山县
431128,431100,新田县,3,XIN_TIAN_XIAN,X,湖南省,永州市,新田县
431129,431100,江华瑶族自治县,3,JIANG_HUA_YAO_ZU_ZI_ZHI_XIAN,J,湖南省,永州市,江华瑶族自治县
431200,430000,怀化市,2,HUAI_HUA_SHI,H,湖南省,怀化市,
431202,431200,鹤城区,3,HE_CHENG_QU,H,湖南省,怀化市,鹤城区
431281,431200,洪江市,3,HONG_JIANG_SHI,H,湖南省,怀化市,洪江市
431221,431200,中方县,3,ZHONG_FANG_XIAN,Z,湖南省,怀化市,中方县
431222,431200,沅陵县,3,YUAN_LING_XIAN,Y,湖南省,怀化市,沅陵县
431223,431200,辰溪县,3,CHEN_XI_XIAN,C,湖南省,怀化市,辰溪县
431224,431200,溆浦县,3,XU_PU_XIAN,X,湖南省,怀化市,溆浦县
431225,431200,会同县,3,HUI_TONG_XIAN,H,湖南省,怀化市,会同县
431226,431200,麻阳苗族自治县,3,MA_YANG_MIAO_ZU_ZI_ZHI_XIAN,M,湖南省,怀化市,麻阳苗族自治县
431227,431200,新晃侗族自治县,3,XIN_HUANG_DONG_ZU_ZI_ZHI_XIAN,X,湖南省,怀化市,新晃侗族自治县
431228,431200,芷江侗族自治县,3,ZHI_JIANG_DONG_ZU_ZI_ZHI_XIAN,Z,湖南省,怀化市,芷江侗族自治县
431229,431200,靖州苗族侗族自治县,3,JING_ZHOU_MIAO_ZU_DONG_ZU_ZI_ZHI_XIAN,J,湖南省,怀化市,靖州苗族侗族自治县
431230,431200,通道侗族自治县,3,TONG_DAO_DONG_ZU_ZI_ZHI_XIAN,T,湖南省,怀化市,通道侗族自治县
431300,430000,娄底市,2,LOU_DI_SHI,L,湖南省,娄底市,
431302,431300,娄星区,3,LOU_XING_QU,L,湖南省,娄底市,娄星区
431381,431300,冷水江市,3,LENG_SHUI_JIANG_SHI,L,湖南省,娄底市,冷水江市
431382,431300,涟源市,3,LIAN_YUAN_SHI,L,湖南省,娄底市,涟源市
431321,431300,双峰县,3,SHUANG_FENG_XIAN,S,湖南省,娄底市,双峰县
431322,431300,新化县,3,XIN_HUA_XIAN,X,湖南省,娄底市,新化县
433100,430000,湘西土家族苗族自治州,2,XIANG_XI_TU_JIA_ZU_MIAO_ZU_ZI_ZHI_ZHOU,X,湖南省,湘西土家族苗族自治州,
433101,433100,吉首市,3,JI_SHOU_SHI,J,湖南省,湘西土家族苗族自治州,吉首市
433122,433100,泸溪县,3,LU_XI_XIAN,L,湖南省,湘西土家族苗族自治州,泸溪县
433123,433100,凤凰县,3,FENG_HUANG_XIAN,F,湖南省,湘西土家族苗族自治州,凤凰县
433124,433100,花垣县,3,HUA_YUAN_XIAN,H,湖南省,湘西土家族苗族自治州,花垣县
433125,433100,保靖县,3,BAO_JING_XIAN,B,湖南省,湘西土家族苗族自治州,保靖县
433126,433100,古丈县,3,GU_ZHANG_XIAN,G,湖南省,湘西土家族苗族自治州,古丈县
433127,433100,永顺县,3,YONG_SHUN_XIAN,Y,湖南省,湘西土家族苗族自治州,永顺县
433130,433100,龙山县,3,LONG_SHAN_XIAN,L,湖南省,湘西土家族苗族自治州,龙山县
440000,100000,广东省,1,GUANG_DONG_SHENG,G,广东省,,
440100,440000,广州市,2,GUANG_ZHOU_SHI,G,广东省,广州市,
440104,440100,越秀区,3,YUE_XIU_QU,Y,广东省,广州市,越秀区
440103,440100,荔湾区,3,LI_WAN_QU,L,广东省,广州市,荔湾区
440105,440100,海珠区,3,HAI_ZHU_QU,H,广东省,广州市,海珠区
440106,440100,天河区,3,TIAN_HE_QU,T,广东省,广州市,天河区
440111,440100,白云区,3,BAI_YUN_QU,B,广东省,广州市,白云区
440112,440100,黄埔区,3,HUANG_PU_QU,H,广东省,广州市,黄埔区
440113,440100,番禺区,3,FAN_YU_QU,F,广东省,广州市,番禺区
440114,440100,花都区,3,HUA_DOU_QU,H,广东省,广州市,花都区
440115,440100,南沙区,3,NAN_SHA_QU,N,广东省,广州市,南沙区
440118,440100,增城区,3,ZENG_CHENG_QU,Z,广东省,广州市,增城区
440117,440100,从化区,3,CONG_HUA_QU,C,广东省,广州市,从化区
440200,440000,韶关市,2,SHAO_GUAN_SHI,S,广东省,韶关市,
440204,440200,浈江区,3,ZHEN_JIANG_QU,Z,广东省,韶关市,浈江区
440203,440200,武江区,3,WU_JIANG_QU,W,广东省,韶关市,武江区
440205,440200,曲江区,3,QU_JIANG_QU,Q,广东省,韶关市,曲江区
440281,440200,乐昌市,3,LE_CHANG_SHI,L,广东省,韶关市,乐昌市
440282,440200,南雄市,3,NAN_XIONG_SHI,N,广东省,韶关市,南雄市
440222,440200,始兴县,3,SHI_XING_XIAN,S,广东省,韶关市,始兴县
440224,440200,仁化县,3,REN_HUA_XIAN,R,广东省,韶关市,仁化县
440229,440200,翁源县,3,WENG_YUAN_XIAN,W,广东省,韶关市,翁源县
440233,440200,新丰县,3,XIN_FENG_XIAN,X,广东省,韶关市,新丰县
440232,440200,乳源瑶族自治县,3,RU_YUAN_YAO_ZU_ZI_ZHI_XIAN,R,广东省,韶关市,乳源瑶族自治县
440300,440000,深圳市,2,SHEN_ZHEN_SHI,S,广东省,深圳市,
440304,440300,福田区,3,FU_TIAN_QU,F,广东省,深圳市,福田区
440303,440300,罗湖区,3,LUO_HU_QU,L,广东省,深圳市,罗湖区
440305,440300,南山区,3,NAN_SHAN_QU,N,广东省,深圳市,南山区
440306,440300,宝安区,3,BAO_AN_QU,B,广东省,深圳市,宝安区
440307,440300,龙岗区,3,LONG_GANG_QU,L,广东省,深圳市,龙岗区
440308,440300,盐田区,3,YAN_TIAN_QU,Y,广东省,深圳市,盐田区
440309,440300,龙华区,3,LONG_HUA_QU,L,广东省,深圳市,龙华区
440310,440300,坪山区,3,PING_SHAN_QU,P,广东省,深圳市,坪山区
440400,440000,珠海市,2,ZHU_HAI_SHI,Z,广东省,珠海市,
440402,440400,香洲区,3,XIANG_ZHOU_QU,X,广东省,珠海市,香洲区
440403,440400,斗门区,3,DOU_MEN_QU,D,广东省,珠海市,斗门区
440404,440400,金湾区,3,JIN_WAN_QU,J,广东省,珠海市,金湾区
440500,440000,汕头市,2,SHAN_TOU_SHI,S,广东省,汕头市,
440511,440500,金平区,3,JIN_PING_QU,J,广东省,汕头市,金平区
440507,440500,龙湖区,3,LONG_HU_QU,L,广东省,汕头市,龙湖区
440512,440500,濠江区,3,HAO_JIANG_QU,H,广东省,汕头市,濠江区
440513,440500,潮阳区,3,CHAO_YANG_QU,C,广东省,汕头市,潮阳区
440514,440500,潮南区,3,CHAO_NAN_QU,C,广东省,汕头市,潮南区
440515,440500,澄海区,3,CHENG_HAI_QU,C,广东省,汕头市,澄海区
440523,440500,南澳县,3,NAN_AO_XIAN,N,广东省,汕头市,南澳县
440600,440000,佛山市,2,FO_SHAN_SHI,F,广东省,佛山市,
440604,440600,禅城区,3,SHAN_CHENG_QU,S,广东省,佛山市,禅城区
440605,440600,南海区,3,NAN_HAI_QU,N,广东省,佛山市,南海区
440606,440600,顺德区,3,SHUN_DE_QU,S,广东省,佛山市,顺德区
440607,440600,三水区,3,SAN_SHUI_QU,S,广东省,佛山市,三水区
440608,440600,高明区,3,GAO_MING_QU,G,广东省,佛山市,高明区
440700,440000,江门市,2,JIANG_MEN_SHI,J,广东省,江门市,
440703,440700,蓬江区,3,PENG_JIANG_QU,P,广东省,江门市,蓬江区
440704,440700,江海区,3,JIANG_HAI_QU,J,广东省,江门市,江海区
440705,440700,新会区,3,XIN_HUI_QU,X,广东省,江门市,新会区
440781,440700,台山市,3,TAI_SHAN_SHI,T,广东省,江门市,台山市
440783,440700,开平市,3,KAI_PING_SHI,K,广东省,江门市,开平市
440784,440700,鹤山市,3,HE_SHAN_SHI,H,广东省,江门市,鹤山市
440785,440700,恩平市,3,EN_PING_SHI,E,广东省,江门市,恩平市
440800,440000,湛江市,2,ZHAN_JIANG_SHI,Z,广东省,湛江市,
440802,440800,赤坎区,3,CHI_KAN_QU,C,广东省,湛江市,赤坎区
440803,440800,霞山区,3,XIA_SHAN_QU,X,广东省,湛江市,霞山区
440804,440800,坡头区,3,PO_TOU_QU,P,广东省,湛江市,坡头区
440811,440800,麻章区,3,MA_ZHANG_QU,M,广东省,湛江市,麻章区
440881,440800,廉江市,3,LIAN_JIANG_SHI,L,广东省,湛江市,廉江市
440882,440800,雷州市,3,LEI_ZHOU_SHI,L,广东省,湛江市,雷州市
440883,440800,吴川市,3,WU_CHUAN_SHI,W,广东省,湛江市,吴川市
440823,440800,遂溪县,3,SUI_XI_XIAN,S,广东省,湛江市,遂溪县
440825,440800,徐闻县,3,XU_WEN_XIAN,X,广东省,湛江市,徐闻县
440900,440000,茂名市,2,MAO_MING_SHI,M,广东省,茂名市,
440902,440900,茂南区,3,MAO_NAN_QU,M,广东省,茂名市,茂南区
440904,440900,电白区,3,DIAN_BAI_QU,D,广东省,茂名市,电白区
440981,440900,高州市,3,GAO_ZHOU_SHI,G,广东省,茂名市,高州市
440982,440900,化州市,3,HUA_ZHOU_SHI,H,广东省,茂名市,化州市
440983,440900,信宜市,3,XIN_YI_SHI,X,广东省,茂名市,信宜市
441200,440000,肇庆市,2,ZHAO_QING_SHI,Z,广东省,肇庆市,
441202,441200,端州区,3,DUAN_ZHOU_QU,D,广东省,肇庆市,端州区
441203,441200,鼎湖区,3,DING_HU_QU,D,广东省,肇庆市,鼎湖区
441204,441200,高要区,3,GAO_YAO_QU,G,广东省,肇庆市,高要区
441284,441200,四会市,3,SI_HUI_SHI,S,广东省,肇庆市,四会市
441223,441200,广宁县,3,GUANG_NING_XIAN,G,广东省,肇庆市,广宁县
441224,441200,怀集县,3,HUAI_JI_XIAN,H,广东省,肇庆市,怀集县
441225,441200,封开县,3,FENG_KAI_XIAN,F,广东省,肇庆市,封开县
441226,441200,德庆县,3,DE_QING_XIAN,D,广东省,肇庆市,德庆县
441300,440000,惠州市,2,HUI_ZHOU_SHI,H,广东省,惠州市,
441302,441300,惠城区,3,HUI_CHENG_QU,H,广东省,惠州市,惠城区
441303,441300,惠阳区,3,HUI_YANG_QU,H,广东省,惠州市,惠阳区
441322,441300,博罗县,3,BO_LUO_XIAN,B,广东省,惠州市,博罗县
441323,441300,惠东县,3,HUI_DONG_XIAN,H,广东省,惠州市,惠东县
441324,441300,龙门县,3,LONG_MEN_XIAN,L,广东省,惠州市,龙门县
441400,440000,梅州市,2,MEI_ZHOU_SHI,M,广东省,梅州市,
441402,441400,梅江区,3,MEI_JIANG_QU,M,广东省,梅州市,梅江区
441403,441400,梅县区,3,MEI_XIAN_QU,M,广东省,梅州市,梅县区
441481,441400,兴宁市,3,XING_NING_SHI,X,广东省,梅州市,兴宁市
441422,441400,大埔县,3,DA_PU_XIAN,D,广东省,梅州市,大埔县
441423,441400,丰顺县,3,FENG_SHUN_XIAN,F,广东省,梅州市,丰顺县
441424,441400,五华县,3,WU_HUA_XIAN,W,广东省,梅州市,五华县
441426,441400,平远县,3,PING_YUAN_XIAN,P,广东省,梅州市,平远县
441427,441400,蕉岭县,3,JIAO_LING_XIAN,J,广东省,梅州市,蕉岭县
441500,440000,汕尾市,2,SHAN_WEI_SHI,S,广东省,汕尾市,
441502,441500,城区,3,CHENG_QU,C,广东省,汕尾市,城区
441581,441500,陆丰市,3,LU_FENG_SHI,L,广东省,汕尾市,陆丰市
441521,441500,海丰县,3,HAI_FENG_XIAN,H,广东省,汕尾市,海丰县
441523,441500,陆河县,3,LU_HE_XIAN,L,广东省,汕尾市,陆河县
441600,440000,河源市,2,HE_YUAN_SHI,H,广东省,河源市,
441602,441600,源城区,3,YUAN_CHENG_QU,Y,广东省,河源市,源城区
441621,441600,紫金县,3,ZI_JIN_XIAN,Z,广东省,河源市,紫金县
441622,441600,龙川县,3,LONG_CHUAN_XIAN,L,广东省,河源市,龙川县
441623,441600,连平县,3,LIAN_PING_XIAN,L,广东省,河源市,连平县
441624,441600,和平县,3,HE_PING_XIAN,H,广东省,河源市,和平县
441625,441600,东源县,3,DONG_YUAN_XIAN,D,广东省,河源市,东源县
441700,440000,阳江市,2,YANG_JIANG_SHI,Y,广东省,阳江市,
441702,441700,江城区,3,JIANG_CHENG_QU,J,广东省,阳江市,江城区
441704,441700,阳东区,3,YANG_DONG_QU,Y,广东省,阳江市,阳东区
441781,441700,阳春市,3,YANG_CHUN_SHI,Y,广东省,阳江市,阳春市
441721,441700,阳西县,3,YANG_XI_XIAN,Y,广东省,阳江市,阳西县
441800,440000,清远市,2,QING_YUAN_SHI,Q,广东省,清远市,
441802,441800,清城区,3,QING_CHENG_QU,Q,广东省,清远市,清城区
441803,441800,清新区,3,QING_XIN_QU,Q,广东省,清远市,清新区
441881,441800,英德市,3,YING_DE_SHI,Y,广东省,清远市,英德市
441882,441800,连州市,3,LIAN_ZHOU_SHI,L,广东省,清远市,连州市
441821,441800,佛冈县,3,FO_GANG_XIAN,F,广东省,清远市,佛冈县
441823,441800,阳山县,3,YANG_SHAN_XIAN,Y,广东省,清远市,阳山县
441825,441800,连山壮族瑶族自治县,3,LIAN_SHAN_ZHUANG_ZU_YAO_ZU_ZI_ZHI_XIAN,L,广东省,清远市,连山壮族瑶族自治县
441826,441800,连南瑶族自治县,3,LIAN_NAN_YAO_ZU_ZI_ZHI_XIAN,L,广东省,清远市,连南瑶族自治县
441900,440000,东莞市,2,DONG_GUAN_SHI,D,广东省,东莞市,
442000,440000,中山市,2,ZHONG_SHAN_SHI,Z,广东省,中山市,
445100,440000,潮州市,2,CHAO_ZHOU_SHI,C,广东省,潮州市,
445102,445100,湘桥区,3,XIANG_QIAO_QU,X,广东省,潮州市,湘桥区
445103,445100,潮安区,3,CHAO_AN_QU,C,广东省,潮州市,潮安区
445122,445100,饶平县,3,RAO_PING_XIAN,R,广东省,潮州市,饶平县
445200,440000,揭阳市,2,JIE_YANG_SHI,J,广东省,揭阳市,
445202,445200,榕城区,3,RONG_CHENG_QU,R,广东省,揭阳市,榕城区
445203,445200,揭东区,3,JIE_DONG_QU,J,广东省,揭阳市,揭东区
445281,445200,普宁市,3,PU_NING_SHI,P,广东省,揭阳市,普宁市
445222,445200,揭西县,3,JIE_XI_XIAN,J,广东省,揭阳市,揭西县
445224,445200,惠来县,3,HUI_LAI_XIAN,H,广东省,揭阳市,惠来县
445300,440000,云浮市,2,YUN_FU_SHI,Y,广东省,云浮市,
445302,445300,云城区,3,YUN_CHENG_QU,Y,广东省,云浮市,云城区
445303,445300,云安区,3,YUN_AN_QU,Y,广东省,云浮市,云安区
445381,445300,罗定市,3,LUO_DING_SHI,L,广东省,云浮市,罗定市
445321,445300,新兴县,3,XIN_XING_XIAN,X,广东省,云浮市,新兴县
445322,445300,郁南县,3,YU_NAN_XIAN,Y,广东省,云浮市,郁南县
450000,100000,广西壮族自治区,1,GUANG_XI_ZHUANG_ZU_ZI_ZHI_QU,G,广西壮族自治区,,
450100,450000,南宁市,2,NAN_NING_SHI,N,广西壮族自治区,南宁市,
450103,450100,青秀区,3,QING_XIU_QU,Q,广西壮族自治区,南宁市,青秀区
450102,450100,兴宁区,3,XING_NING_QU,X,广西壮族自治区,南宁市,兴宁区
450105,450100,江南区,3,JIANG_NAN_QU,J,广西壮族自治区,南宁市,江南区
450107,450100,西乡塘区,3,XI_XIANG_TANG_QU,X,广西壮族自治区,南宁市,西乡塘区
450108,450100,良庆区,3,LIANG_QING_QU,L,广西壮族自治区,南宁市,良庆区
450109,450100,邕宁区,3,YONG_NING_QU,Y,广西壮族自治区,南宁市,邕宁区
450110,450100,武鸣区,3,WU_MING_QU,W,广西壮族自治区,南宁市,武鸣区
450123,450100,隆安县,3,LONG_AN_XIAN,L,广西壮族自治区,南宁市,隆安县
450124,450100,马山县,3,MA_SHAN_XIAN,M,广西壮族自治区,南宁市,马山县
450125,450100,上林县,3,SHANG_LIN_XIAN,S,广西壮族自治区,南宁市,上林县
450126,450100,宾阳县,3,BIN_YANG_XIAN,B,广西壮族自治区,南宁市,宾阳县
450127,450100,横县,3,HENG_XIAN,H,广西壮族自治区,南宁市,横县
450200,450000,柳州市,2,LIU_ZHOU_SHI,L,广西壮族自治区,柳州市,
450205,450200,柳北区,3,LIU_BEI_QU,L,广西壮族自治区,柳州市,柳北区
450202,450200,城中区,3,CHENG_ZHONG_QU,C,广西壮族自治区,柳州市,城中区
450203,450200,鱼峰区,3,YU_FENG_QU,Y,广西壮族自治区,柳州市,鱼峰区
450204,450200,柳南区,3,LIU_NAN_QU,L,广西壮族自治区,柳州市,柳南区
450206,450200,柳江区,3,LIU_JIANG_QU,L,广西壮族自治区,柳州市,柳江区
450222,450200,柳城县,3,LIU_CHENG_XIAN,L,广西壮族自治区,柳州市,柳城县
450223,450200,鹿寨县,3,LU_ZHAI_XIAN,L,广西壮族自治区,柳州市,鹿寨县
450224,450200,融安县,3,RONG_AN_XIAN,R,广西壮族自治区,柳州市,融安县
450225,450200,融水苗族自治县,3,RONG_SHUI_MIAO_ZU_ZI_ZHI_XIAN,R,广西壮族自治区,柳州市,融水苗族自治县
450226,450200,三江侗族自治县,3,SAN_JIANG_DONG_ZU_ZI_ZHI_XIAN,S,广西壮族自治区,柳州市,三江侗族自治县
450300,450000,桂林市,2,GUI_LIN_SHI,G,广西壮族自治区,桂林市,
450312,450300,临桂区,3,LIN_GUI_QU,L,广西壮族自治区,桂林市,临桂区
450302,450300,秀峰区,3,XIU_FENG_QU,X,广西壮族自治区,桂林市,秀峰区
450303,450300,叠彩区,3,DIE_CAI_QU,D,广西壮族自治区,桂林市,叠彩区
450304,450300,象山区,3,XIANG_SHAN_QU,X,广西壮族自治区,桂林市,象山区
450305,450300,七星区,3,QI_XING_QU,Q,广西壮族自治区,桂林市,七星区
450311,450300,雁山区,3,YAN_SHAN_QU,Y,广西壮族自治区,桂林市,雁山区
450321,450300,阳朔县,3,YANG_SHUO_XIAN,Y,广西壮族自治区,桂林市,阳朔县
450323,450300,灵川县,3,LING_CHUAN_XIAN,L,广西壮族自治区,桂林市,灵川县
450324,450300,全州县,3,QUAN_ZHOU_XIAN,Q,广西壮族自治区,桂林市,全州县
450325,450300,兴安县,3,XING_AN_XIAN,X,广西壮族自治区,桂林市,兴安县
450326,450300,永福县,3,YONG_FU_XIAN,Y,广西壮族自治区,桂林市,永福县
450327,450300,灌阳县,3,GUAN_YANG_XIAN,G,广西壮族自治区,桂林市,灌阳县
450329,450300,资源县,3,ZI_YUAN_XIAN,Z,广西壮族自治区,桂林市,资源县
450330,450300,平乐县,3,PING_LE_XIAN,P,广西壮族自治区,桂林市,平乐县
450331,450300,荔浦县,3,LI_PU_XIAN,L,广西壮族自治区,桂林市,荔浦县
450328,450300,龙胜各族自治县,3,LONG_SHENG_GE_ZU_ZI_ZHI_XIAN,L,广西壮族自治区,桂林市,龙胜各族自治县
450332,450300,恭城瑶族自治县,3,GONG_CHENG_YAO_ZU_ZI_ZHI_XIAN,G,广西壮族自治区,桂林市,恭城瑶族自治县
450400,450000,梧州市,2,WU_ZHOU_SHI,W,广西壮族自治区,梧州市,
450405,450400,长洲区,3,ZHANG_ZHOU_QU,Z,广西壮族自治区,梧州市,长洲区
450403,450400,万秀区,3,WAN_XIU_QU,W,广西壮族自治区,梧州市,万秀区
450406,450400,龙圩区,3,LONG_WEI_QU,L,广西壮族自治区,梧州市,龙圩区
450481,450400,岑溪市,3,CEN_XI_SHI,C,广西壮族自治区,梧州市,岑溪市
450421,450400,苍梧县,3,CANG_WU_XIAN,C,广西壮族自治区,梧州市,苍梧县
450422,450400,藤县,3,TENG_XIAN,T,广西壮族自治区,梧州市,藤县
450423,450400,蒙山县,3,MENG_SHAN_XIAN,M,广西壮族自治区,梧州市,蒙山县
450500,450000,北海市,2,BEI_HAI_SHI,B,广西壮族自治区,北海市,
450502,450500,海城区,3,HAI_CHENG_QU,H,广西壮族自治区,北海市,海城区
450503,450500,银海区,3,YIN_HAI_QU,Y,广西壮族自治区,北海市,银海区
450512,450500,铁山港区,3,TIE_SHAN_GANG_QU,T,广西壮族自治区,北海市,铁山港区
450521,450500,合浦县,3,HE_PU_XIAN,H,广西壮族自治区,北海市,合浦县
450600,450000,防城港市,2,FANG_CHENG_GANG_SHI,F,广西壮族自治区,防城港市,
450602,450600,港口区,3,GANG_KOU_QU,G,广西壮族自治区,防城港市,港口区
450603,450600,防城区,3,FANG_CHENG_QU,F,广西壮族自治区,防城港市,防城区
450681,450600,东兴市,3,DONG_XING_SHI,D,广西壮族自治区,防城港市,东兴市
450621,450600,上思县,3,SHANG_SI_XIAN,S,广西壮族自治区,防城港市,上思县
450700,450000,钦州市,2,QIN_ZHOU_SHI,Q,广西壮族自治区,钦州市,
450702,450700,钦南区,3,QIN_NAN_QU,Q,广西壮族自治区,钦州市,钦南区
450703,450700,钦北区,3,QIN_BEI_QU,Q,广西壮族自治区,钦州市,钦北区
450721,450700,灵山县,3,LING_SHAN_XIAN,L,广西壮族自治区,钦州市,灵山县
450722,450700,浦北县,3,PU_BEI_XIAN,P,广西壮族自治区,钦州市,浦北县
450800,450000,贵港市,2,GUI_GANG_SHI,G,广西壮族自治区,贵港市,
450802,450800,港北区,3,GANG_BEI_QU,G,广西壮族自治区,贵港市,港北区
450803,450800,港南区,3,GANG_NAN_QU,G,广西壮族自治区,贵港市,港南区
450804,450800,覃塘区,3,TAN_TANG_QU,T,广西壮族自治区,贵港市,覃塘区
450881,450800,桂平市,3,GUI_PING_SHI,G,广西壮族自治区,贵港市,桂平市
450821,450800,平南县,3,PING_NAN_XIAN,P,广西壮族自治区,贵港市,平南县
450900,450000,玉林市,2,YU_LIN_SHI,Y,广西壮族自治区,玉林市,
450902,450900,玉州区,3,YU_ZHOU_QU,Y,广西壮族自治区,玉林市,玉州区
450903,450900,福绵区,3,FU_MIAN_QU,F,广西壮族自治区,玉林市,福绵区
450981,450900,北流市,3,BEI_LIU_SHI,B,广西壮族自治区,玉林市,北流市
450921,450900,容县,3,RONG_XIAN,R,广西壮族自治区,玉林市,容县
450922,450900,陆川县,3,LU_CHUAN_XIAN,L,广西壮族自治区,玉林市,陆川县
450923,450900,博白县,3,BO_BAI_XIAN,B,广西壮族自治区,玉林市,博白县
450924,450900,兴业县,3,XING_YE_XIAN,X,广西壮族自治区,玉林市,兴业县
451000,450000,百色市,2,BAI_SE_SHI,B,广西壮族自治区,百色市,
451002,451000,右江区,3,YOU_JIANG_QU,Y,广西壮族自治区,百色市,右江区
451081,451000,靖西市,3,JING_XI_SHI,J,广西壮族自治区,百色市,靖西市
451021,451000,田阳县,3,TIAN_YANG_XIAN,T,广西壮族自治区,百色市,田阳县
451022,451000,田东县,3,TIAN_DONG_XIAN,T,广西壮族自治区,百色市,田东县
451023,451000,平果县,3,PING_GUO_XIAN,P,广西壮族自治区,百色市,平果县
451024,451000,德保县,3,DE_BAO_XIAN,D,广西壮族自治区,百色市,德保县
451026,451000,那坡县,3,NEI_PO_XIAN,N,广西壮族自治区,百色市,那坡县
451027,451000,凌云县,3,LING_YUN_XIAN,L,广西壮族自治区,百色市,凌云县
451028,451000,乐业县,3,LE_YE_XIAN,L,广西壮族自治区,百色市,乐业县
451029,451000,田林县,3,TIAN_LIN_XIAN,T,广西壮族自治区,百色市,田林县
451030,451000,西林县,3,XI_LIN_XIAN,X,广西壮族自治区,百色市,西林县
451031,451000,隆林各族自治县,3,LONG_LIN_GE_ZU_ZI_ZHI_XIAN,L,广西壮族自治区,百色市,隆林各族自治县
451100,450000,贺州市,2,HE_ZHOU_SHI,H,广西壮族自治区,贺州市,
451102,451100,八步区,3,BA_BU_QU,B,广西壮族自治区,贺州市,八步区
451103,451100,平桂区,3,PING_GUI_QU,P,广西壮族自治区,贺州市,平桂区
451121,451100,昭平县,3,ZHAO_PING_XIAN,Z,广西壮族自治区,贺州市,昭平县
451122,451100,钟山县,3,ZHONG_SHAN_XIAN,Z,广西壮族自治区,贺州市,钟山县
451123,451100,富川瑶族自治县,3,FU_CHUAN_YAO_ZU_ZI_ZHI_XIAN,F,广西壮族自治区,贺州市,富川瑶族自治县
451200,450000,河池市,2,HE_CHI_SHI,H,广西壮族自治区,河池市,
451202,451200,金城江区,3,JIN_CHENG_JIANG_QU,J,广西壮族自治区,河池市,金城江区
451203,451200,宜州区,3,YI_ZHOU_QU,Y,广西壮族自治区,河池市,宜州区
451221,451200,南丹县,3,NAN_DAN_XIAN,N,广西壮族自治区,河池市,南丹县
451222,451200,天峨县,3,TIAN_E_XIAN,T,广西壮族自治区,河池市,天峨县
451223,451200,凤山县,3,FENG_SHAN_XIAN,F,广西壮族自治区,河池市,凤山县
451224,451200,东兰县,3,DONG_LAN_XIAN,D,广西壮族自治区,河池市,东兰县
451225,451200,罗城仫佬族自治县,3,LUO_CHENG_MU_LAO_ZU_ZI_ZHI_XIAN,L,广西壮族自治区,河池市,罗城仫佬族自治县
451226,451200,环江毛南族自治县,3,HUAN_JIANG_MAO_NAN_ZU_ZI_ZHI_XIAN,H,广西壮族自治区,河池市,环江毛南族自治县
451227,451200,巴马瑶族自治县,3,BA_MA_YAO_ZU_ZI_ZHI_XIAN,B,广西壮族自治区,河池市,巴马瑶族自治县
451228,451200,都安瑶族自治县,3,DOU_AN_YAO_ZU_ZI_ZHI_XIAN,D,广西壮族自治区,河池市,都安瑶族自治县
451229,451200,大化瑶族自治县,3,DA_HUA_YAO_ZU_ZI_ZHI_XIAN,D,广西壮族自治区,河池市,大化瑶族自治县
451300,450000,来宾市,2,LAI_BIN_SHI,L,广西壮族自治区,来宾市,
451302,451300,兴宾区,3,XING_BIN_QU,X,广西壮族自治区,来宾市,兴宾区
451381,451300,合山市,3,HE_SHAN_SHI,H,广西壮族自治区,来宾市,合山市
451321,451300,忻城县,3,XIN_CHENG_XIAN,X,广西壮族自治区,来宾市,忻城县
451322,451300,象州县,3,XIANG_ZHOU_XIAN,X,广西壮族自治区,来宾市,象州县
451323,451300,武宣县,3,WU_XUAN_XIAN,W,广西壮族自治区,来宾市,武宣县
451324,451300,金秀瑶族自治县,3,JIN_XIU_YAO_ZU_ZI_ZHI_XIAN,J,广西壮族自治区,来宾市,金秀瑶族自治县
451400,450000,崇左市,2,CHONG_ZUO_SHI,C,广西壮族自治区,崇左市,
451402,451400,江州区,3,JIANG_ZHOU_QU,J,广西壮族自治区,崇左市,江州区
451481,451400,凭祥市,3,PING_XIANG_SHI,P,广西壮族自治区,崇左市,凭祥市
451421,451400,扶绥县,3,FU_SUI_XIAN,F,广西壮族自治区,崇左市,扶绥县
451422,451400,宁明县,3,NING_MING_XIAN,N,广西壮族自治区,崇左市,宁明县
451423,451400,龙州县,3,LONG_ZHOU_XIAN,L,广西壮族自治区,崇左市,龙州县
451424,451400,大新县,3,DA_XIN_XIAN,D,广西壮族自治区,崇左市,大新县
451425,451400,天等县,3,TIAN_DENG_XIAN,T,广西壮族自治区,崇左市,天等县
460000,100000,海南省,1,HAI_NAN_SHENG,H,海南省,,
460100,460000,海口市,2,HAI_KOU_SHI,H,海南省,海口市,
460106,460100,龙华区,3,LONG_HUA_QU,L,海南省,海口市,龙华区
460105,460100,秀英区,3,XIU_YING_QU,X,海南省,海口市,秀英区
460107,460100,琼山区,3,QIONG_SHAN_QU,Q,海南省,海口市,琼山区
460108,460100,美兰区,3,MEI_LAN_QU,M,海南省,海口市,美兰区
460200,460000,三亚市,2,SAN_YA_SHI,S,海南省,三亚市,
460203,460200,吉阳区,3,JI_YANG_QU,J,海南省,三亚市,吉阳区
460202,460200,海棠区,3,HAI_TANG_QU,H,海南省,三亚市,海棠区
460204,460200,天涯区,3,TIAN_YA_QU,T,海南省,三亚市,天涯区
460205,460200,崖州区,3,YA_ZHOU_QU,Y,海南省,三亚市,崖州区
460300,460000,三沙市,2,SAN_SHA_SHI,S,海南省,三沙市,
460400,460000,儋州市,2,DAN_ZHOU_SHI,D,海南省,儋州市,
469001,,五指山市,3,WU_ZHI_SHAN_SHI,W,海南省,省直辖县级行政单位,五指山市
469002,,琼海市,3,QIONG_HAI_SHI,Q,海南省,省直辖县级行政单位,琼海市
469005,,文昌市,3,WEN_CHANG_SHI,W,海南省,省直辖县级行政单位,文昌市
469006,,万宁市,3,WAN_NING_SHI,W,海南省,省直辖县级行政单位,万宁市
469007,,东方市,3,DONG_FANG_SHI,D,海南省,省直辖县级行政单位,东方市
469021,,定安县,3,DING_AN_XIAN,D,海南省,省直辖县级行政单位,定安县
469022,,屯昌县,3,TUN_CHANG_XIAN,T,海南省,省直辖县级行政单位,屯昌县
469023,,澄迈县,3,CHENG_MAI_XIAN,C,海南省,省直辖县级行政单位,澄迈县
469024,,临高县,3,LIN_GAO_XIAN,L,海南省,省直辖县级行政单位,临高县
469025,,白沙黎族自治县,3,BAI_SHA_LI_ZU_ZI_ZHI_XIAN,B,海南省,省直辖县级行政单位,白沙黎族自治县
469026,,昌江黎族自治县,3,CHANG_JIANG_LI_ZU_ZI_ZHI_XIAN,C,海南省,省直辖县级行政单位,昌江黎族自治县
469027,,乐东黎族自治县,3,LE_DONG_LI_ZU_ZI_ZHI_XIAN,L,海南省,省直辖县级行政单位,乐东黎族自治县
469028,,陵水黎族自治县,3,LING_SHUI_LI_ZU_ZI_ZHI_XIAN,L,海南省,省直辖县级行政单位,陵水黎族自治县
469029,,保亭黎族苗族自治县,3,BAO_TING_LI_ZU_MIAO_ZU_ZI_ZHI_XIAN,B,海南省,省直辖县级行政单位,保亭黎族苗族自治县
469030,,琼中黎族苗族自治县,3,QIONG_ZHONG_LI_ZU_MIAO_ZU_ZI_ZHI_XIAN,Q,海南省,省直辖县级行政单位,琼中黎族苗族自治县
500000,100000,重庆,1,ZHONG_QING,Z,重庆,,
500100,500000,重庆市,2,ZHONG_QING_SHI,Z,重庆,重庆市,
500103,500100,渝中区,3,YU_ZHONG_QU,Y,重庆,重庆市,渝中区
500101,500100,万州区,3,WAN_ZHOU_QU,W,重庆,重庆市,万州区
500102,500100,涪陵区,3,FU_LING_QU,F,重庆,重庆市,涪陵区
500104,500100,大渡口区,3,DA_DU_KOU_QU,D,重庆,重庆市,大渡口区
500105,500100,江北区,3,JIANG_BEI_QU,J,重庆,重庆市,江北区
500106,500100,沙坪坝区,3,SHA_PING_BA_QU,S,重庆,重庆市,沙坪坝区
500107,500100,九龙坡区,3,JIU_LONG_PO_QU,J,重庆,重庆市,九龙坡区
500108,500100,南岸区,3,NAN_AN_QU,N,重庆,重庆市,南岸区
500109,500100,北碚区,3,BEI_BEI_QU,B,重庆,重庆市,北碚区
500110,500100,綦江区,3,QI_JIANG_QU,Q,重庆,重庆市,綦江区
500111,500100,大足区,3,DA_ZU_QU,D,重庆,重庆市,大足区
500112,500100,渝北区,3,YU_BEI_QU,Y,重庆,重庆市,渝北区
500113,500100,巴南区,3,BA_NAN_QU,B,重庆,重庆市,巴南区
500114,500100,黔江区,3,QIAN_JIANG_QU,Q,重庆,重庆市,黔江区
500115,500100,长寿区,3,ZHANG_SHOU_QU,Z,重庆,重庆市,长寿区
500116,500100,江津区,3,JIANG_JIN_QU,J,重庆,重庆市,江津区
500117,500100,合川区,3,HE_CHUAN_QU,H,重庆,重庆市,合川区
500118,500100,永川区,3,YONG_CHUAN_QU,Y,重庆,重庆市,永川区
500119,500100,南川区,3,NAN_CHUAN_QU,N,重庆,重庆市,南川区
500120,500100,璧山区,3,BI_SHAN_QU,B,重庆,重庆市,璧山区
500151,500100,铜梁区,3,TONG_LIANG_QU,T,重庆,重庆市,铜梁区
500152,500100,潼南区,3,TONG_NAN_QU,T,重庆,重庆市,潼南区
500153,500100,荣昌区,3,RONG_CHANG_QU,R,重庆,重庆市,荣昌区
500154,500100,开州区,3,KAI_ZHOU_QU,K,重庆,重庆市,开州区
500155,500100,梁平区,3,LIANG_PING_QU,L,重庆,重庆市,梁平区
500156,500100,武隆区,3,WU_LONG_QU,W,重庆,重庆市,武隆区
500229,500100,城口县,3,CHENG_KOU_XIAN,C,重庆,重庆市,城口县
500230,500100,丰都县,3,FENG_DOU_XIAN,F,重庆,重庆市,丰都县
500231,500100,垫江县,3,DIAN_JIANG_XIAN,D,重庆,重庆市,垫江县
500233,500100,忠县,3,ZHONG_XIAN,Z,重庆,重庆市,忠县
500235,500100,云阳县,3,YUN_YANG_XIAN,Y,重庆,重庆市,云阳县
500236,500100,奉节县,3,FENG_JIE_XIAN,F,重庆,重庆市,奉节县
500237,500100,巫山县,3,WU_SHAN_XIAN,W,重庆,重庆市,巫山县
500238,500100,巫溪县,3,WU_XI_XIAN,W,重庆,重庆市,巫溪县
500240,500100,石柱土家族自治县,3,SHI_ZHU_TU_JIA_ZU_ZI_ZHI_XIAN,S,重庆,重庆市,石柱土家族自治县
500241,500100,秀山土家族苗族自治县,3,XIU_SHAN_TU_JIA_ZU_MIAO_ZU_ZI_ZHI_XIAN,X,重庆,重庆市,秀山土家族苗族自治县
500242,500100,酉阳土家族苗族自治县,3,YOU_YANG_TU_JIA_ZU_MIAO_ZU_ZI_ZHI_XIAN,Y,重庆,重庆市,酉阳土家族苗族自治县
500243,500100,彭水苗族土家族自治县,3,PENG_SHUI_MIAO_ZU_TU_JIA_ZU_ZI_ZHI_XIAN,P,重庆,重庆市,彭水苗族土家族自治县
510000,100000,四川省,1,SI_CHUAN_SHENG,S,四川省,,
510100,510000,成都市,2,CHENG_DOU_SHI,C,四川省,成都市,
510107,510100,武侯区,3,WU_HOU_QU,W,四川省,成都市,武侯区
510104,510100,锦江区,3,JIN_JIANG_QU,J,四川省,成都市,锦江区
510105,510100,青羊区,3,QING_YANG_QU,Q,四川省,成都市,青羊区
510106,510100,金牛区,3,JIN_NIU_QU,J,四川省,成都市,金牛区
510108,510100,成华区,3,CHENG_HUA_QU,C,四川省,成都市,成华区
510112,510100,龙泉驿区,3,LONG_QUAN_YI_QU,L,四川省,成都市,龙泉驿区
510113,510100,青白江区,3,QING_BAI_JIANG_QU,Q,四川省,成都市,青白江区
510114,510100,新都区,3,XIN_DOU_QU,X,四川省,成都市,新都区
510115,510100,温江区,3,WEN_JIANG_QU,W,四川省,成都市,温江区
510116,510100,双流区,3,SHUANG_LIU_QU,S,四川省,成都市,双流区
510117,510100,郫都区,3,PI_DOU_QU,P,四川省,成都市,郫都区
510181,510100,都江堰市,3,DOU_JIANG_YAN_SHI,D,四川省,成都市,都江堰市
510182,510100,彭州市,3,PENG_ZHOU_SHI,P,四川省,成都市,彭州市
510183,510100,邛崃市,3,QIONG_LAI_SHI,Q,四川省,成都市,邛崃市
510184,510100,崇州市,3,CHONG_ZHOU_SHI,C,四川省,成都市,崇州市
510185,510100,简阳市,3,JIAN_YANG_SHI,J,四川省,成都市,简阳市
510121,510100,金堂县,3,JIN_TANG_XIAN,J,四川省,成都市,金堂县
510129,510100,大邑县,3,DA_YI_XIAN,D,四川省,成都市,大邑县
510131,510100,蒲江县,3,PU_JIANG_XIAN,P,四川省,成都市,蒲江县
510132,510100,新津县,3,XIN_JIN_XIAN,X,四川省,成都市,新津县
510300,510000,自贡市,2,ZI_GONG_SHI,Z,四川省,自贡市,
510302,510300,自流井区,3,ZI_LIU_JING_QU,Z,四川省,自贡市,自流井区
510303,510300,贡井区,3,GONG_JING_QU,G,四川省,自贡市,贡井区
510304,510300,大安区,3,DA_AN_QU,D,四川省,自贡市,大安区
510311,510300,沿滩区,3,YAN_TAN_QU,Y,四川省,自贡市,沿滩区
510321,510300,荣县,3,RONG_XIAN,R,四川省,自贡市,荣县
510322,510300,富顺县,3,FU_SHUN_XIAN,F,四川省,自贡市,富顺县
510400,510000,攀枝花市,2,PAN_ZHI_HUA_SHI,P,四川省,攀枝花市,
510402,510400,东区,3,DONG_QU,D,四川省,攀枝花市,东区
510403,510400,西区,3,XI_QU,X,四川省,攀枝花市,西区
510411,510400,仁和区,3,REN_HE_QU,R,四川省,攀枝花市,仁和区
510421,510400,米易县,3,MI_YI_XIAN,M,四川省,攀枝花市,米易县
510422,510400,盐边县,3,YAN_BIAN_XIAN,Y,四川省,攀枝花市,盐边县
510500,510000,泸州市,2,LU_ZHOU_SHI,L,四川省,泸州市,
510502,510500,江阳区,3,JIANG_YANG_QU,J,四川省,泸州市,江阳区
510503,510500,纳溪区,3,NA_XI_QU,N,四川省,泸州市,纳溪区
510504,510500,龙马潭区,3,LONG_MA_TAN_QU,L,四川省,泸州市,龙马潭区
510521,510500,泸县,3,LU_XIAN,L,四川省,泸州市,泸县
510522,510500,合江县,3,HE_JIANG_XIAN,H,四川省,泸州市,合江县
510524,510500,叙永县,3,XU_YONG_XIAN,X,四川省,泸州市,叙永县
510525,510500,古蔺县,3,GU_LIN_XIAN,G,四川省,泸州市,古蔺县
510600,510000,德阳市,2,DE_YANG_SHI,D,四川省,德阳市,
510603,510600,旌阳区,3,JING_YANG_QU,J,四川省,德阳市,旌阳区
510681,510600,广汉市,3,GUANG_HAN_SHI,G,四川省,德阳市,广汉市
510682,510600,什邡市,3,SHEN_FANG_SHI,S,四川省,德阳市,什邡市
510683,510600,绵竹市,3,MIAN_ZHU_SHI,M,四川省,德阳市,绵竹市
510626,510600,罗江县,3,LUO_JIANG_XIAN,L,四川省,德阳市,罗江县
510623,510600,中江县,3,ZHONG_JIANG_XIAN,Z,四川省,德阳市,中江县
510700,510000,绵阳市,2,MIAN_YANG_SHI,M,四川省,绵阳市,
510703,510700,涪城区,3,FU_CHENG_QU,F,四川省,绵阳市,涪城区
510704,510700,游仙区,3,YOU_XIAN_QU,Y,四川省,绵阳市,游仙区
510705,510700,安州区,3,AN_ZHOU_QU,A,四川省,绵阳市,安州区
510781,510700,江油市,3,JIANG_YOU_SHI,J,四川省,绵阳市,江油市
510722,510700,三台县,3,SAN_TAI_XIAN,S,四川省,绵阳市,三台县
510723,510700,盐亭县,3,YAN_TING_XIAN,Y,四川省,绵阳市,盐亭县
510725,510700,梓潼县,3,ZI_TONG_XIAN,Z,四川省,绵阳市,梓潼县
510727,510700,平武县,3,PING_WU_XIAN,P,四川省,绵阳市,平武县
510726,510700,北川羌族自治县,3,BEI_CHUAN_QIANG_ZU_ZI_ZHI_XIAN,B,四川省,绵阳市,北川羌族自治县
510800,510000,广元市,2,GUANG_YUAN_SHI,G,四川省,广元市,
510802,510800,利州区,3,LI_ZHOU_QU,L,四川省,广元市,利州区
510811,510800,昭化区,3,ZHAO_HUA_QU,Z,四川省,广元市,昭化区
510812,510800,朝天区,3,CHAO_TIAN_QU,C,四川省,广元市,朝天区
510821,510800,旺苍县,3,WANG_CANG_XIAN,W,四川省,广元市,旺苍县
510822,510800,青川县,3,QING_CHUAN_XIAN,Q,四川省,广元市,青川县
510823,510800,剑阁县,3,JIAN_GE_XIAN,J,四川省,广元市,剑阁县
510824,510800,苍溪县,3,CANG_XI_XIAN,C,四川省,广元市,苍溪县
510900,510000,遂宁市,2,SUI_NING_SHI,S,四川省,遂宁市,
510903,510900,船山区,3,CHUAN_SHAN_QU,C,四川省,遂宁市,船山区
510904,510900,安居区,3,AN_JU_QU,A,四川省,遂宁市,安居区
510921,510900,蓬溪县,3,PENG_XI_XIAN,P,四川省,遂宁市,蓬溪县
510922,510900,射洪县,3,SHE_HONG_XIAN,S,四川省,遂宁市,射洪县
510923,510900,大英县,3,DA_YING_XIAN,D,四川省,遂宁市,大英县
511000,510000,内江市,2,NEI_JIANG_SHI,N,四川省,内江市,
511002,511000,市中区,3,SHI_ZHONG_QU,S,四川省,内江市,市中区
511011,511000,东兴区,3,DONG_XING_QU,D,四川省,内江市,东兴区
511083,511000,隆昌市,3,LONG_CHANG_SHI,L,四川省,内江市,隆昌市
511024,511000,威远县,3,WEI_YUAN_XIAN,W,四川省,内江市,威远县
511025,511000,资中县,3,ZI_ZHONG_XIAN,Z,四川省,内江市,资中县
511100,510000,乐山市,2,LE_SHAN_SHI,L,四川省,乐山市,
511102,511100,市中区,3,SHI_ZHONG_QU,S,四川省,乐山市,市中区
511111,511100,沙湾区,3,SHA_WAN_QU,S,四川省,乐山市,沙湾区
511112,511100,五通桥区,3,WU_TONG_QIAO_QU,W,四川省,乐山市,五通桥区
511113,511100,金口河区,3,JIN_KOU_HE_QU,J,四川省,乐山市,金口河区
511181,511100,峨眉山市,3,E_MEI_SHAN_SHI,E,四川省,乐山市,峨眉山市
511123,511100,犍为县,3,JIAN_WEI_XIAN,J,四川省,乐山市,犍为县
511124,511100,井研县,3,JING_YAN_XIAN,J,四川省,乐山市,井研县
511126,511100,夹江县,3,JIA_JIANG_XIAN,J,四川省,乐山市,夹江县
511129,511100,沐川县,3,MU_CHUAN_XIAN,M,四川省,乐山市,沐川县
511132,511100,峨边彝族自治县,3,E_BIAN_YI_ZU_ZI_ZHI_XIAN,E,四川省,乐山市,峨边彝族自治县
511133,511100,马边彝族自治县,3,MA_BIAN_YI_ZU_ZI_ZHI_XIAN,M,四川省,乐山市,马边彝族自治县
511300,510000,南充市,2,NAN_CHONG_SHI,N,四川省,南充市,
511302,511300,顺庆区,3,SHUN_QING_QU,S,四川省,南充市,顺庆区
511303,511300,高坪区,3,GAO_PING_QU,G,四川省,南充市,高坪区
511304,511300,嘉陵区,3,JIA_LING_QU,J,四川省,南充市,嘉陵区
511381,511300,阆中市,3,LANG_ZHONG_SHI,L,四川省,南充市,阆中市
511321,511300,南部县,3,NAN_BU_XIAN,N,四川省,南充市,南部县
511322,511300,营山县,3,YING_SHAN_XIAN,Y,四川省,南充市,营山县
511323,511300,蓬安县,3,PENG_AN_XIAN,P,四川省,南充市,蓬安县
511324,511300,仪陇县,3,YI_LONG_XIAN,Y,四川省,南充市,仪陇县
511325,511300,西充县,3,XI_CHONG_XIAN,X,四川省,南充市,西充县
511400,510000,眉山市,2,MEI_SHAN_SHI,M,四川省,眉山市,
511402,511400,东坡区,3,DONG_PO_QU,D,四川省,眉山市,东坡区
511403,511400,彭山区,3,PENG_SHAN_QU,P,四川省,眉山市,彭山区
511421,511400,仁寿县,3,REN_SHOU_XIAN,R,四川省,眉山市,仁寿县
511423,511400,洪雅县,3,HONG_YA_XIAN,H,四川省,眉山市,洪雅县
511424,511400,丹棱县,3,DAN_LENG_XIAN,D,四川省,眉山市,丹棱县
511425,511400,青神县,3,QING_SHEN_XIAN,Q,四川省,眉山市,青神县
511500,510000,宜宾市,2,YI_BIN_SHI,Y,四川省,宜宾市,
511502,511500,翠屏区,3,CUI_PING_QU,C,四川省,宜宾市,翠屏区
511503,511500,南溪区,3,NAN_XI_QU,N,四川省,宜宾市,南溪区
511521,511500,宜宾县,3,YI_BIN_XIAN,Y,四川省,宜宾市,宜宾县
511523,511500,江安县,3,JIANG_AN_XIAN,J,四川省,宜宾市,江安县
511524,511500,长宁县,3,ZHANG_NING_XIAN,Z,四川省,宜宾市,长宁县
511525,511500,高县,3,GAO_XIAN,G,四川省,宜宾市,高县
511526,511500,珙县,3,GONG_XIAN,G,四川省,宜宾市,珙县
511527,511500,筠连县,3,YUN_LIAN_XIAN,Y,四川省,宜宾市,筠连县
511528,511500,兴文县,3,XING_WEN_XIAN,X,四川省,宜宾市,兴文县
511529,511500,屏山县,3,PING_SHAN_XIAN,P,四川省,宜宾市,屏山县
511600,510000,广安市,2,GUANG_AN_SHI,G,四川省,广安市,
511602,511600,广安区,3,GUANG_AN_QU,G,四川省,广安市,广安区
511603,511600,前锋区,3,QIAN_FENG_QU,Q,四川省,广安市,前锋区
511681,511600,华蓥市,3,HUA_YING_SHI,H,四川省,广安市,华蓥市
511621,511600,岳池县,3,YUE_CHI_XIAN,Y,四川省,广安市,岳池县
511622,511600,武胜县,3,WU_SHENG_XIAN,W,四川省,广安市,武胜县
511623,511600,邻水县,3,LIN_SHUI_XIAN,L,四川省,广安市,邻水县
511700,510000,达州市,2,DA_ZHOU_SHI,D,四川省,达州市,
511702,511700,通川区,3,TONG_CHUAN_QU,T,四川省,达州市,通川区
511703,511700,达川区,3,DA_CHUAN_QU,D,四川省,达州市,达川区
511781,511700,万源市,3,WAN_YUAN_SHI,W,四川省,达州市,万源市
511722,511700,宣汉县,3,XUAN_HAN_XIAN,X,四川省,达州市,宣汉县
511723,511700,开江县,3,KAI_JIANG_XIAN,K,四川省,达州市,开江县
511724,511700,大竹县,3,DA_ZHU_XIAN,D,四川省,达州市,大竹县
511725,511700,渠县,3,QU_XIAN,Q,四川省,达州市,渠县
511800,510000,雅安市,2,YA_AN_SHI,Y,四川省,雅安市,
511802,511800,雨城区,3,YU_CHENG_QU,Y,四川省,雅安市,雨城区
511803,511800,名山区,3,MING_SHAN_QU,M,四川省,雅安市,名山区
511822,511800,荥经县,3,YING_JING_XIAN,Y,四川省,雅安市,荥经县
511823,511800,汉源县,3,HAN_YUAN_XIAN,H,四川省,雅安市,汉源县
511824,511800,石棉县,3,SHI_MIAN_XIAN,S,四川省,雅安市,石棉县
511825,511800,天全县,3,TIAN_QUAN_XIAN,T,四川省,雅安市,天全县
511826,511800,芦山县,3,LU_SHAN_XIAN,L,四川省,雅安市,芦山县
511827,511800,宝兴县,3,BAO_XING_XIAN,B,四川省,雅安市,宝兴县
511900,510000,巴中市,2,BA_ZHONG_SHI,B,四川省,巴中市,
511902,511900,巴州区,3,BA_ZHOU_QU,B,四川省,巴中市,巴州区
511903,511900,恩阳区,3,EN_YANG_QU,E,四川省,巴中市,恩阳区
511921,511900,通江县,3,TONG_JIANG_XIAN,T,四川省,巴中市,通江县
511922,511900,南江县,3,NAN_JIANG_XIAN,N,四川省,巴中市,南江县
511923,511900,平昌县,3,PING_CHANG_XIAN,P,四川省,巴中市,平昌县
512000,510000,资阳市,2,ZI_YANG_SHI,Z,四川省,资阳市,
512002,512000,雁江区,3,YAN_JIANG_QU,Y,四川省,资阳市,雁江区
512022,512000,乐至县,3,LE_ZHI_XIAN,L,四川省,资阳市,乐至县
512021,512000,安岳县,3,AN_YUE_XIAN,A,四川省,资阳市,安岳县
513200,510000,阿坝藏族羌族自治州,2,A_BA_ZANG_ZU_QIANG_ZU_ZI_ZHI_ZHOU,A,四川省,阿坝藏族羌族自治州,
513201,513200,马尔康市,3,MA_ER_KANG_SHI,M,四川省,阿坝藏族羌族自治州,马尔康市
513221,513200,汶川县,3,WEN_CHUAN_XIAN,W,四川省,阿坝藏族羌族自治州,汶川县
513222,513200,理县,3,LI_XIAN,L,四川省,阿坝藏族羌族自治州,理县
513223,513200,茂县,3,MAO_XIAN,M,四川省,阿坝藏族羌族自治州,茂县
513224,513200,松潘县,3,SONG_PAN_XIAN,S,四川省,阿坝藏族羌族自治州,松潘县
513225,513200,九寨沟县,3,JIU_ZHAI_GOU_XIAN,J,四川省,阿坝藏族羌族自治州,九寨沟县
513226,513200,金川县,3,JIN_CHUAN_XIAN,J,四川省,阿坝藏族羌族自治州,金川县
513227,513200,小金县,3,XIAO_JIN_XIAN,X,四川省,阿坝藏族羌族自治州,小金县
513228,513200,黑水县,3,HEI_SHUI_XIAN,H,四川省,阿坝藏族羌族自治州,黑水县
513230,513200,壤塘县,3,RANG_TANG_XIAN,R,四川省,阿坝藏族羌族自治州,壤塘县
513231,513200,阿坝县,3,A_BA_XIAN,A,四川省,阿坝藏族羌族自治州,阿坝县
513232,513200,若尔盖县,3,RUO_ER_GAI_XIAN,R,四川省,阿坝藏族羌族自治州,若尔盖县
513233,513200,红原县,3,HONG_YUAN_XIAN,H,四川省,阿坝藏族羌族自治州,红原县
513300,510000,甘孜藏族自治州,2,GAN_ZI_ZANG_ZU_ZI_ZHI_ZHOU,G,四川省,甘孜藏族自治州,
513301,513300,康定市,3,KANG_DING_SHI,K,四川省,甘孜藏族自治州,康定市
513322,513300,泸定县,3,LU_DING_XIAN,L,四川省,甘孜藏族自治州,泸定县
513323,513300,丹巴县,3,DAN_BA_XIAN,D,四川省,甘孜藏族自治州,丹巴县
513324,513300,九龙县,3,JIU_LONG_XIAN,J,四川省,甘孜藏族自治州,九龙县
513325,513300,雅江县,3,YA_JIANG_XIAN,Y,四川省,甘孜藏族自治州,雅江县
513326,513300,道孚县,3,DAO_FU_XIAN,D,四川省,甘孜藏族自治州,道孚县
513327,513300,炉霍县,3,LU_HUO_XIAN,L,四川省,甘孜藏族自治州,炉霍县
513328,513300,甘孜县,3,GAN_ZI_XIAN,G,四川省,甘孜藏族自治州,甘孜县
513329,513300,新龙县,3,XIN_LONG_XIAN,X,四川省,甘孜藏族自治州,新龙县
513330,513300,德格县,3,DE_GE_XIAN,D,四川省,甘孜藏族自治州,德格县
513331,513300,白玉县,3,BAI_YU_XIAN,B,四川省,甘孜藏族自治州,白玉县
513332,513300,石渠县,3,SHI_QU_XIAN,S,四川省,甘孜藏族自治州,石渠县
513333,513300,色达县,3,SE_DA_XIAN,S,四川省,甘孜藏族自治州,色达县
513334,513300,理塘县,3,LI_TANG_XIAN,L,四川省,甘孜藏族自治州,理塘县
513335,513300,巴塘县,3,BA_TANG_XIAN,B,四川省,甘孜藏族自治州,巴塘县
513336,513300,乡城县,3,XIANG_CHENG_XIAN,X,四川省,甘孜藏族自治州,乡城县
513337,513300,稻城县,3,DAO_CHENG_XIAN,D,四川省,甘孜藏族自治州,稻城县
513338,513300,得荣县,3,DE_RONG_XIAN,D,四川省,甘孜藏族自治州,得荣县
513400,510000,凉山彝族自治州,2,LIANG_SHAN_YI_ZU_ZI_ZHI_ZHOU,L,四川省,凉山彝族自治州,
513401,513400,西昌市,3,XI_CHANG_SHI,X,四川省,凉山彝族自治州,西昌市
513423,513400,盐源县,3,YAN_YUAN_XIAN,Y,四川省,凉山彝族自治州,盐源县
513424,513400,德昌县,3,DE_CHANG_XIAN,D,四川省,凉山彝族自治州,德昌县
513425,513400,会理县,3,HUI_LI_XIAN,H,四川省,凉山彝族自治州,会理县
513426,513400,会东县,3,HUI_DONG_XIAN,H,四川省,凉山彝族自治州,会东县
513427,513400,宁南县,3,NING_NAN_XIAN,N,四川省,凉山彝族自治州,宁南县
513428,513400,普格县,3,PU_GE_XIAN,P,四川省,凉山彝族自治州,普格县
513429,513400,布拖县,3,BU_TUO_XIAN,B,四川省,凉山彝族自治州,布拖县
513430,513400,金阳县,3,JIN_YANG_XIAN,J,四川省,凉山彝族自治州,金阳县
513431,513400,昭觉县,3,ZHAO_JUE_XIAN,Z,四川省,凉山彝族自治州,昭觉县
513432,513400,喜德县,3,XI_DE_XIAN,X,四川省,凉山彝族自治州,喜德县
513433,513400,冕宁县,3,MIAN_NING_XIAN,M,四川省,凉山彝族自治州,冕宁县
513434,513400,越西县,3,YUE_XI_XIAN,Y,四川省,凉山彝族自治州,越西县
513435,513400,甘洛县,3,GAN_LUO_XIAN,G,四川省,凉山彝族自治州,甘洛县
513436,513400,美姑县,3,MEI_GU_XIAN,M,四川省,凉山彝族自治州,美姑县
513437,513400,雷波县,3,LEI_BO_XIAN,L,四川省,凉山彝族自治州,雷波县
513422,513400,木里藏族自治县,3,MU_LI_ZANG_ZU_ZI_ZHI_XIAN,M,四川省,凉山彝族自治州,木里藏族自治县
520000,100000,贵州省,1,GUI_ZHOU_SHENG,G,贵州省,,
520100,520000,贵阳市,2,GUI_YANG_SHI,G,贵州省,贵阳市,
520112,520100,乌当区,3,WU_DANG_QU,W,贵州省,贵阳市,乌当区
520102,520100,南明区,3,NAN_MING_QU,N,贵州省,贵阳市,南明区
520103,520100,云岩区,3,YUN_YAN_QU,Y,贵州省,贵阳市,云岩区
520111,520100,花溪区,3,HUA_XI_QU,H,贵州省,贵阳市,花溪区
520113,520100,白云区,3,BAI_YUN_QU,B,贵州省,贵阳市,白云区
520115,520100,观山湖区,3,GUAN_SHAN_HU_QU,G,贵州省,贵阳市,观山湖区
520181,520100,清镇市,3,QING_ZHEN_SHI,Q,贵州省,贵阳市,清镇市
520121,520100,开阳县,3,KAI_YANG_XIAN,K,贵州省,贵阳市,开阳县
520122,520100,息烽县,3,XI_FENG_XIAN,X,贵州省,贵阳市,息烽县
520123,520100,修文县,3,XIU_WEN_XIAN,X,贵州省,贵阳市,修文县
520200,520000,六盘水市,2,LIU_PAN_SHUI_SHI,L,贵州省,六盘水市,
520201,520200,钟山区,3,ZHONG_SHAN_QU,Z,贵州省,六盘水市,钟山区
520281,520200,盘州市,3,PAN_ZHOU_SHI,P,贵州省,六盘水市,盘州市
520221,520200,水城县,3,SHUI_CHENG_XIAN,S,贵州省,六盘水市,水城县
520203,520200,六枝特区,3,LIU_ZHI_TE_QU,L,贵州省,六盘水市,六枝特区
520300,520000,遵义市,2,ZUN_YI_SHI,Z,贵州省,遵义市,
520303,520300,汇川区,3,HUI_CHUAN_QU,H,贵州省,遵义市,汇川区
520302,520300,红花岗区,3,HONG_HUA_GANG_QU,H,贵州省,遵义市,红花岗区
520304,520300,播州区,3,BO_ZHOU_QU,B,贵州省,遵义市,播州区
520381,520300,赤水市,3,CHI_SHUI_SHI,C,贵州省,遵义市,赤水市
520382,520300,仁怀市,3,REN_HUAI_SHI,R,贵州省,遵义市,仁怀市
520322,520300,桐梓县,3,TONG_ZI_XIAN,T,贵州省,遵义市,桐梓县
520323,520300,绥阳县,3,SUI_YANG_XIAN,S,贵州省,遵义市,绥阳县
520324,520300,正安县,3,ZHENG_AN_XIAN,Z,贵州省,遵义市,正安县
520327,520300,凤冈县,3,FENG_GANG_XIAN,F,贵州省,遵义市,凤冈县
520328,520300,湄潭县,3,MEI_TAN_XIAN,M,贵州省,遵义市,湄潭县
520329,520300,余庆县,3,YU_QING_XIAN,Y,贵州省,遵义市,余庆县
520330,520300,习水县,3,XI_SHUI_XIAN,X,贵州省,遵义市,习水县
520325,520300,道真仡佬族苗族自治县,3,DAO_ZHEN_GE_LAO_ZU_MIAO_ZU_ZI_ZHI_XIAN,D,贵州省,遵义市,道真仡佬族苗族自治县
520326,520300,务川仡佬族苗族自治县,3,WU_CHUAN_GE_LAO_ZU_MIAO_ZU_ZI_ZHI_XIAN,W,贵州省,遵义市,务川仡佬族苗族自治县
520400,520000,安顺市,2,AN_SHUN_SHI,A,贵州省,安顺市,
520402,520400,西秀区,3,XI_XIU_QU,X,贵州省,安顺市,西秀区
520403,520400,平坝区,3,PING_BA_QU,P,贵州省,安顺市,平坝区
520422,520400,普定县,3,PU_DING_XIAN,P,贵州省,安顺市,普定县
520423,520400,镇宁布依族苗族自治县,3,ZHEN_NING_BU_YI_ZU_MIAO_ZU_ZI_ZHI_XIAN,Z,贵州省,安顺市,镇宁布依族苗族自治县
520424,520400,关岭布依族苗族自治县,3,GUAN_LING_BU_YI_ZU_MIAO_ZU_ZI_ZHI_XIAN,G,贵州省,安顺市,关岭布依族苗族自治县
520425,520400,紫云苗族布依族自治县,3,ZI_YUN_MIAO_ZU_BU_YI_ZU_ZI_ZHI_XIAN,Z,贵州省,安顺市,紫云苗族布依族自治县
520500,520000,毕节市,2,BI_JIE_SHI,B,贵州省,毕节市,
520502,520500,七星关区,3,QI_XING_GUAN_QU,Q,贵州省,毕节市,七星关区
520521,520500,大方县,3,DA_FANG_XIAN,D,贵州省,毕节市,大方县
520522,520500,黔西县,3,QIAN_XI_XIAN,Q,贵州省,毕节市,黔西县
520523,520500,金沙县,3,JIN_SHA_XIAN,J,贵州省,毕节市,金沙县
520524,520500,织金县,3,ZHI_JIN_XIAN,Z,贵州省,毕节市,织金县
520525,520500,纳雍县,3,NA_YONG_XIAN,N,贵州省,毕节市,纳雍县
520527,520500,赫章县,3,HE_ZHANG_XIAN,H,贵州省,毕节市,赫章县
520526,520500,威宁彝族回族苗族自治县,3,WEI_NING_YI_ZU_HUI_ZU_MIAO_ZU_ZI_ZHI_XIAN,W,贵州省,毕节市,威宁彝族回族苗族自治县
520600,520000,铜仁市,2,TONG_REN_SHI,T,贵州省,铜仁市,
520602,520600,碧江区,3,BI_JIANG_QU,B,贵州省,铜仁市,碧江区
520603,520600,万山区,3,WAN_SHAN_QU,W,贵州省,铜仁市,万山区
520621,520600,江口县,3,JIANG_KOU_XIAN,J,贵州省,铜仁市,江口县
520623,520600,石阡县,3,SHI_QIAN_XIAN,S,贵州省,铜仁市,石阡县
520624,520600,思南县,3,SI_NAN_XIAN,S,贵州省,铜仁市,思南县
520626,520600,德江县,3,DE_JIANG_XIAN,D,贵州省,铜仁市,德江县
520622,520600,玉屏侗族自治县,3,YU_PING_DONG_ZU_ZI_ZHI_XIAN,Y,贵州省,铜仁市,玉屏侗族自治县
520625,520600,印江土家族苗族自治县,3,YIN_JIANG_TU_JIA_ZU_MIAO_ZU_ZI_ZHI_XIAN,Y,贵州省,铜仁市,印江土家族苗族自治县
520627,520600,沿河土家族自治县,3,YAN_HE_TU_JIA_ZU_ZI_ZHI_XIAN,Y,贵州省,铜仁市,沿河土家族自治县
520628,520600,松桃苗族自治县,3,SONG_TAO_MIAO_ZU_ZI_ZHI_XIAN,S,贵州省,铜仁市,松桃苗族自治县
522300,520000,黔西南布依族苗族自治州,2,QIAN_XI_NAN_BU_YI_ZU_MIAO_ZU_ZI_ZHI_ZHOU,Q,贵州省,黔西南布依族苗族自治州,
522301,522300,兴义市,3,XING_YI_SHI,X,贵州省,黔西南布依族苗族自治州,兴义市
522322,522300,兴仁县,3,XING_REN_XIAN,X,贵州省,黔西南布依族苗族自治州,兴仁县
522323,522300,普安县,3,PU_AN_XIAN,P,贵州省,黔西南布依族苗族自治州,普安县
522324,522300,晴隆县,3,QING_LONG_XIAN,Q,贵州省,黔西南布依族苗族自治州,晴隆县
522325,522300,贞丰县,3,ZHEN_FENG_XIAN,Z,贵州省,黔西南布依族苗族自治州,贞丰县
522326,522300,望谟县,3,WANG_MO_XIAN,W,贵州省,黔西南布依族苗族自治州,望谟县
522327,522300,册亨县,3,CE_HENG_XIAN,C,贵州省,黔西南布依族苗族自治州,册亨县
522328,522300,安龙县,3,AN_LONG_XIAN,A,贵州省,黔西南布依族苗族自治州,安龙县
522600,520000,黔东南苗族侗族自治州,2,QIAN_DONG_NAN_MIAO_ZU_DONG_ZU_ZI_ZHI_ZHOU,Q,贵州省,黔东南苗族侗族自治州,
522601,522600,凯里市,3,KAI_LI_SHI,K,贵州省,黔东南苗族侗族自治州,凯里市
522622,522600,黄平县,3,HUANG_PING_XIAN,H,贵州省,黔东南苗族侗族自治州,黄平县
522623,522600,施秉县,3,SHI_BING_XIAN,S,贵州省,黔东南苗族侗族自治州,施秉县
522624,522600,三穗县,3,SAN_SUI_XIAN,S,贵州省,黔东南苗族侗族自治州,三穗县
522625,522600,镇远县,3,ZHEN_YUAN_XIAN,Z,贵州省,黔东南苗族侗族自治州,镇远县
522626,522600,岑巩县,3,CEN_GONG_XIAN,C,贵州省,黔东南苗族侗族自治州,岑巩县
522627,522600,天柱县,3,TIAN_ZHU_XIAN,T,贵州省,黔东南苗族侗族自治州,天柱县
522628,522600,锦屏县,3,JIN_PING_XIAN,J,贵州省,黔东南苗族侗族自治州,锦屏县
522629,522600,剑河县,3,JIAN_HE_XIAN,J,贵州省,黔东南苗族侗族自治州,剑河县
522630,522600,台江县,3,TAI_JIANG_XIAN,T,贵州省,黔东南苗族侗族自治州,台江县
522631,522600,黎平县,3,LI_PING_XIAN,L,贵州省,黔东南苗族侗族自治州,黎平县
522632,522600,榕江县,3,RONG_JIANG_XIAN,R,贵州省,黔东南苗族侗族自治州,榕江县
522633,522600,从江县,3,CONG_JIANG_XIAN,C,贵州省,黔东南苗族侗族自治州,从江县
522634,522600,雷山县,3,LEI_SHAN_XIAN,L,贵州省,黔东南苗族侗族自治州,雷山县
522635,522600,麻江县,3,MA_JIANG_XIAN,M,贵州省,黔东南苗族侗族自治州,麻江县
522636,522600,丹寨县,3,DAN_ZHAI_XIAN,D,贵州省,黔东南苗族侗族自治州,丹寨县
522700,520000,黔南布依族苗族自治州,2,QIAN_NAN_BU_YI_ZU_MIAO_ZU_ZI_ZHI_ZHOU,Q,贵州省,黔南布依族苗族自治州,
522701,522700,都匀市,3,DOU_YUN_SHI,D,贵州省,黔南布依族苗族自治州,都匀市
522702,522700,福泉市,3,FU_QUAN_SHI,F,贵州省,黔南布依族苗族自治州,福泉市
522722,522700,荔波县,3,LI_BO_XIAN,L,贵州省,黔南布依族苗族自治州,荔波县
522723,522700,贵定县,3,GUI_DING_XIAN,G,贵州省,黔南布依族苗族自治州,贵定县
522725,522700,瓮安县,3,WENG_AN_XIAN,W,贵州省,黔南布依族苗族自治州,瓮安县
522726,522700,独山县,3,DU_SHAN_XIAN,D,贵州省,黔南布依族苗族自治州,独山县
522727,522700,平塘县,3,PING_TANG_XIAN,P,贵州省,黔南布依族苗族自治州,平塘县
522728,522700,罗甸县,3,LUO_DIAN_XIAN,L,贵州省,黔南布依族苗族自治州,罗甸县
522729,522700,长顺县,3,ZHANG_SHUN_XIAN,Z,贵州省,黔南布依族苗族自治州,长顺县
522730,522700,龙里县,3,LONG_LI_XIAN,L,贵州省,黔南布依族苗族自治州,龙里县
522731,522700,惠水县,3,HUI_SHUI_XIAN,H,贵州省,黔南布依族苗族自治州,惠水县
522732,522700,三都水族自治县,3,SAN_DOU_SHUI_ZU_ZI_ZHI_XIAN,S,贵州省,黔南布依族苗族自治州,三都水族自治县
530000,100000,云南省,1,YUN_NAN_SHENG,Y,云南省,,
530100,530000,昆明市,2,KUN_MING_SHI,K,云南省,昆明市,
530114,530100,呈贡区,3,CHENG_GONG_QU,C,云南省,昆明市,呈贡区
530102,530100,五华区,3,WU_HUA_QU,W,云南省,昆明市,五华区
530103,530100,盘龙区,3,PAN_LONG_QU,P,云南省,昆明市,盘龙区
530111,530100,官渡区,3,GUAN_DU_QU,G,云南省,昆明市,官渡区
530112,530100,西山区,3,XI_SHAN_QU,X,云南省,昆明市,西山区
530113,530100,东川区,3,DONG_CHUAN_QU,D,云南省,昆明市,东川区
530115,530100,晋宁区,3,JIN_NING_QU,J,云南省,昆明市,晋宁区
530181,530100,安宁市,3,AN_NING_SHI,A,云南省,昆明市,安宁市
530124,530100,富民县,3,FU_MIN_XIAN,F,云南省,昆明市,富民县
530125,530100,宜良县,3,YI_LIANG_XIAN,Y,云南省,昆明市,宜良县
530127,530100,嵩明县,3,SONG_MING_XIAN,S,云南省,昆明市,嵩明县
530126,530100,石林彝族自治县,3,SHI_LIN_YI_ZU_ZI_ZHI_XIAN,S,云南省,昆明市,石林彝族自治县
530128,530100,禄劝彝族苗族自治县,3,LU_QUAN_YI_ZU_MIAO_ZU_ZI_ZHI_XIAN,L,云南省,昆明市,禄劝彝族苗族自治县
530129,530100,寻甸回族彝族自治县,3,XUN_DIAN_HUI_ZU_YI_ZU_ZI_ZHI_XIAN,X,云南省,昆明市,寻甸回族彝族自治县
530300,530000,曲靖市,2,QU_JING_SHI,Q,云南省,曲靖市,
530302,530300,麒麟区,3,QI_LIN_QU,Q,云南省,曲靖市,麒麟区
530303,530300,沾益区,3,ZHAN_YI_QU,Z,云南省,曲靖市,沾益区
530381,530300,宣威市,3,XUAN_WEI_SHI,X,云南省,曲靖市,宣威市
530321,530300,马龙县,3,MA_LONG_XIAN,M,云南省,曲靖市,马龙县
530322,530300,陆良县,3,LU_LIANG_XIAN,L,云南省,曲靖市,陆良县
530323,530300,师宗县,3,SHI_ZONG_XIAN,S,云南省,曲靖市,师宗县
530324,530300,罗平县,3,LUO_PING_XIAN,L,云南省,曲靖市,罗平县
530325,530300,富源县,3,FU_YUAN_XIAN,F,云南省,曲靖市,富源县
530326,530300,会泽县,3,HUI_ZE_XIAN,H,云南省,曲靖市,会泽县
530400,530000,玉溪市,2,YU_XI_SHI,Y,云南省,玉溪市,
530402,530400,红塔区,3,HONG_TA_QU,H,云南省,玉溪市,红塔区
530403,530400,江川区,3,JIANG_CHUAN_QU,J,云南省,玉溪市,江川区
530422,530400,澄江县,3,CHENG_JIANG_XIAN,C,云南省,玉溪市,澄江县
530423,530400,通海县,3,TONG_HAI_XIAN,T,云南省,玉溪市,通海县
530424,530400,华宁县,3,HUA_NING_XIAN,H,云南省,玉溪市,华宁县
530425,530400,易门县,3,YI_MEN_XIAN,Y,云南省,玉溪市,易门县
530426,530400,峨山彝族自治县,3,E_SHAN_YI_ZU_ZI_ZHI_XIAN,E,云南省,玉溪市,峨山彝族自治县
530427,530400,新平彝族傣族自治县,3,XIN_PING_YI_ZU_DAI_ZU_ZI_ZHI_XIAN,X,云南省,玉溪市,新平彝族傣族自治县
530428,530400,元江哈尼族彝族傣族自治县,3,YUAN_JIANG_HA_NI_ZU_YI_ZU_DAI_ZU_ZI_ZHI_XIAN,Y,云南省,玉溪市,元江哈尼族彝族傣族自治县
530500,530000,保山市,2,BAO_SHAN_SHI,B,云南省,保山市,
530502,530500,隆阳区,3,LONG_YANG_QU,L,云南省,保山市,隆阳区
530581,530500,腾冲市,3,TENG_CHONG_SHI,T,云南省,保山市,腾冲市
530521,530500,施甸县,3,SHI_DIAN_XIAN,S,云南省,保山市,施甸县
530523,530500,龙陵县,3,LONG_LING_XIAN,L,云南省,保山市,龙陵县
530524,530500,昌宁县,3,CHANG_NING_XIAN,C,云南省,保山市,昌宁县
530600,530000,昭通市,2,ZHAO_TONG_SHI,Z,云南省,昭通市,
530602,530600,昭阳区,3,ZHAO_YANG_QU,Z,云南省,昭通市,昭阳区
530621,530600,鲁甸县,3,LU_DIAN_XIAN,L,云南省,昭通市,鲁甸县
530622,530600,巧家县,3,QIAO_JIA_XIAN,Q,云南省,昭通市,巧家县
530623,530600,盐津县,3,YAN_JIN_XIAN,Y,云南省,昭通市,盐津县
530624,530600,大关县,3,DA_GUAN_XIAN,D,云南省,昭通市,大关县
530625,530600,永善县,3,YONG_SHAN_XIAN,Y,云南省,昭通市,永善县
530626,530600,绥江县,3,SUI_JIANG_XIAN,S,云南省,昭通市,绥江县
530627,530600,镇雄县,3,ZHEN_XIONG_XIAN,Z,云南省,昭通市,镇雄县
530628,530600,彝良县,3,YI_LIANG_XIAN,Y,云南省,昭通市,彝良县
530629,530600,威信县,3,WEI_XIN_XIAN,W,云南省,昭通市,威信县
530630,530600,水富县,3,SHUI_FU_XIAN,S,云南省,昭通市,水富县
530700,530000,丽江市,2,LI_JIANG_SHI,L,云南省,丽江市,
530702,530700,古城区,3,GU_CHENG_QU,G,云南省,丽江市,古城区
530722,530700,永胜县,3,YONG_SHENG_XIAN,Y,云南省,丽江市,永胜县
530723,530700,华坪县,3,HUA_PING_XIAN,H,云南省,丽江市,华坪县
530721,530700,玉龙纳西族自治县,3,YU_LONG_NA_XI_ZU_ZI_ZHI_XIAN,Y,云南省,丽江市,玉龙纳西族自治县
530724,530700,宁蒗彝族自治县,3,NING_LANG_YI_ZU_ZI_ZHI_XIAN,N,云南省,丽江市,宁蒗彝族自治县
530800,530000,普洱市,2,PU_ER_SHI,P,云南省,普洱市,
530802,530800,思茅区,3,SI_MAO_QU,S,云南省,普洱市,思茅区
530821,530800,宁洱哈尼族彝族自治县,3,NING_ER_HA_NI_ZU_YI_ZU_ZI_ZHI_XIAN,N,云南省,普洱市,宁洱哈尼族彝族自治县
530822,530800,墨江哈尼族自治县,3,MO_JIANG_HA_NI_ZU_ZI_ZHI_XIAN,M,云南省,普洱市,墨江哈尼族自治县
530823,530800,景东彝族自治县,3,JING_DONG_YI_ZU_ZI_ZHI_XIAN,J,云南省,普洱市,景东彝族自治县
530824,530800,景谷傣族彝族自治县,3,JING_GU_DAI_ZU_YI_ZU_ZI_ZHI_XIAN,J,云南省,普洱市,景谷傣族彝族自治县
530825,530800,镇沅彝族哈尼族拉祜族自治县,3,ZHEN_YUAN_YI_ZU_HA_NI_ZU_LA_HU_ZU_ZI_ZHI_XIAN,Z,云南省,普洱市,镇沅彝族哈尼族拉祜族自治县
530826,530800,江城哈尼族彝族自治县,3,JIANG_CHENG_HA_NI_ZU_YI_ZU_ZI_ZHI_XIAN,J,云南省,普洱市,江城哈尼族彝族自治县
530827,530800,孟连傣族拉祜族佤族自治县,3,MENG_LIAN_DAI_ZU_LA_HU_ZU_WA_ZU_ZI_ZHI_XIAN,M,云南省,普洱市,孟连傣族拉祜族佤族自治县
530828,530800,澜沧拉祜族自治县,3,LAN_CANG_LA_HU_ZU_ZI_ZHI_XIAN,L,云南省,普洱市,澜沧拉祜族自治县
530829,530800,西盟佤族自治县,3,XI_MENG_WA_ZU_ZI_ZHI_XIAN,X,云南省,普洱市,西盟佤族自治县
530900,530000,临沧市,2,LIN_CANG_SHI,L,云南省,临沧市,
530902,530900,临翔区,3,LIN_XIANG_QU,L,云南省,临沧市,临翔区
530921,530900,凤庆县,3,FENG_QING_XIAN,F,云南省,临沧市,凤庆县
530922,530900,云县,3,YUN_XIAN,Y,云南省,临沧市,云县
530923,530900,永德县,3,YONG_DE_XIAN,Y,云南省,临沧市,永德县
530924,530900,镇康县,3,ZHEN_KANG_XIAN,Z,云南省,临沧市,镇康县
530925,530900,双江拉祜族佤族布朗族傣族自治县,3,SHUANG_JIANG_LA_HU_ZU_WA_ZU_BU_LANG_ZU_DAI_ZU_ZI_ZHI_XIAN,S,云南省,临沧市,双江拉祜族佤族布朗族傣族自治县
530926,530900,耿马傣族佤族自治县,3,GENG_MA_DAI_ZU_WA_ZU_ZI_ZHI_XIAN,G,云南省,临沧市,耿马傣族佤族自治县
530927,530900,沧源佤族自治县,3,CANG_YUAN_WA_ZU_ZI_ZHI_XIAN,C,云南省,临沧市,沧源佤族自治县
532300,530000,楚雄彝族自治州,2,CHU_XIONG_YI_ZU_ZI_ZHI_ZHOU,C,云南省,楚雄彝族自治州,
532301,532300,楚雄市,3,CHU_XIONG_SHI,C,云南省,楚雄彝族自治州,楚雄市
532322,532300,双柏县,3,SHUANG_BO_XIAN,S,云南省,楚雄彝族自治州,双柏县
532323,532300,牟定县,3,MOU_DING_XIAN,M,云南省,楚雄彝族自治州,牟定县
532324,532300,南华县,3,NAN_HUA_XIAN,N,云南省,楚雄彝族自治州,南华县
532325,532300,姚安县,3,YAO_AN_XIAN,Y,云南省,楚雄彝族自治州,姚安县
532326,532300,大姚县,3,DA_YAO_XIAN,D,云南省,楚雄彝族自治州,大姚县
532327,532300,永仁县,3,YONG_REN_XIAN,Y,云南省,楚雄彝族自治州,永仁县
532328,532300,元谋县,3,YUAN_MOU_XIAN,Y,云南省,楚雄彝族自治州,元谋县
532329,532300,武定县,3,WU_DING_XIAN,W,云南省,楚雄彝族自治州,武定县
532331,532300,禄丰县,3,LU_FENG_XIAN,L,云南省,楚雄彝族自治州,禄丰县
532500,530000,红河哈尼族彝族自治州,2,HONG_HE_HA_NI_ZU_YI_ZU_ZI_ZHI_ZHOU,H,云南省,红河哈尼族彝族自治州,
532503,532500,蒙自市,3,MENG_ZI_SHI,M,云南省,红河哈尼族彝族自治州,蒙自市
532501,532500,个旧市,3,GE_JIU_SHI,G,云南省,红河哈尼族彝族自治州,个旧市
532502,532500,开远市,3,KAI_YUAN_SHI,K,云南省,红河哈尼族彝族自治州,开远市
532504,532500,弥勒市,3,MI_LE_SHI,M,云南省,红河哈尼族彝族自治州,弥勒市
532524,532500,建水县,3,JIAN_SHUI_XIAN,J,云南省,红河哈尼族彝族自治州,建水县
532525,532500,石屏县,3,SHI_PING_XIAN,S,云南省,红河哈尼族彝族自治州,石屏县
532527,532500,泸西县,3,LU_XI_XIAN,L,云南省,红河哈尼族彝族自治州,泸西县
532528,532500,元阳县,3,YUAN_YANG_XIAN,Y,云南省,红河哈尼族彝族自治州,元阳县
532529,532500,红河县,3,HONG_HE_XIAN,H,云南省,红河哈尼族彝族自治州,红河县
532531,532500,绿春县,3,LV_CHUN_XIAN,L,云南省,红河哈尼族彝族自治州,绿春县
532523,532500,屏边苗族自治县,3,PING_BIAN_MIAO_ZU_ZI_ZHI_XIAN,P,云南省,红河哈尼族彝族自治州,屏边苗族自治县
532530,532500,金平苗族瑶族傣族自治县,3,JIN_PING_MIAO_ZU_YAO_ZU_DAI_ZU_ZI_ZHI_XIAN,J,云南省,红河哈尼族彝族自治州,金平苗族瑶族傣族自治县
532532,532500,河口瑶族自治县,3,HE_KOU_YAO_ZU_ZI_ZHI_XIAN,H,云南省,红河哈尼族彝族自治州,河口瑶族自治县
532600,530000,文山壮族苗族自治州,2,WEN_SHAN_ZHUANG_ZU_MIAO_ZU_ZI_ZHI_ZHOU,W,云南省,文山壮族苗族自治州,
532601,532600,文山市,3,WEN_SHAN_SHI,W,云南省,文山壮族苗族自治州,文山市
532622,532600,砚山县,3,YAN_SHAN_XIAN,Y,云南省,文山壮族苗族自治州,砚山县
532623,532600,西畴县,3,XI_CHOU_XIAN,X,云南省,文山壮族苗族自治州,西畴县
532624,532600,麻栗坡县,3,MA_LI_PO_XIAN,M,云南省,文山壮族苗族自治州,麻栗坡县
532625,532600,马关县,3,MA_GUAN_XIAN,M,云南省,文山壮族苗族自治州,马关县
532626,532600,丘北县,3,QIU_BEI_XIAN,Q,云南省,文山壮族苗族自治州,丘北县
532627,532600,广南县,3,GUANG_NAN_XIAN,G,云南省,文山壮族苗族自治州,广南县
532628,532600,富宁县,3,FU_NING_XIAN,F,云南省,文山壮族苗族自治州,富宁县
532800,530000,西双版纳傣族自治州,2,XI_SHUANG_BAN_NA_DAI_ZU_ZI_ZHI_ZHOU,X,云南省,西双版纳傣族自治州,
532801,532800,景洪市,3,JING_HONG_SHI,J,云南省,西双版纳傣族自治州,景洪市
532822,532800,勐海县,3,MENG_HAI_XIAN,M,云南省,西双版纳傣族自治州,勐海县
532823,532800,勐腊县,3,MENG_LA_XIAN,M,云南省,西双版纳傣族自治州,勐腊县
532900,530000,大理白族自治州,2,DA_LI_BAI_ZU_ZI_ZHI_ZHOU,D,云南省,大理白族自治州,
532901,532900,大理市,3,DA_LI_SHI,D,云南省,大理白族自治州,大理市
532923,532900,祥云县,3,XIANG_YUN_XIAN,X,云南省,大理白族自治州,祥云县
532924,532900,宾川县,3,BIN_CHUAN_XIAN,B,云南省,大理白族自治州,宾川县
532925,532900,弥渡县,3,MI_DU_XIAN,M,云南省,大理白族自治州,弥渡县
532928,532900,永平县,3,YONG_PING_XIAN,Y,云南省,大理白族自治州,永平县
532929,532900,云龙县,3,YUN_LONG_XIAN,Y,云南省,大理白族自治州,云龙县
532930,532900,洱源县,3,ER_YUAN_XIAN,E,云南省,大理白族自治州,洱源县
532931,532900,剑川县,3,JIAN_CHUAN_XIAN,J,云南省,大理白族自治州,剑川县
532932,532900,鹤庆县,3,HE_QING_XIAN,H,云南省,大理白族自治州,鹤庆县
532922,532900,漾濞彝族自治县,3,YANG_BI_YI_ZU_ZI_ZHI_XIAN,Y,云南省,大理白族自治州,漾濞彝族自治县
532926,532900,南涧彝族自治县,3,NAN_JIAN_YI_ZU_ZI_ZHI_XIAN,N,云南省,大理白族自治州,南涧彝族自治县
532927,532900,巍山彝族回族自治县,3,WEI_SHAN_YI_ZU_HUI_ZU_ZI_ZHI_XIAN,W,云南省,大理白族自治州,巍山彝族回族自治县
533100,530000,德宏傣族景颇族自治州,2,DE_HONG_DAI_ZU_JING_PO_ZU_ZI_ZHI_ZHOU,D,云南省,德宏傣族景颇族自治州,
533103,533100,芒市,3,MANG_SHI,M,云南省,德宏傣族景颇族自治州,芒市
533102,533100,瑞丽市,3,RUI_LI_SHI,R,云南省,德宏傣族景颇族自治州,瑞丽市
533122,533100,梁河县,3,LIANG_HE_XIAN,L,云南省,德宏傣族景颇族自治州,梁河县
533123,533100,盈江县,3,YING_JIANG_XIAN,Y,云南省,德宏傣族景颇族自治州,盈江县
533124,533100,陇川县,3,LONG_CHUAN_XIAN,L,云南省,德宏傣族景颇族自治州,陇川县
533300,530000,怒江傈僳族自治州,2,NU_JIANG_LI_SU_ZU_ZI_ZHI_ZHOU,N,云南省,怒江傈僳族自治州,
533301,533300,泸水市,3,LU_SHUI_SHI,L,云南省,怒江傈僳族自治州,泸水市
533323,533300,福贡县,3,FU_GONG_XIAN,F,云南省,怒江傈僳族自治州,福贡县
533324,533300,贡山独龙族怒族自治县,3,GONG_SHAN_DU_LONG_ZU_NU_ZU_ZI_ZHI_XIAN,G,云南省,怒江傈僳族自治州,贡山独龙族怒族自治县
533325,533300,兰坪白族普米族自治县,3,LAN_PING_BAI_ZU_PU_MI_ZU_ZI_ZHI_XIAN,L,云南省,怒江傈僳族自治州,兰坪白族普米族自治县
533400,530000,迪庆藏族自治州,2,DI_QING_ZANG_ZU_ZI_ZHI_ZHOU,D,云南省,迪庆藏族自治州,
533401,533400,香格里拉市,3,XIANG_GE_LI_LA_SHI,X,云南省,迪庆藏族自治州,香格里拉市
533422,533400,德钦县,3,DE_QIN_XIAN,D,云南省,迪庆藏族自治州,德钦县
533423,533400,维西傈僳族自治县,3,WEI_XI_LI_SU_ZU_ZI_ZHI_XIAN,W,云南省,迪庆藏族自治州,维西傈僳族自治县
540000,100000,西藏自治区,1,XI_ZANG_ZI_ZHI_QU,X,西藏自治区,,
540100,540000,拉萨市,2,LA_SA_SHI,L,西藏自治区,拉萨市,
540102,540100,城关区,3,CHENG_GUAN_QU,C,西藏自治区,拉萨市,城关区
540121,540100,林周县,3,LIN_ZHOU_XIAN,L,西藏自治区,拉萨市,林周县
540122,540100,当雄县,3,DANG_XIONG_XIAN,D,西藏自治区,拉萨市,当雄县
540123,540100,尼木县,3,NI_MU_XIAN,N,西藏自治区,拉萨市,尼木县
540124,540100,曲水县,3,QU_SHUI_XIAN,Q,西藏自治区,拉萨市,曲水县
540103,540100,堆龙德庆区,3,DUI_LONG_DE_QING_QU,D,西藏自治区,拉萨市,堆龙德庆区
540126,540100,达孜县,3,DA_ZI_XIAN,D,西藏自治区,拉萨市,达孜县
540127,540100,墨竹工卡县,3,MO_ZHU_GONG_KA_XIAN,M,西藏自治区,拉萨市,墨竹工卡县
540200,540000,日喀则市,2,RI_KA_ZE_SHI,R,西藏自治区,日喀则市,
540202,540200,桑珠孜区,3,SANG_ZHU_ZI_QU,S,西藏自治区,日喀则市,桑珠孜区
540221,540200,南木林县,3,NAN_MU_LIN_XIAN,N,西藏自治区,日喀则市,南木林县
540222,540200,江孜县,3,JIANG_ZI_XIAN,J,西藏自治区,日喀则市,江孜县
540223,540200,定日县,3,DING_RI_XIAN,D,西藏自治区,日喀则市,定日县
540224,540200,萨迦县,3,SA_JIA_XIAN,S,西藏自治区,日喀则市,萨迦县
540225,540200,拉孜县,3,LA_ZI_XIAN,L,西藏自治区,日喀则市,拉孜县
540226,540200,昂仁县,3,ANG_REN_XIAN,A,西藏自治区,日喀则市,昂仁县
540227,540200,谢通门县,3,XIE_TONG_MEN_XIAN,X,西藏自治区,日喀则市,谢通门县
540228,540200,白朗县,3,BAI_LANG_XIAN,B,西藏自治区,日喀则市,白朗县
540229,540200,仁布县,3,REN_BU_XIAN,R,西藏自治区,日喀则市,仁布县
540230,540200,康马县,3,KANG_MA_XIAN,K,西藏自治区,日喀则市,康马县
540231,540200,定结县,3,DING_JIE_XIAN,D,西藏自治区,日喀则市,定结县
540232,540200,仲巴县,3,ZHONG_BA_XIAN,Z,西藏自治区,日喀则市,仲巴县
540233,540200,亚东县,3,YA_DONG_XIAN,Y,西藏自治区,日喀则市,亚东县
540234,540200,吉隆县,3,JI_LONG_XIAN,J,西藏自治区,日喀则市,吉隆县
540235,540200,聂拉木县,3,NIE_LA_MU_XIAN,N,西藏自治区,日喀则市,聂拉木县
540236,540200,萨嘎县,3,SA_GA_XIAN,S,西藏自治区,日喀则市,萨嘎县
540237,540200,岗巴县,3,GANG_BA_XIAN,G,西藏自治区,日喀则市,岗巴县
540300,540000,昌都市,2,CHANG_DOU_SHI,C,西藏自治区,昌都市,
540302,540300,卡若区,3,KA_RUO_QU,K,西藏自治区,昌都市,卡若区
540321,540300,江达县,3,JIANG_DA_XIAN,J,西藏自治区,昌都市,江达县
540322,540300,贡觉县,3,GONG_JUE_XIAN,G,西藏自治区,昌都市,贡觉县
540323,540300,类乌齐县,3,LEI_WU_QI_XIAN,L,西藏自治区,昌都市,类乌齐县
540324,540300,丁青县,3,DING_QING_XIAN,D,西藏自治区,昌都市,丁青县
540325,540300,察雅县,3,CHA_YA_XIAN,C,西藏自治区,昌都市,察雅县
540326,540300,八宿县,3,BA_SU_XIAN,B,西藏自治区,昌都市,八宿县
540327,540300,左贡县,3,ZUO_GONG_XIAN,Z,西藏自治区,昌都市,左贡县
540328,540300,芒康县,3,MANG_KANG_XIAN,M,西藏自治区,昌都市,芒康县
540329,540300,洛隆县,3,LUO_LONG_XIAN,L,西藏自治区,昌都市,洛隆县
540330,540300,边坝县,3,BIAN_BA_XIAN,B,西藏自治区,昌都市,边坝县
540400,540000,林芝市,2,LIN_ZHI_SHI,L,西藏自治区,林芝市,
540402,540400,巴宜区,3,BA_YI_QU,B,西藏自治区,林芝市,巴宜区
540421,540400,工布江达县,3,GONG_BU_JIANG_DA_XIAN,G,西藏自治区,林芝市,工布江达县
540422,540400,米林县,3,MI_LIN_XIAN,M,西藏自治区,林芝市,米林县
540423,540400,墨脱县,3,MO_TUO_XIAN,M,西藏自治区,林芝市,墨脱县
540424,540400,波密县,3,BO_MI_XIAN,B,西藏自治区,林芝市,波密县
540425,540400,察隅县,3,CHA_YU_XIAN,C,西藏自治区,林芝市,察隅县
540426,540400,朗县,3,LANG_XIAN,L,西藏自治区,林芝市,朗县
540500,540000,山南市,2,SHAN_NAN_SHI,S,西藏自治区,山南市,
540502,540500,乃东区,3,NAI_DONG_QU,N,西藏自治区,山南市,乃东区
540521,540500,扎囊县,3,ZHA_NANG_XIAN,Z,西藏自治区,山南市,扎囊县
540522,540500,贡嘎县,3,GONG_GA_XIAN,G,西藏自治区,山南市,贡嘎县
540523,540500,桑日县,3,SANG_RI_XIAN,S,西藏自治区,山南市,桑日县
540524,540500,琼结县,3,QIONG_JIE_XIAN,Q,西藏自治区,山南市,琼结县
540525,540500,曲松县,3,QU_SONG_XIAN,Q,西藏自治区,山南市,曲松县
540526,540500,措美县,3,CUO_MEI_XIAN,C,西藏自治区,山南市,措美县
540527,540500,洛扎县,3,LUO_ZHA_XIAN,L,西藏自治区,山南市,洛扎县
540528,540500,加查县,3,JIA_CHA_XIAN,J,西藏自治区,山南市,加查县
540529,540500,隆子县,3,LONG_ZI_XIAN,L,西藏自治区,山南市,隆子县
540530,540500,错那县,3,CUO_NEI_XIAN,C,西藏自治区,山南市,错那县
540531,540500,浪卡子县,3,LANG_KA_ZI_XIAN,L,西藏自治区,山南市,浪卡子县
542400,540000,那曲地区,2,NEI_QU_DI_QU,N,西藏自治区,那曲地区,
542421,542400,那曲县,3,NEI_QU_XIAN,N,西藏自治区,那曲地区,那曲县
542422,542400,嘉黎县,3,JIA_LI_XIAN,J,西藏自治区,那曲地区,嘉黎县
542423,542400,比如县,3,BI_RU_XIAN,B,西藏自治区,那曲地区,比如县
542424,542400,聂荣县,3,NIE_RONG_XIAN,N,西藏自治区,那曲地区,聂荣县
542425,542400,安多县,3,AN_DUO_XIAN,A,西藏自治区,那曲地区,安多县
542426,542400,申扎县,3,SHEN_ZHA_XIAN,S,西藏自治区,那曲地区,申扎县
542427,542400,索县,3,SUO_XIAN,S,西藏自治区,那曲地区,索县
542428,542400,班戈县,3,BAN_GE_XIAN,B,西藏自治区,那曲地区,班戈县
542429,542400,巴青县,3,BA_QING_XIAN,B,西藏自治区,那曲地区,巴青县
542430,542400,尼玛县,3,NI_MA_XIAN,N,西藏自治区,那曲地区,尼玛县
542431,542400,双湖县,3,SHUANG_HU_XIAN,S,西藏自治区,那曲地区,双湖县
542500,540000,阿里地区,2,A_LI_DI_QU,A,西藏自治区,阿里地区,
542523,542500,噶尔县,3,GA_ER_XIAN,G,西藏自治区,阿里地区,噶尔县
542521,542500,普兰县,3,PU_LAN_XIAN,P,西藏自治区,阿里地区,普兰县
542522,542500,札达县,3,ZHA_DA_XIAN,Z,西藏自治区,阿里地区,札达县
542524,542500,日土县,3,RI_TU_XIAN,R,西藏自治区,阿里地区,日土县
542525,542500,革吉县,3,GE_JI_XIAN,G,西藏自治区,阿里地区,革吉县
542526,542500,改则县,3,GAI_ZE_XIAN,G,西藏自治区,阿里地区,改则县
542527,542500,措勤县,3,CUO_QIN_XIAN,C,西藏自治区,阿里地区,措勤县
610000,100000,陕西省,1,SHAN_XI_SHENG,S,陕西省,,
610100,610000,西安市,2,XI_AN_SHI,X,陕西省,西安市,
610112,610100,未央区,3,WEI_YANG_QU,W,陕西省,西安市,未央区
610102,610100,新城区,3,XIN_CHENG_QU,X,陕西省,西安市,新城区
610103,610100,碑林区,3,BEI_LIN_QU,B,陕西省,西安市,碑林区
610104,610100,莲湖区,3,LIAN_HU_QU,L,陕西省,西安市,莲湖区
610111,610100,灞桥区,3,BA_QIAO_QU,B,陕西省,西安市,灞桥区
610113,610100,雁塔区,3,YAN_TA_QU,Y,陕西省,西安市,雁塔区
610114,610100,阎良区,3,YAN_LIANG_QU,Y,陕西省,西安市,阎良区
610115,610100,临潼区,3,LIN_TONG_QU,L,陕西省,西安市,临潼区
610116,610100,长安区,3,ZHANG_AN_QU,Z,陕西省,西安市,长安区
610117,610100,高陵区,3,GAO_LING_QU,G,陕西省,西安市,高陵区
610118,610100,鄠邑区,3,HU_YI_QU,H,陕西省,西安市,鄠邑区
610122,610100,蓝田县,3,LAN_TIAN_XIAN,L,陕西省,西安市,蓝田县
610124,610100,周至县,3,ZHOU_ZHI_XIAN,Z,陕西省,西安市,周至县
610200,610000,铜川市,2,TONG_CHUAN_SHI,T,陕西省,铜川市,
610204,610200,耀州区,3,YAO_ZHOU_QU,Y,陕西省,铜川市,耀州区
610202,610200,王益区,3,WANG_YI_QU,W,陕西省,铜川市,王益区
610203,610200,印台区,3,YIN_TAI_QU,Y,陕西省,铜川市,印台区
610222,610200,宜君县,3,YI_JUN_XIAN,Y,陕西省,铜川市,宜君县
610300,610000,宝鸡市,2,BAO_JI_SHI,B,陕西省,宝鸡市,
610303,610300,金台区,3,JIN_TAI_QU,J,陕西省,宝鸡市,金台区
610302,610300,渭滨区,3,WEI_BIN_QU,W,陕西省,宝鸡市,渭滨区
610304,610300,陈仓区,3,CHEN_CANG_QU,C,陕西省,宝鸡市,陈仓区
610322,610300,凤翔县,3,FENG_XIANG_XIAN,F,陕西省,宝鸡市,凤翔县
610323,610300,岐山县,3,QI_SHAN_XIAN,Q,陕西省,宝鸡市,岐山县
610324,610300,扶风县,3,FU_FENG_XIAN,F,陕西省,宝鸡市,扶风县
610326,610300,眉县,3,MEI_XIAN,M,陕西省,宝鸡市,眉县
610327,610300,陇县,3,LONG_XIAN,L,陕西省,宝鸡市,陇县
610328,610300,千阳县,3,QIAN_YANG_XIAN,Q,陕西省,宝鸡市,千阳县
610329,610300,麟游县,3,LIN_YOU_XIAN,L,陕西省,宝鸡市,麟游县
610330,610300,凤县,3,FENG_XIAN,F,陕西省,宝鸡市,凤县
610331,610300,太白县,3,TAI_BAI_XIAN,T,陕西省,宝鸡市,太白县
610400,610000,咸阳市,2,XIAN_YANG_SHI,X,陕西省,咸阳市,
610402,610400,秦都区,3,QIN_DOU_QU,Q,陕西省,咸阳市,秦都区
610403,610400,杨陵区,3,YANG_LING_QU,Y,陕西省,咸阳市,杨陵区
610404,610400,渭城区,3,WEI_CHENG_QU,W,陕西省,咸阳市,渭城区
610481,610400,兴平市,3,XING_PING_SHI,X,陕西省,咸阳市,兴平市
610422,610400,三原县,3,SAN_YUAN_XIAN,S,陕西省,咸阳市,三原县
610423,610400,泾阳县,3,JING_YANG_XIAN,J,陕西省,咸阳市,泾阳县
610424,610400,乾县,3,QIAN_XIAN,Q,陕西省,咸阳市,乾县
610425,610400,礼泉县,3,LI_QUAN_XIAN,L,陕西省,咸阳市,礼泉县
610426,610400,永寿县,3,YONG_SHOU_XIAN,Y,陕西省,咸阳市,永寿县
610427,610400,彬县,3,BIN_XIAN,B,陕西省,咸阳市,彬县
610428,610400,长武县,3,ZHANG_WU_XIAN,Z,陕西省,咸阳市,长武县
610429,610400,旬邑县,3,XUN_YI_XIAN,X,陕西省,咸阳市,旬邑县
610430,610400,淳化县,3,CHUN_HUA_XIAN,C,陕西省,咸阳市,淳化县
610431,610400,武功县,3,WU_GONG_XIAN,W,陕西省,咸阳市,武功县
610500,610000,渭南市,2,WEI_NAN_SHI,W,陕西省,渭南市,
610502,610500,临渭区,3,LIN_WEI_QU,L,陕西省,渭南市,临渭区
610581,610500,韩城市,3,HAN_CHENG_SHI,H,陕西省,渭南市,韩城市
610582,610500,华阴市,3,HUA_YIN_SHI,H,陕西省,渭南市,华阴市
610503,610500,华州区,3,HUA_ZHOU_QU,H,陕西省,渭南市,华州区
610522,610500,潼关县,3,TONG_GUAN_XIAN,T,陕西省,渭南市,潼关县
610523,610500,大荔县,3,DA_LI_XIAN,D,陕西省,渭南市,大荔县
610524,610500,合阳县,3,HE_YANG_XIAN,H,陕西省,渭南市,合阳县
610525,610500,澄城县,3,CHENG_CHENG_XIAN,C,陕西省,渭南市,澄城县
610526,610500,蒲城县,3,PU_CHENG_XIAN,P,陕西省,渭南市,蒲城县
610527,610500,白水县,3,BAI_SHUI_XIAN,B,陕西省,渭南市,白水县
610528,610500,富平县,3,FU_PING_XIAN,F,陕西省,渭南市,富平县
610600,610000,延安市,2,YAN_AN_SHI,Y,陕西省,延安市,
610602,610600,宝塔区,3,BAO_TA_QU,B,陕西省,延安市,宝塔区
610603,610600,安塞区,3,AN_SAI_QU,A,陕西省,延安市,安塞区
610621,610600,延长县,3,YAN_ZHANG_XIAN,Y,陕西省,延安市,延长县
610622,610600,延川县,3,YAN_CHUAN_XIAN,Y,陕西省,延安市,延川县
610623,610600,子长县,3,ZI_ZHANG_XIAN,Z,陕西省,延安市,子长县
610625,610600,志丹县,3,ZHI_DAN_XIAN,Z,陕西省,延安市,志丹县
610626,610600,吴起县,3,WU_QI_XIAN,W,陕西省,延安市,吴起县
610627,610600,甘泉县,3,GAN_QUAN_XIAN,G,陕西省,延安市,甘泉县
610628,610600,富县,3,FU_XIAN,F,陕西省,延安市,富县
610629,610600,洛川县,3,LUO_CHUAN_XIAN,L,陕西省,延安市,洛川县
610630,610600,宜川县,3,YI_CHUAN_XIAN,Y,陕西省,延安市,宜川县
610631,610600,黄龙县,3,HUANG_LONG_XIAN,H,陕西省,延安市,黄龙县
610632,610600,黄陵县,3,HUANG_LING_XIAN,H,陕西省,延安市,黄陵县
610700,610000,汉中市,2,HAN_ZHONG_SHI,H,陕西省,汉中市,
610702,610700,汉台区,3,HAN_TAI_QU,H,陕西省,汉中市,汉台区
610721,610700,南郑县,3,NAN_ZHENG_XIAN,N,陕西省,汉中市,南郑县
610722,610700,城固县,3,CHENG_GU_XIAN,C,陕西省,汉中市,城固县
610723,610700,洋县,3,YANG_XIAN,Y,陕西省,汉中市,洋县
610724,610700,西乡县,3,XI_XIANG_XIAN,X,陕西省,汉中市,西乡县
610725,610700,勉县,3,MIAN_XIAN,M,陕西省,汉中市,勉县
610726,610700,宁强县,3,NING_QIANG_XIAN,N,陕西省,汉中市,宁强县
610727,610700,略阳县,3,LVE_YANG_XIAN,L,陕西省,汉中市,略阳县
610728,610700,镇巴县,3,ZHEN_BA_XIAN,Z,陕西省,汉中市,镇巴县
610729,610700,留坝县,3,LIU_BA_XIAN,L,陕西省,汉中市,留坝县
610730,610700,佛坪县,3,FO_PING_XIAN,F,陕西省,汉中市,佛坪县
610800,610000,榆林市,2,YU_LIN_SHI,Y,陕西省,榆林市,
610802,610800,榆阳区,3,YU_YANG_QU,Y,陕西省,榆林市,榆阳区
610881,610800,神木市,3,SHEN_MU_SHI,S,陕西省,榆林市,神木市
610822,610800,府谷县,3,FU_GU_XIAN,F,陕西省,榆林市,府谷县
610803,610800,横山区,3,HENG_SHAN_QU,H,陕西省,榆林市,横山区
610824,610800,靖边县,3,JING_BIAN_XIAN,J,陕西省,榆林市,靖边县
610825,610800,定边县,3,DING_BIAN_XIAN,D,陕西省,榆林市,定边县
610826,610800,绥德县,3,SUI_DE_XIAN,S,陕西省,榆林市,绥德县
610827,610800,米脂县,3,MI_ZHI_XIAN,M,陕西省,榆林市,米脂县
610828,610800,佳县,3,JIA_XIAN,J,陕西省,榆林市,佳县
610829,610800,吴堡县,3,WU_BAO_XIAN,W,陕西省,榆林市,吴堡县
610830,610800,清涧县,3,QING_JIAN_XIAN,Q,陕西省,榆林市,清涧县
610831,610800,子洲县,3,ZI_ZHOU_XIAN,Z,陕西省,榆林市,子洲县
610900,610000,安康市,2,AN_KANG_SHI,A,陕西省,安康市,
610902,610900,汉滨区,3,HAN_BIN_QU,H,陕西省,安康市,汉滨区
610921,610900,汉阴县,3,HAN_YIN_XIAN,H,陕西省,安康市,汉阴县
610922,610900,石泉县,3,SHI_QUAN_XIAN,S,陕西省,安康市,石泉县
610923,610900,宁陕县,3,NING_SHAN_XIAN,N,陕西省,安康市,宁陕县
610924,610900,紫阳县,3,ZI_YANG_XIAN,Z,陕西省,安康市,紫阳县
610925,610900,岚皋县,3,LAN_GAO_XIAN,L,陕西省,安康市,岚皋县
610926,610900,平利县,3,PING_LI_XIAN,P,陕西省,安康市,平利县
610927,610900,镇坪县,3,ZHEN_PING_XIAN,Z,陕西省,安康市,镇坪县
610928,610900,旬阳县,3,XUN_YANG_XIAN,X,陕西省,安康市,旬阳县
610929,610900,白河县,3,BAI_HE_XIAN,B,陕西省,安康市,白河县
611000,610000,商洛市,2,SHANG_LUO_SHI,S,陕西省,商洛市,
611002,611000,商州区,3,SHANG_ZHOU_QU,S,陕西省,商洛市,商州区
611021,611000,洛南县,3,LUO_NAN_XIAN,L,陕西省,商洛市,洛南县
611022,611000,丹凤县,3,DAN_FENG_XIAN,D,陕西省,商洛市,丹凤县
611023,611000,商南县,3,SHANG_NAN_XIAN,S,陕西省,商洛市,商南县
611024,611000,山阳县,3,SHAN_YANG_XIAN,S,陕西省,商洛市,山阳县
611025,611000,镇安县,3,ZHEN_AN_XIAN,Z,陕西省,商洛市,镇安县
611026,611000,柞水县,3,ZUO_SHUI_XIAN,Z,陕西省,商洛市,柞水县
620000,100000,甘肃省,1,GAN_SU_SHENG,G,甘肃省,,
620100,620000,兰州市,2,LAN_ZHOU_SHI,L,甘肃省,兰州市,
620102,620100,城关区,3,CHENG_GUAN_QU,C,甘肃省,兰州市,城关区
620103,620100,七里河区,3,QI_LI_HE_QU,Q,甘肃省,兰州市,七里河区
620104,620100,西固区,3,XI_GU_QU,X,甘肃省,兰州市,西固区
620105,620100,安宁区,3,AN_NING_QU,A,甘肃省,兰州市,安宁区
620111,620100,红古区,3,HONG_GU_QU,H,甘肃省,兰州市,红古区
620121,620100,永登县,3,YONG_DENG_XIAN,Y,甘肃省,兰州市,永登县
620122,620100,皋兰县,3,GAO_LAN_XIAN,G,甘肃省,兰州市,皋兰县
620123,620100,榆中县,3,YU_ZHONG_XIAN,Y,甘肃省,兰州市,榆中县
620200,620000,嘉峪关市,2,JIA_YU_GUAN_SHI,J,甘肃省,嘉峪关市,
620300,620000,金昌市,2,JIN_CHANG_SHI,J,甘肃省,金昌市,
620302,620300,金川区,3,JIN_CHUAN_QU,J,甘肃省,金昌市,金川区
620321,620300,永昌县,3,YONG_CHANG_XIAN,Y,甘肃省,金昌市,永昌县
620400,620000,白银市,2,BAI_YIN_SHI,B,甘肃省,白银市,
620402,620400,白银区,3,BAI_YIN_QU,B,甘肃省,白银市,白银区
620403,620400,平川区,3,PING_CHUAN_QU,P,甘肃省,白银市,平川区
620421,620400,靖远县,3,JING_YUAN_XIAN,J,甘肃省,白银市,靖远县
620422,620400,会宁县,3,HUI_NING_XIAN,H,甘肃省,白银市,会宁县
620423,620400,景泰县,3,JING_TAI_XIAN,J,甘肃省,白银市,景泰县
620500,620000,天水市,2,TIAN_SHUI_SHI,T,甘肃省,天水市,
620502,620500,秦州区,3,QIN_ZHOU_QU,Q,甘肃省,天水市,秦州区
620503,620500,麦积区,3,MAI_JI_QU,M,甘肃省,天水市,麦积区
620521,620500,清水县,3,QING_SHUI_XIAN,Q,甘肃省,天水市,清水县
620522,620500,秦安县,3,QIN_AN_XIAN,Q,甘肃省,天水市,秦安县
620523,620500,甘谷县,3,GAN_GU_XIAN,G,甘肃省,天水市,甘谷县
620524,620500,武山县,3,WU_SHAN_XIAN,W,甘肃省,天水市,武山县
620525,620500,张家川回族自治县,3,ZHANG_JIA_CHUAN_HUI_ZU_ZI_ZHI_XIAN,Z,甘肃省,天水市,张家川回族自治县
620600,620000,武威市,2,WU_WEI_SHI,W,甘肃省,武威市,
620602,620600,凉州区,3,LIANG_ZHOU_QU,L,甘肃省,武威市,凉州区
620621,620600,民勤县,3,MIN_QIN_XIAN,M,甘肃省,武威市,民勤县
620622,620600,古浪县,3,GU_LANG_XIAN,G,甘肃省,武威市,古浪县
620623,620600,天祝藏族自治县,3,TIAN_ZHU_ZANG_ZU_ZI_ZHI_XIAN,T,甘肃省,武威市,天祝藏族自治县
620700,620000,张掖市,2,ZHANG_YE_SHI,Z,甘肃省,张掖市,
620702,620700,甘州区,3,GAN_ZHOU_QU,G,甘肃省,张掖市,甘州区
620722,620700,民乐县,3,MIN_LE_XIAN,M,甘肃省,张掖市,民乐县
620723,620700,临泽县,3,LIN_ZE_XIAN,L,甘肃省,张掖市,临泽县
620724,620700,高台县,3,GAO_TAI_XIAN,G,甘肃省,张掖市,高台县
620725,620700,山丹县,3,SHAN_DAN_XIAN,S,甘肃省,张掖市,山丹县
620721,620700,肃南裕固族自治县,3,SU_NAN_YU_GU_ZU_ZI_ZHI_XIAN,S,甘肃省,张掖市,肃南裕固族自治县
620800,620000,平凉市,2,PING_LIANG_SHI,P,甘肃省,平凉市,
620802,620800,崆峒区,3,KONG_TONG_QU,K,甘肃省,平凉市,崆峒区
620821,620800,泾川县,3,JING_CHUAN_XIAN,J,甘肃省,平凉市,泾川县
620822,620800,灵台县,3,LING_TAI_XIAN,L,甘肃省,平凉市,灵台县
620823,620800,崇信县,3,CHONG_XIN_XIAN,C,甘肃省,平凉市,崇信县
620824,620800,华亭县,3,HUA_TING_XIAN,H,甘肃省,平凉市,华亭县
620825,620800,庄浪县,3,ZHUANG_LANG_XIAN,Z,甘肃省,平凉市,庄浪县
620826,620800,静宁县,3,JING_NING_XIAN,J,甘肃省,平凉市,静宁县
620900,620000,酒泉市,2,JIU_QUAN_SHI,J,甘肃省,酒泉市,
620902,620900,肃州区,3,SU_ZHOU_QU,S,甘肃省,酒泉市,肃州区
620981,620900,玉门市,3,YU_MEN_SHI,Y,甘肃省,酒泉市,玉门市
620982,620900,敦煌市,3,DUN_HUANG_SHI,D,甘肃省,酒泉市,敦煌市
620921,620900,金塔县,3,JIN_TA_XIAN,J,甘肃省,酒泉市,金塔县
620922,620900,瓜州县,3,GUA_ZHOU_XIAN,G,甘肃省,酒泉市,瓜州县
620923,620900,肃北蒙古族自治县,3,SU_BEI_MENG_GU_ZU_ZI_ZHI_XIAN,S,甘肃省,酒泉市,肃北蒙古族自治县
620924,620900,阿克塞哈萨克族自治县,3,A_KE_SAI_HA_SA_KE_ZU_ZI_ZHI_XIAN,A,甘肃省,酒泉市,阿克塞哈萨克族自治县
621000,620000,庆阳市,2,QING_YANG_SHI,Q,甘肃省,庆阳市,
621002,621000,西峰区,3,XI_FENG_QU,X,甘肃省,庆阳市,西峰区
621021,621000,庆城县,3,QING_CHENG_XIAN,Q,甘肃省,庆阳市,庆城县
621022,621000,环县,3,HUAN_XIAN,H,甘肃省,庆阳市,环县
621023,621000,华池县,3,HUA_CHI_XIAN,H,甘肃省,庆阳市,华池县
621024,621000,合水县,3,HE_SHUI_XIAN,H,甘肃省,庆阳市,合水县
621025,621000,正宁县,3,ZHENG_NING_XIAN,Z,甘肃省,庆阳市,正宁县
621026,621000,宁县,3,NING_XIAN,N,甘肃省,庆阳市,宁县
621027,621000,镇原县,3,ZHEN_YUAN_XIAN,Z,甘肃省,庆阳市,镇原县
621100,620000,定西市,2,DING_XI_SHI,D,甘肃省,定西市,
621102,621100,安定区,3,AN_DING_QU,A,甘肃省,定西市,安定区
621121,621100,通渭县,3,TONG_WEI_XIAN,T,甘肃省,定西市,通渭县
621122,621100,陇西县,3,LONG_XI_XIAN,L,甘肃省,定西市,陇西县
621123,621100,渭源县,3,WEI_YUAN_XIAN,W,甘肃省,定西市,渭源县
621124,621100,临洮县,3,LIN_TAO_XIAN,L,甘肃省,定西市,临洮县
621125,621100,漳县,3,ZHANG_XIAN,Z,甘肃省,定西市,漳县
621126,621100,岷县,3,MIN_XIAN,M,甘肃省,定西市,岷县
621200,620000,陇南市,2,LONG_NAN_SHI,L,甘肃省,陇南市,
621202,621200,武都区,3,WU_DOU_QU,W,甘肃省,陇南市,武都区
621221,621200,成县,3,CHENG_XIAN,C,甘肃省,陇南市,成县
621222,621200,文县,3,WEN_XIAN,W,甘肃省,陇南市,文县
621223,621200,宕昌县,3,DANG_CHANG_XIAN,D,甘肃省,陇南市,宕昌县
621224,621200,康县,3,KANG_XIAN,K,甘肃省,陇南市,康县
621225,621200,西和县,3,XI_HE_XIAN,X,甘肃省,陇南市,西和县
621226,621200,礼县,3,LI_XIAN,L,甘肃省,陇南市,礼县
621227,621200,徽县,3,HUI_XIAN,H,甘肃省,陇南市,徽县
621228,621200,两当县,3,LIANG_DANG_XIAN,L,甘肃省,陇南市,两当县
622900,620000,临夏回族自治州,2,LIN_XIA_HUI_ZU_ZI_ZHI_ZHOU,L,甘肃省,临夏回族自治州,
622901,622900,临夏市,3,LIN_XIA_SHI,L,甘肃省,临夏回族自治州,临夏市
622921,622900,临夏县,3,LIN_XIA_XIAN,L,甘肃省,临夏回族自治州,临夏县
622922,622900,康乐县,3,KANG_LE_XIAN,K,甘肃省,临夏回族自治州,康乐县
622923,622900,永靖县,3,YONG_JING_XIAN,Y,甘肃省,临夏回族自治州,永靖县
622924,622900,广河县,3,GUANG_HE_XIAN,G,甘肃省,临夏回族自治州,广河县
622925,622900,和政县,3,HE_ZHENG_XIAN,H,甘肃省,临夏回族自治州,和政县
622926,622900,东乡族自治县,3,DONG_XIANG_ZU_ZI_ZHI_XIAN,D,甘肃省,临夏回族自治州,东乡族自治县
622927,622900,积石山保安族东乡族撒拉族自治县,3,JI_SHI_SHAN_BAO_AN_ZU_DONG_XIANG_ZU_SA_LA_ZU_ZI_ZHI_XIAN,J,甘肃省,临夏回族自治州,积石山保安族东乡族撒拉族自治县
623000,620000,甘南藏族自治州,2,GAN_NAN_ZANG_ZU_ZI_ZHI_ZHOU,G,甘肃省,甘南藏族自治州,
623001,623000,合作市,3,HE_ZUO_SHI,H,甘肃省,甘南藏族自治州,合作市
623021,623000,临潭县,3,LIN_TAN_XIAN,L,甘肃省,甘南藏族自治州,临潭县
623022,623000,卓尼县,3,ZHUO_NI_XIAN,Z,甘肃省,甘南藏族自治州,卓尼县
623023,623000,舟曲县,3,ZHOU_QU_XIAN,Z,甘肃省,甘南藏族自治州,舟曲县
623024,623000,迭部县,3,DIE_BU_XIAN,D,甘肃省,甘南藏族自治州,迭部县
623025,623000,玛曲县,3,MA_QU_XIAN,M,甘肃省,甘南藏族自治州,玛曲县
623026,623000,碌曲县,3,LIU_QU_XIAN,L,甘肃省,甘南藏族自治州,碌曲县
623027,623000,夏河县,3,XIA_HE_XIAN,X,甘肃省,甘南藏族自治州,夏河县
630000,100000,青海省,1,QING_HAI_SHENG,Q,青海省,,
630100,630000,西宁市,2,XI_NING_SHI,X,青海省,西宁市,
630103,630100,城中区,3,CHENG_ZHONG_QU,C,青海省,西宁市,城中区
630102,630100,城东区,3,CHENG_DONG_QU,C,青海省,西宁市,城东区
630104,630100,城西区,3,CHENG_XI_QU,C,青海省,西宁市,城西区
630105,630100,城北区,3,CHENG_BEI_QU,C,青海省,西宁市,城北区
630122,630100,湟中县,3,HUANG_ZHONG_XIAN,H,青海省,西宁市,湟中县
630123,630100,湟源县,3,HUANG_YUAN_XIAN,H,青海省,西宁市,湟源县
630121,630100,大通回族土族自治县,3,DA_TONG_HUI_ZU_TU_ZU_ZI_ZHI_XIAN,D,青海省,西宁市,大通回族土族自治县
630200,630000,海东市,2,HAI_DONG_SHI,H,青海省,海东市,
630202,630200,乐都区,3,LE_DOU_QU,L,青海省,海东市,乐都区
630203,630200,平安区,3,PING_AN_QU,P,青海省,海东市,平安区
630222,630200,民和回族土族自治县,3,MIN_HE_HUI_ZU_TU_ZU_ZI_ZHI_XIAN,M,青海省,海东市,民和回族土族自治县
630223,630200,互助土族自治县,3,HU_ZHU_TU_ZU_ZI_ZHI_XIAN,H,青海省,海东市,互助土族自治县
630224,630200,化隆回族自治县,3,HUA_LONG_HUI_ZU_ZI_ZHI_XIAN,H,青海省,海东市,化隆回族自治县
630225,630200,循化撒拉族自治县,3,XUN_HUA_SA_LA_ZU_ZI_ZHI_XIAN,X,青海省,海东市,循化撒拉族自治县
632200,630000,海北藏族自治州,2,HAI_BEI_ZANG_ZU_ZI_ZHI_ZHOU,H,青海省,海北藏族自治州,
632223,632200,海晏县,3,HAI_YAN_XIAN,H,青海省,海北藏族自治州,海晏县
632222,632200,祁连县,3,QI_LIAN_XIAN,Q,青海省,海北藏族自治州,祁连县
632224,632200,刚察县,3,GANG_CHA_XIAN,G,青海省,海北藏族自治州,刚察县
632221,632200,门源回族自治县,3,MEN_YUAN_HUI_ZU_ZI_ZHI_XIAN,M,青海省,海北藏族自治州,门源回族自治县
632300,630000,黄南藏族自治州,2,HUANG_NAN_ZANG_ZU_ZI_ZHI_ZHOU,H,青海省,黄南藏族自治州,
632321,632300,同仁县,3,TONG_REN_XIAN,T,青海省,黄南藏族自治州,同仁县
632322,632300,尖扎县,3,JIAN_ZHA_XIAN,J,青海省,黄南藏族自治州,尖扎县
632323,632300,泽库县,3,ZE_KU_XIAN,Z,青海省,黄南藏族自治州,泽库县
632324,632300,河南蒙古族自治县,3,HE_NAN_MENG_GU_ZU_ZI_ZHI_XIAN,H,青海省,黄南藏族自治州,河南蒙古族自治县
632500,630000,海南藏族自治州,2,HAI_NAN_ZANG_ZU_ZI_ZHI_ZHOU,H,青海省,海南藏族自治州,
632521,632500,共和县,3,GONG_HE_XIAN,G,青海省,海南藏族自治州,共和县
632522,632500,同德县,3,TONG_DE_XIAN,T,青海省,海南藏族自治州,同德县
632523,632500,贵德县,3,GUI_DE_XIAN,G,青海省,海南藏族自治州,贵德县
632524,632500,兴海县,3,XING_HAI_XIAN,X,青海省,海南藏族自治州,兴海县
632525,632500,贵南县,3,GUI_NAN_XIAN,G,青海省,海南藏族自治州,贵南县
632600,630000,果洛藏族自治州,2,GUO_LUO_ZANG_ZU_ZI_ZHI_ZHOU,G,青海省,果洛藏族自治州,
632621,632600,玛沁县,3,MA_QIN_XIAN,M,青海省,果洛藏族自治州,玛沁县
632622,632600,班玛县,3,BAN_MA_XIAN,B,青海省,果洛藏族自治州,班玛县
632623,632600,甘德县,3,GAN_DE_XIAN,G,青海省,果洛藏族自治州,甘德县
632624,632600,达日县,3,DA_RI_XIAN,D,青海省,果洛藏族自治州,达日县
632625,632600,久治县,3,JIU_ZHI_XIAN,J,青海省,果洛藏族自治州,久治县
632626,632600,玛多县,3,MA_DUO_XIAN,M,青海省,果洛藏族自治州,玛多县
632700,630000,玉树藏族自治州,2,YU_SHU_ZANG_ZU_ZI_ZHI_ZHOU,Y,青海省,玉树藏族自治州,
632701,632700,玉树市,3,YU_SHU_SHI,Y,青海省,玉树藏族自治州,玉树市
632722,632700,杂多县,3,ZA_DUO_XIAN,Z,青海省,玉树藏族自治州,杂多县
632723,632700,称多县,3,CHENG_DUO_XIAN,C,青海省,玉树藏族自治州,称多县
632724,632700,治多县,3,ZHI_DUO_XIAN,Z,青海省,玉树藏族自治州,治多县
632725,632700,囊谦县,3,NANG_QIAN_XIAN,N,青海省,玉树藏族自治州,囊谦县
632726,632700,曲麻莱县,3,QU_MA_LAI_XIAN,Q,青海省,玉树藏族自治州,曲麻莱县
632800,630000,海西蒙古族藏族自治州,2,HAI_XI_MENG_GU_ZU_ZANG_ZU_ZI_ZHI_ZHOU,H,青海省,海西蒙古族藏族自治州,
632802,632800,德令哈市,3,DE_LING_HA_SHI,D,青海省,海西蒙古族藏族自治州,德令哈市
632801,632800,格尔木市,3,GE_ER_MU_SHI,G,青海省,海西蒙古族藏族自治州,格尔木市
632821,632800,乌兰县,3,WU_LAN_XIAN,W,青海省,海西蒙古族藏族自治州,乌兰县
632822,632800,都兰县,3,DOU_LAN_XIAN,D,青海省,海西蒙古族藏族自治州,都兰县
632823,632800,天峻县,3,TIAN_JUN_XIAN,T,青海省,海西蒙古族藏族自治州,天峻县
640000,100000,宁夏回族自治区,1,NING_XIA_HUI_ZU_ZI_ZHI_QU,N,宁夏回族自治区,,
640100,640000,银川市,2,YIN_CHUAN_SHI,Y,宁夏回族自治区,银川市,
640106,640100,金凤区,3,JIN_FENG_QU,J,宁夏回族自治区,银川市,金凤区
640104,640100,兴庆区,3,XING_QING_QU,X,宁夏回族自治区,银川市,兴庆区
640105,640100,西夏区,3,XI_XIA_QU,X,宁夏回族自治区,银川市,西夏区
640181,640100,灵武市,3,LING_WU_SHI,L,宁夏回族自治区,银川市,灵武市
640121,640100,永宁县,3,YONG_NING_XIAN,Y,宁夏回族自治区,银川市,永宁县
640122,640100,贺兰县,3,HE_LAN_XIAN,H,宁夏回族自治区,银川市,贺兰县
640200,640000,石嘴山市,2,SHI_ZUI_SHAN_SHI,S,宁夏回族自治区,石嘴山市,
640202,640200,大武口区,3,DA_WU_KOU_QU,D,宁夏回族自治区,石嘴山市,大武口区
640205,640200,惠农区,3,HUI_NONG_QU,H,宁夏回族自治区,石嘴山市,惠农区
640221,640200,平罗县,3,PING_LUO_XIAN,P,宁夏回族自治区,石嘴山市,平罗县
640300,640000,吴忠市,2,WU_ZHONG_SHI,W,宁夏回族自治区,吴忠市,
640302,640300,利通区,3,LI_TONG_QU,L,宁夏回族自治区,吴忠市,利通区
640303,640300,红寺堡区,3,HONG_SI_BAO_QU,H,宁夏回族自治区,吴忠市,红寺堡区
640381,640300,青铜峡市,3,QING_TONG_XIA_SHI,Q,宁夏回族自治区,吴忠市,青铜峡市
640323,640300,盐池县,3,YAN_CHI_XIAN,Y,宁夏回族自治区,吴忠市,盐池县
640324,640300,同心县,3,TONG_XIN_XIAN,T,宁夏回族自治区,吴忠市,同心县
640400,640000,固原市,2,GU_YUAN_SHI,G,宁夏回族自治区,固原市,
640402,640400,原州区,3,YUAN_ZHOU_QU,Y,宁夏回族自治区,固原市,原州区
640422,640400,西吉县,3,XI_JI_XIAN,X,宁夏回族自治区,固原市,西吉县
640423,640400,隆德县,3,LONG_DE_XIAN,L,宁夏回族自治区,固原市,隆德县
640424,640400,泾源县,3,JING_YUAN_XIAN,J,宁夏回族自治区,固原市,泾源县
640425,640400,彭阳县,3,PENG_YANG_XIAN,P,宁夏回族自治区,固原市,彭阳县
640500,640000,中卫市,2,ZHONG_WEI_SHI,Z,宁夏回族自治区,中卫市,
640502,640500,沙坡头区,3,SHA_PO_TOU_QU,S,宁夏回族自治区,中卫市,沙坡头区
640521,640500,中宁县,3,ZHONG_NING_XIAN,Z,宁夏回族自治区,中卫市,中宁县
640522,640500,海原县,3,HAI_YUAN_XIAN,H,宁夏回族自治区,中卫市,海原县
650000,100000,新疆维吾尔自治区,1,XIN_JIANG_WEI_WU_ER_ZI_ZHI_QU,X,新疆维吾尔自治区,,
650100,650000,乌鲁木齐市,2,WU_LU_MU_QI_SHI,W,新疆维吾尔自治区,乌鲁木齐市,
650102,650100,天山区,3,TIAN_SHAN_QU,T,新疆维吾尔自治区,乌鲁木齐市,天山区
650103,650100,沙依巴克区,3,SHA_YI_BA_KE_QU,S,新疆维吾尔自治区,乌鲁木齐市,沙依巴克区
650104,650100,新市区,3,XIN_SHI_QU,X,新疆维吾尔自治区,乌鲁木齐市,新市区
650105,650100,水磨沟区,3,SHUI_MO_GOU_QU,S,新疆维吾尔自治区,乌鲁木齐市,水磨沟区
650106,650100,头屯河区,3,TOU_TUN_HE_QU,T,新疆维吾尔自治区,乌鲁木齐市,头屯河区
650107,650100,达坂城区,3,DA_BAN_CHENG_QU,D,新疆维吾尔自治区,乌鲁木齐市,达坂城区
650109,650100,米东区,3,MI_DONG_QU,M,新疆维吾尔自治区,乌鲁木齐市,米东区
650121,650100,乌鲁木齐县,3,WU_LU_MU_QI_XIAN,W,新疆维吾尔自治区,乌鲁木齐市,乌鲁木齐县
650200,650000,克拉玛依市,2,KE_LA_MA_YI_SHI,K,新疆维吾尔自治区,克拉玛依市,
650203,650200,克拉玛依区,3,KE_LA_MA_YI_QU,K,新疆维吾尔自治区,克拉玛依市,克拉玛依区
650202,650200,独山子区,3,DU_SHAN_ZI_QU,D,新疆维吾尔自治区,克拉玛依市,独山子区
650204,650200,白碱滩区,3,BAI_JIAN_TAN_QU,B,新疆维吾尔自治区,克拉玛依市,白碱滩区
650205,650200,乌尔禾区,3,WU_ER_HE_QU,W,新疆维吾尔自治区,克拉玛依市,乌尔禾区
650400,650000,吐鲁番市,2,TU_LU_FAN_SHI,T,新疆维吾尔自治区,吐鲁番市,
650402,650400,高昌区,3,GAO_CHANG_QU,G,新疆维吾尔自治区,吐鲁番市,高昌区
650421,650400,鄯善县,3,SHAN_SHAN_XIAN,S,新疆维吾尔自治区,吐鲁番市,鄯善县
650422,650400,托克逊县,3,TUO_KE_XUN_XIAN,T,新疆维吾尔自治区,吐鲁番市,托克逊县
650500,650000,哈密市,2,HA_MI_SHI,H,新疆维吾尔自治区,哈密市,
650502,650500,伊州区,3,YI_ZHOU_QU,Y,新疆维吾尔自治区,哈密市,伊州区
650522,650500,伊吾县,3,YI_WU_XIAN,Y,新疆维吾尔自治区,哈密市,伊吾县
650521,650500,巴里坤哈萨克自治县,3,BA_LI_KUN_HA_SA_KE_ZI_ZHI_XIAN,B,新疆维吾尔自治区,哈密市,巴里坤哈萨克自治县
652900,650000,阿克苏地区,2,A_KE_SU_DI_QU,A,新疆维吾尔自治区,阿克苏地区,
652901,652900,阿克苏市,3,A_KE_SU_SHI,A,新疆维吾尔自治区,阿克苏地区,阿克苏市
652922,652900,温宿县,3,WEN_SU_XIAN,W,新疆维吾尔自治区,阿克苏地区,温宿县
652923,652900,库车县,3,KU_CHE_XIAN,K,新疆维吾尔自治区,阿克苏地区,库车县
652924,652900,沙雅县,3,SHA_YA_XIAN,S,新疆维吾尔自治区,阿克苏地区,沙雅县
652925,652900,新和县,3,XIN_HE_XIAN,X,新疆维吾尔自治区,阿克苏地区,新和县
652926,652900,拜城县,3,BAI_CHENG_XIAN,B,新疆维吾尔自治区,阿克苏地区,拜城县
652927,652900,乌什县,3,WU_SHEN_XIAN,W,新疆维吾尔自治区,阿克苏地区,乌什县
652928,652900,阿瓦提县,3,A_WA_TI_XIAN,A,新疆维吾尔自治区,阿克苏地区,阿瓦提县
652929,652900,柯坪县,3,KE_PING_XIAN,K,新疆维吾尔自治区,阿克苏地区,柯坪县
653100,650000,喀什地区,2,KA_SHEN_DI_QU,K,新疆维吾尔自治区,喀什地区,
653101,653100,喀什市,3,KA_SHEN_SHI,K,新疆维吾尔自治区,喀什地区,喀什市
653121,653100,疏附县,3,SHU_FU_XIAN,S,新疆维吾尔自治区,喀什地区,疏附县
653122,653100,疏勒县,3,SHU_LE_XIAN,S,新疆维吾尔自治区,喀什地区,疏勒县
653123,653100,英吉沙县,3,YING_JI_SHA_XIAN,Y,新疆维吾尔自治区,喀什地区,英吉沙县
653124,653100,泽普县,3,ZE_PU_XIAN,Z,新疆维吾尔自治区,喀什地区,泽普县
653125,653100,莎车县,3,SHA_CHE_XIAN,S,新疆维吾尔自治区,喀什地区,莎车县
653126,653100,叶城县,3,YE_CHENG_XIAN,Y,新疆维吾尔自治区,喀什地区,叶城县
653127,653100,麦盖提县,3,MAI_GAI_TI_XIAN,M,新疆维吾尔自治区,喀什地区,麦盖提县
653128,653100,岳普湖县,3,YUE_PU_HU_XIAN,Y,新疆维吾尔自治区,喀什地区,岳普湖县
653129,653100,伽师县,3,JIA_SHI_XIAN,J,新疆维吾尔自治区,喀什地区,伽师县
653130,653100,巴楚县,3,BA_CHU_XIAN,B,新疆维吾尔自治区,喀什地区,巴楚县
653131,653100,塔什库尔干塔吉克自治县,3,TA_SHEN_KU_ER_GAN_TA_JI_KE_ZI_ZHI_XIAN,T,新疆维吾尔自治区,喀什地区,塔什库尔干塔吉克自治县
653200,650000,和田地区,2,HE_TIAN_DI_QU,H,新疆维吾尔自治区,和田地区,
653201,653200,和田市,3,HE_TIAN_SHI,H,新疆维吾尔自治区,和田地区,和田市
653221,653200,和田县,3,HE_TIAN_XIAN,H,新疆维吾尔自治区,和田地区,和田县
653222,653200,墨玉县,3,MO_YU_XIAN,M,新疆维吾尔自治区,和田地区,墨玉县
653223,653200,皮山县,3,PI_SHAN_XIAN,P,新疆维吾尔自治区,和田地区,皮山县
653224,653200,洛浦县,3,LUO_PU_XIAN,L,新疆维吾尔自治区,和田地区,洛浦县
653225,653200,策勒县,3,CE_LE_XIAN,C,新疆维吾尔自治区,和田地区,策勒县
653226,653200,于田县,3,YU_TIAN_XIAN,Y,新疆维吾尔自治区,和田地区,于田县
653227,653200,民丰县,3,MIN_FENG_XIAN,M,新疆维吾尔自治区,和田地区,民丰县
652300,650000,昌吉回族自治州,2,CHANG_JI_HUI_ZU_ZI_ZHI_ZHOU,C,新疆维吾尔自治区,昌吉回族自治州,
652301,652300,昌吉市,3,CHANG_JI_SHI,C,新疆维吾尔自治区,昌吉回族自治州,昌吉市
652302,652300,阜康市,3,FU_KANG_SHI,F,新疆维吾尔自治区,昌吉回族自治州,阜康市
652323,652300,呼图壁县,3,HU_TU_BI_XIAN,H,新疆维吾尔自治区,昌吉回族自治州,呼图壁县
652324,652300,玛纳斯县,3,MA_NA_SI_XIAN,M,新疆维吾尔自治区,昌吉回族自治州,玛纳斯县
652325,652300,奇台县,3,QI_TAI_XIAN,Q,新疆维吾尔自治区,昌吉回族自治州,奇台县
652327,652300,吉木萨尔县,3,JI_MU_SA_ER_XIAN,J,新疆维吾尔自治区,昌吉回族自治州,吉木萨尔县
652328,652300,木垒哈萨克自治县,3,MU_LEI_HA_SA_KE_ZI_ZHI_XIAN,M,新疆维吾尔自治区,昌吉回族自治州,木垒哈萨克自治县
652700,650000,博尔塔拉蒙古自治州,2,BO_ER_TA_LA_MENG_GU_ZI_ZHI_ZHOU,B,新疆维吾尔自治区,博尔塔拉蒙古自治州,
652701,652700,博乐市,3,BO_LE_SHI,B,新疆维吾尔自治区,博尔塔拉蒙古自治州,博乐市
652702,652700,阿拉山口市,3,A_LA_SHAN_KOU_SHI,A,新疆维吾尔自治区,博尔塔拉蒙古自治州,阿拉山口市
652722,652700,精河县,3,JING_HE_XIAN,J,新疆维吾尔自治区,博尔塔拉蒙古自治州,精河县
652723,652700,温泉县,3,WEN_QUAN_XIAN,W,新疆维吾尔自治区,博尔塔拉蒙古自治州,温泉县
652800,650000,巴音郭楞蒙古自治州,2,BA_YIN_GUO_LENG_MENG_GU_ZI_ZHI_ZHOU,B,新疆维吾尔自治区,巴音郭楞蒙古自治州,
652801,652800,库尔勒市,3,KU_ER_LE_SHI,K,新疆维吾尔自治区,巴音郭楞蒙古自治州,库尔勒市
652822,652800,轮台县,3,LUN_TAI_XIAN,L,新疆维吾尔自治区,巴音郭楞蒙古自治州,轮台县
652823,652800,尉犁县,3,WEI_LI_XIAN,W,新疆维吾尔自治区,巴音郭楞蒙古自治州,尉犁县
652824,652800,若羌县,3,RUO_QIANG_XIAN,R,新疆维吾尔自治区,巴音郭楞蒙古自治州,若羌县
652825,652800,且末县,3,QIE_MO_XIAN,Q,新疆维吾尔自治区,巴音郭楞蒙古自治州,且末县
652827,652800,和静县,3,HE_JING_XIAN,H,新疆维吾尔自治区,巴音郭楞蒙古自治州,和静县
652828,652800,和硕县,3,HE_SHUO_XIAN,H,新疆维吾尔自治区,巴音郭楞蒙古自治州,和硕县
652829,652800,博湖县,3,BO_HU_XIAN,B,新疆维吾尔自治区,巴音郭楞蒙古自治州,博湖县
652826,652800,焉耆回族自治县,3,YAN_QI_HUI_ZU_ZI_ZHI_XIAN,Y,新疆维吾尔自治区,巴音郭楞蒙古自治州,焉耆回族自治县
653000,650000,克孜勒苏柯尔克孜自治州,2,KE_ZI_LE_SU_KE_ER_KE_ZI_ZI_ZHI_ZHOU,K,新疆维吾尔自治区,克孜勒苏柯尔克孜自治州,
653001,653000,阿图什市,3,A_TU_SHEN_SHI,A,新疆维吾尔自治区,克孜勒苏柯尔克孜自治州,阿图什市
653022,653000,阿克陶县,3,A_KE_TAO_XIAN,A,新疆维吾尔自治区,克孜勒苏柯尔克孜自治州,阿克陶县
653023,653000,阿合奇县,3,A_HE_QI_XIAN,A,新疆维吾尔自治区,克孜勒苏柯尔克孜自治州,阿合奇县
653024,653000,乌恰县,3,WU_QIA_XIAN,W,新疆维吾尔自治区,克孜勒苏柯尔克孜自治州,乌恰县
654000,650000,伊犁哈萨克自治州,2,YI_LI_HA_SA_KE_ZI_ZHI_ZHOU,Y,新疆维吾尔自治区,伊犁哈萨克自治州,
654002,654000,伊宁市,3,YI_NING_SHI,Y,新疆维吾尔自治区,伊犁哈萨克自治州,伊宁市
654003,654000,奎屯市,3,KUI_TUN_SHI,K,新疆维吾尔自治区,伊犁哈萨克自治州,奎屯市
654004,654000,霍尔果斯市,3,HUO_ER_GUO_SI_SHI,H,新疆维吾尔自治区,伊犁哈萨克自治州,霍尔果斯市
654021,654000,伊宁县,3,YI_NING_XIAN,Y,新疆维吾尔自治区,伊犁哈萨克自治州,伊宁县
654023,654000,霍城县,3,HUO_CHENG_XIAN,H,新疆维吾尔自治区,伊犁哈萨克自治州,霍城县
654024,654000,巩留县,3,GONG_LIU_XIAN,G,新疆维吾尔自治区,伊犁哈萨克自治州,巩留县
654025,654000,新源县,3,XIN_YUAN_XIAN,X,新疆维吾尔自治区,伊犁哈萨克自治州,新源县
654026,654000,昭苏县,3,ZHAO_SU_XIAN,Z,新疆维吾尔自治区,伊犁哈萨克自治州,昭苏县
654027,654000,特克斯县,3,TE_KE_SI_XIAN,T,新疆维吾尔自治区,伊犁哈萨克自治州,特克斯县
654028,654000,尼勒克县,3,NI_LE_KE_XIAN,N,新疆维吾尔自治区,伊犁哈萨克自治州,尼勒克县
654022,654000,察布查尔锡伯自治县,3,CHA_BU_CHA_ER_XI_BO_ZI_ZHI_XIAN,C,新疆维吾尔自治区,伊犁哈萨克自治州,察布查尔锡伯自治县
654200,650000,塔城地区,2,TA_CHENG_DI_QU,T,新疆维吾尔自治区,塔城地区,
654201,654200,塔城市,3,TA_CHENG_SHI,T,新疆维吾尔自治区,塔城地区,塔城市
654202,654200,乌苏市,3,WU_SU_SHI,W,新疆维吾尔自治区,塔城地区,乌苏市
654221,654200,额敏县,3,E_MIN_XIAN,E,新疆维吾尔自治区,塔城地区,额敏县
654223,654200,沙湾县,3,SHA_WAN_XIAN,S,新疆维吾尔自治区,塔城地区,沙湾县
654224,654200,托里县,3,TUO_LI_XIAN,T,新疆维吾尔自治区,塔城地区,托里县
654225,654200,裕民县,3,YU_MIN_XIAN,Y,新疆维吾尔自治区,塔城地区,裕民县
654226,654200,和布克赛尔蒙古自治县,3,HE_BU_KE_SAI_ER_MENG_GU_ZI_ZHI_XIAN,H,新疆维吾尔自治区,塔城地区,和布克赛尔蒙古自治县
654300,650000,阿勒泰地区,2,A_LE_TAI_DI_QU,A,新疆维吾尔自治区,阿勒泰地区,
654301,654300,阿勒泰市,3,A_LE_TAI_SHI,A,新疆维吾尔自治区,阿勒泰地区,阿勒泰市
654321,654300,布尔津县,3,BU_ER_JIN_XIAN,B,新疆维吾尔自治区,阿勒泰地区,布尔津县
654322,654300,富蕴县,3,FU_YUN_XIAN,F,新疆维吾尔自治区,阿勒泰地区,富蕴县
654323,654300,福海县,3,FU_HAI_XIAN,F,新疆维吾尔自治区,阿勒泰地区,福海县
654324,654300,哈巴河县,3,HA_BA_HE_XIAN,H,新疆维吾尔自治区,阿勒泰地区,哈巴河县
654325,654300,青河县,3,QING_HE_XIAN,Q,新疆维吾尔自治区,阿勒泰地区,青河县
654326,654300,吉木乃县,3,JI_MU_NAI_XIAN,J,新疆维吾尔自治区,阿勒泰地区,吉木乃县
659001,,石河子市,3,SHI_HE_ZI_SHI,S,新疆维吾尔自治区,自治区直辖县级行政单位,石河子市
659002,,阿拉尔市,3,A_LA_ER_SHI,A,新疆维吾尔自治区,自治区直辖县级行政单位,阿拉尔市
659003,,图木舒克市,3,TU_MU_SHU_KE_SHI,T,新疆维吾尔自治区,自治区直辖县级行政单位,图木舒克市
659004,,五家渠市,3,WU_JIA_QU_SHI,W,新疆维吾尔自治区,自治区直辖县级行政单位,五家渠市
659005,,北屯市,3,BEI_TUN_SHI,B,新疆维吾尔自治区,自治区直辖县级行政单位,北屯市
659006,,铁门关市,3,TIE_MEN_GUAN_SHI,T,新疆维吾尔自治区,自治区直辖县级行政单位,铁门关市
659007,,双河市,3,SHUANG_HE_SHI,S,新疆维吾尔自治区,自治区直辖县级行政单位,双河市
659008,,可克达拉市,3,KE_KE_DA_LA_SHI,K,新疆维吾尔自治区,自治区直辖县级行政单位,可克达拉市
659009,,昆玉市,3,KUN_YU_SHI,K,新疆维吾尔自治区,自治区直辖县级行政单位,昆玉市
810000,100000,香港特别行政区,1,XIANG_GANG_TE_BIE_XING_ZHENG_QU,X,香港特别行政区,,
810000,810000,香港特别行政区,2,XIANG_GANG_TE_BIE_XING_ZHENG_QU,X,香港特别行政区,香港特别行政区,
820000,100000,澳门特别行政区,1,AO_MEN_TE_BIE_XING_ZHENG_QU,A,澳门特别行政区,,
820000,820000,澳门特别行政区（澳）,2,AO_MEN_TE_BIE_XING_ZHENG_QU__AO,A,澳门特别行政区,澳门特别行政区（澳）,
710000,100000,台湾省,1,TAI_WAN_SHENG,T,台湾省,,
